{
"type": "FeatureCollection",
"name": "desert_boundary",
"crs": { "type": "name", "properties": { "name": "urn:ogc:def:crs:OGC:1.3:CRS84" } },
"features": [
{ "type": "Feature", "properties": { "GID_1": "SDN.10_1", "GID_0": "SDN", "COUNTRY": "Sudan", "NAME_1": "Northern", "VARNAME_1": "AshShamālī|AshShamālīyah|Nord", "NL_NAME_1": "الشمالية", "TYPE_1": "Wilayat", "ENGTYPE_1": "State", "CC_1": "NA", "HASC_1": "SD.NO", "ISO_1": "SD-NO" }, "geometry": { "type": "Polygon", "coordinates": [ [ [ 34.3194, 16.248 ], [ 34.2172, 16.0548 ], [ 34.2203, 16.0494 ], [ 34.2062, 16.0244 ], [ 34.0223, 15.98 ], [ 33.7744, 15.9406 ], [ 33.6257, 15.977 ], [ 33.5193, 16.0207 ], [ 33.4467, 16.0797 ], [ 33.0837, 16.1797 ], [ 32.8123, 16.2256 ], [ 32.7086, 16.31 ], [ 32.1778, 16.3774 ], [ 31.8283, 16.6313 ], [ 31.6231, 16.5281 ], [ 31.493, 16.5126 ], [ 31.0034, 16.5079 ], [ 30.131, 16.5568 ], [ 29.9839, 16.5605 ], [ 28.6421, 16.5739 ], [ 27.5, 16.5738 ], [ 27.5, 20.0 ], [ 27.4714, 19.9982 ], [ 25.0, 20.0036 ], [ 25.0, 21.9992 ], [ 25.1392, 22.0044 ], [ 26.3756, 22.0058 ], [ 26.476, 22.0073 ], [ 26.4955, 22.0061 ], [ 26.5337, 22.0071 ], [ 26.9475, 22.0052 ], [ 27.634, 22.0077 ], [ 27.6749, 22.0064 ], [ 27.764, 22.0081 ], [ 27.7982, 22.007 ], [ 28.0196, 22.0074 ], [ 28.0615, 22.0056 ], [ 28.107, 22.006 ], [ 28.1255, 22.0076 ], [ 28.6756, 22.0067 ], [ 28.7672, 22.0077 ], [ 29.3118, 22.0061 ], [ 29.3173, 22.0043 ], [ 29.6664, 22.0056 ], [ 29.8773, 22.0047 ], [ 30.0, 21.9992 ], [ 30.0, 22.0052 ], [ 30.8258, 22.0081 ], [ 30.8357, 22.0067 ], [ 30.9775, 22.0085 ], [ 31.0364, 22.0069 ], [ 31.2599, 22.0077 ], [ 31.3185, 22.0064 ], [ 31.3461, 22.0785 ], [ 31.3477, 22.0962 ], [ 31.3569, 22.115 ], [ 31.3877, 22.1543 ], [ 31.3996, 22.1638 ], [ 31.4103, 22.1814 ], [ 31.4277, 22.1949 ], [ 31.449, 22.2069 ], [ 31.4688, 22.2228 ], [ 31.4745, 22.2251 ], [ 31.4836, 22.2193 ], [ 31.497, 22.1974 ], [ 31.5085, 22.1918 ], [ 31.5124, 22.1865 ], [ 31.5129, 22.1808 ], [ 31.5071, 22.1686 ], [ 31.4952, 22.1556 ], [ 31.489, 22.1458 ], [ 31.4746, 22.1351 ], [ 31.4654, 22.1253 ], [ 31.4355, 22.0812 ], [ 31.426, 22.0629 ], [ 31.4127, 22.0276 ], [ 31.4107, 22.0132 ], [ 31.4121, 22.0081 ], [ 31.9427, 22.0067 ], [ 32.0232, 22.0032 ], [ 32.0867, 22.0047 ], [ 32.4308, 22.0043 ], [ 33.1665, 22.0062 ], [ 33.559, 21.7271 ], [ 33.5641, 21.7254 ], [ 33.5761, 21.7267 ], [ 33.5462, 21.6998 ], [ 33.2678, 21.5048 ], [ 33.287, 21.478 ], [ 33.305, 21.459 ], [ 33.317, 21.451 ], [ 33.328, 21.44 ], [ 33.338, 21.416 ], [ 33.34, 21.405 ], [ 33.339, 21.366 ], [ 33.351, 21.317 ], [ 33.351, 21.291 ], [ 33.349, 21.285 ], [ 33.3508, 21.2771 ], [ 33.342, 21.249 ], [ 33.324, 21.222 ], [ 33.303, 21.201 ], [ 33.291, 21.185 ], [ 33.289, 21.166 ], [ 33.291, 21.16 ], [ 33.292, 21.136 ], [ 33.297, 21.102 ], [ 33.296, 21.068 ], [ 33.29, 21.037 ], [ 33.278, 21.014 ], [ 33.272, 20.997 ], [ 33.267, 20.966 ], [ 33.269, 20.955 ], [ 33.2745, 20.9396 ], [ 33.2837, 20.9228 ], [ 33.289, 20.921 ], [ 33.297, 20.914 ], [ 33.32, 20.901 ], [ 33.344, 20.889 ], [ 33.364, 20.874 ], [ 33.367, 20.869 ], [ 33.371, 20.866 ], [ 33.3753, 20.8568 ], [ 33.3789, 20.8545 ], [ 33.384, 20.845 ], [ 33.401, 20.826 ], [ 33.421, 20.798 ], [ 33.432, 20.787 ], [ 33.4369, 20.7846 ], [ 33.4424, 20.7769 ], [ 33.474, 20.763 ], [ 33.492, 20.759 ], [ 33.519, 20.756 ], [ 33.536, 20.75 ], [ 33.54, 20.747 ], [ 33.549, 20.735 ], [ 33.568, 20.68 ], [ 33.588, 20.645 ], [ 33.596, 20.639 ], [ 33.606, 20.628 ], [ 33.629, 20.582 ], [ 33.641, 20.566 ], [ 33.659, 20.53 ], [ 33.666, 20.509 ], [ 33.676, 20.486 ], [ 33.679, 20.463 ], [ 33.677, 20.443 ], [ 33.669, 20.4 ], [ 33.668, 20.367 ], [ 33.6697, 20.3508 ], [ 33.6066, 20.1018 ], [ 33.6001, 20.0666 ], [ 33.6009, 20.0446 ], [ 33.6255, 20.0036 ], [ 33.6477, 19.9719 ], [ 33.692, 19.6784 ], [ 33.6676, 19.4089 ], [ 33.6727, 19.327 ], [ 33.7884, 19.1429 ], [ 34.1085, 18.3401 ], [ 34.4383, 18.2344 ], [ 34.6023, 18.15 ], [ 34.8428, 17.9197 ], [ 34.974, 17.7094 ], [ 35.1559, 17.4356 ], [ 35.2144, 17.3835 ], [ 35.3755, 17.3101 ], [ 35.7666, 17.1583 ], [ 35.6742, 16.5596 ], [ 35.4033, 16.3723 ], [ 35.3498, 16.3796 ], [ 35.297, 16.3589 ], [ 35.0201, 16.3742 ], [ 34.5032, 16.3985 ], [ 34.4256, 16.3616 ], [ 34.3746, 16.3046 ], [ 34.3459, 16.3054 ], [ 34.3194, 16.248 ] ] ] } }
]
}
