{
"type": "FeatureCollection",
"name": "gezira_irrigated_nile_boundary",
"crs": { "type": "name", "properties": { "name": "urn:ogc:def:crs:OGC:1.3:CRS84" } },
"features": [
{ "type": "Feature", "properties": { "GID_1": "SDN.1_1", "GID_0": "SDN", "COUNTRY": "Sudan", "NAME_1": "AlJazirah", "VARNAME_1": "Gezira", "NL_NAME_1": "ولايةالجزيرة", "TYPE_1": "Wilayat", "ENGTYPE_1": "State", "CC_1": "NA", "HASC_1": "SD.GZ", "ISO_1": "NA" }, "geometry": { "type": "Polygon", "coordinates": [ [ [ 33.2552, 12.2012 ], [ 32.724, 12.219 ], [ 32.73, 12.202 ], [ 32.73, 12.182 ], [ 32.725, 12.152 ], [ 32.725, 12.132 ], [ 32.728, 12.108 ], [ 32.73, 12.103 ], [ 32.732, 12.086 ], [ 32.746, 12.052 ], [ 32.747, 12.04 ], [ 32.7497, 12.0342 ], [ 32.747, 12.021 ], [ 32.746, 11.995 ], [ 32.742, 11.991 ], [ 32.737, 11.982 ], [ 32.722, 11.948 ], [ 32.72, 11.937 ], [ 32.722, 11.912 ], [ 32.724, 11.906 ], [ 32.1744, 11.9054 ], [ 32.1038, 11.985 ], [ 31.9115, 12.1619 ], [ 31.823, 12.1606 ], [ 31.6912, 12.5453 ], [ 31.6514, 12.671 ], [ 31.6466, 12.6985 ], [ 31.6789, 12.7666 ], [ 31.6742, 12.7836 ], [ 31.6737, 12.7946 ], [ 31.7375, 12.9892 ], [ 31.8388, 13.0448 ], [ 31.8759, 13.0767 ], [ 31.9144, 13.1136 ], [ 31.9255, 13.1215 ], [ 32.0023, 13.1448 ], [ 32.0662, 13.2236 ], [ 32.0647, 13.2365 ], [ 32.061, 13.2438 ], [ 32.0442, 13.2511 ], [ 32.0213, 13.2578 ], [ 32.018, 13.2652 ], [ 32.0191, 13.3153 ], [ 32.0586, 13.4358 ], [ 32.0749, 13.4446 ], [ 32.0697, 13.4519 ], [ 32.0599, 13.4555 ], [ 32.0594, 13.4675 ], [ 31.8793, 13.6214 ], [ 31.843, 13.7246 ], [ 31.7919, 13.8805 ], [ 31.6026, 14.0161 ], [ 31.5662, 14.1252 ], [ 31.5539, 14.1679 ], [ 31.5523, 14.2992 ], [ 31.6273, 14.4856 ], [ 31.9112, 14.7331 ], [ 31.9648, 14.9258 ], [ 32.0501, 14.9225 ], [ 32.0556, 14.9322 ], [ 32.0775, 14.9383 ], [ 32.077, 14.9456 ], [ 32.0629, 14.9662 ], [ 32.0455, 14.9978 ], [ 32.0482, 15.0167 ], [ 32.0621, 15.0388 ], [ 32.3741, 15.1698 ], [ 32.4443, 15.1674 ], [ 32.456, 15.2 ], [ 32.476, 15.223 ], [ 32.481, 15.231 ], [ 32.5553, 15.2237 ], [ 33.026, 15.265 ], [ 33.1464, 15.2639 ], [ 33.1982, 15.2434 ], [ 33.2798, 15.3343 ], [ 33.5158, 15.4613 ], [ 33.5905, 15.4318 ], [ 33.6256, 15.3956 ], [ 33.641, 15.2901 ], [ 33.7025, 15.289 ], [ 34.0162, 15.1844 ], [ 34.2208, 14.8736 ], [ 34.2983, 14.7357 ], [ 34.2757, 14.672 ], [ 34.0857, 14.4036 ], [ 34.09, 14.3931 ], [ 33.9283, 14.1578 ], [ 33.934, 14.1363 ], [ 33.9239, 14.1114 ], [ 33.9374, 14.0991 ], [ 33.9413, 14.0775 ], [ 33.9605, 14.051 ], [ 33.9663, 14.0147 ], [ 33.9887, 14.0042 ], [ 33.9873, 13.99 ], [ 34.001, 13.9643 ], [ 34.0296, 13.9268 ], [ 34.066, 13.91 ], [ 34.068, 13.8838 ], [ 34.0807, 13.8439 ], [ 34.1038, 13.8018 ], [ 34.1192, 13.7986 ], [ 34.1375, 13.7592 ], [ 34.1618, 13.74 ], [ 34.206, 13.7485 ], [ 34.2117, 13.7389 ], [ 34.2462, 13.7225 ], [ 34.2555, 13.7276 ], [ 34.269, 13.7281 ], [ 34.2905, 13.7209 ], [ 34.3399, 13.7257 ], [ 34.3555, 13.6684 ], [ 34.2858, 13.6386 ], [ 34.362, 13.4732 ], [ 34.5648, 13.2468 ], [ 34.583, 13.2473 ], [ 34.597, 13.2331 ], [ 34.6245, 13.231 ], [ 34.6195, 13.2176 ], [ 34.6462, 13.1718 ], [ 34.657, 13.1691 ], [ 34.7142, 13.1799 ], [ 34.7226, 13.1726 ], [ 34.7366, 13.1782 ], [ 34.7627, 13.1719 ], [ 34.7758, 13.1559 ], [ 34.7889, 13.1541 ], [ 34.7964, 13.1404 ], [ 34.7956, 13.1197 ], [ 34.8119, 13.106 ], [ 34.8162, 13.0983 ], [ 34.8102, 13.0743 ], [ 34.8616, 13.0424 ], [ 34.8756, 13.0365 ], [ 34.885, 13.0237 ], [ 34.8831, 13.0204 ], [ 34.8823, 13.0099 ], [ 34.9328, 12.9733 ], [ 34.9593, 12.9693 ], [ 34.9669, 12.9455 ], [ 34.9916, 12.9346 ], [ 35.0121, 12.9448 ], [ 35.0331, 12.9274 ], [ 35.056, 12.9128 ], [ 35.0785, 12.8914 ], [ 35.1083, 12.8988 ], [ 35.1278, 12.8962 ], [ 35.1325, 12.8884 ], [ 35.1657, 12.861 ], [ 35.1793, 12.8441 ], [ 35.1911, 12.8244 ], [ 35.2279, 12.8176 ], [ 35.2364, 12.8021 ], [ 35.2616, 12.7962 ], [ 35.3008, 12.772 ], [ 35.327, 12.7409 ], [ 35.3594, 12.7342 ], [ 35.3629, 12.7314 ], [ 35.3653, 12.733 ], [ 35.4161, 12.7225 ], [ 35.4594, 12.7175 ], [ 35.4605, 12.7161 ], [ 35.4655, 12.7186 ], [ 35.4846, 12.7219 ], [ 35.507, 12.717 ], [ 35.5335, 12.7268 ], [ 35.5628, 12.7342 ], [ 35.5729, 12.7252 ], [ 35.5795, 12.7151 ], [ 35.597, 12.7112 ], [ 35.6022, 12.7023 ], [ 35.6092, 12.6996 ], [ 35.6203, 12.6988 ], [ 35.6341, 12.6912 ], [ 35.6541, 12.6884 ], [ 35.6677, 12.6812 ], [ 35.672, 12.6768 ], [ 35.6736, 12.6782 ], [ 35.6974, 12.6657 ], [ 35.6852, 12.6487 ], [ 35.6903, 12.6388 ], [ 35.6917, 12.6312 ], [ 35.6908, 12.6239 ], [ 35.6837, 12.6097 ], [ 35.6663, 12.6009 ], [ 35.6606, 12.6003 ], [ 35.6475, 12.6052 ], [ 35.4298, 12.2364 ], [ 35.4383, 12.2278 ], [ 35.4412, 12.2205 ], [ 35.4425, 12.2117 ], [ 35.4415, 12.205 ], [ 35.4376, 12.1973 ], [ 35.4334, 12.1911 ], [ 35.4236, 12.1853 ], [ 35.4095, 12.1837 ], [ 35.4007, 12.1858 ], [ 35.3319, 12.0667 ], [ 35.3372, 12.0628 ], [ 35.3402, 12.0577 ], [ 35.3432, 12.0472 ], [ 35.3436, 12.0345 ], [ 35.3398, 12.0234 ], [ 35.3357, 12.0188 ], [ 35.3233, 12.0131 ], [ 35.3077, 12.016 ], [ 35.3024, 12.0155 ], [ 35.2753, 11.94 ], [ 35.2571, 11.9342 ], [ 35.2021, 11.8907 ], [ 35.1572, 11.8608 ], [ 35.0974, 11.8145 ], [ 35.0466, 11.7352 ], [ 35.0486, 11.7255 ], [ 34.8958, 11.9487 ], [ 34.9109, 11.9876 ], [ 34.749, 12.4323 ], [ 34.6916, 12.4564 ], [ 34.6686, 12.4857 ], [ 34.5087, 12.5235 ], [ 34.4915, 12.5143 ], [ 34.4466, 12.5379 ], [ 34.3115, 12.3985 ], [ 34.33, 12.389 ], [ 34.342, 12.38 ], [ 34.348, 12.373 ], [ 34.353, 12.351 ], [ 34.3518, 12.3306 ], [ 34.1217, 12.191 ], [ 33.816, 12.1212 ], [ 33.1894, 11.7203 ], [ 33.1974, 11.7423 ], [ 33.2311, 11.9839 ], [ 33.2602, 12.1475 ], [ 33.306, 12.2028 ], [ 33.2552, 12.2012 ] ] ] } }
]
}
