{
"type": "FeatureCollection",
"name": "high_rainfall_savanna_boundary",
"crs": { "type": "name", "properties": { "name": "urn:ogc:def:crs:OGC:1.3:CRS84" } },
"features": [
{ "type": "Feature", "properties": { "GID_1": "SDN.4_1", "GID_0": "SDN", "COUNTRY": "Sudan", "NAME_1": "CentralDarfur", "VARNAME_1": "Zalingei", "NL_NAME_1": "NA", "TYPE_1": "Wilayat", "ENGTYPE_1": "State", "CC_1": "NA", "HASC_1": "SD.CD", "ISO_1": "SD-DC" }, "geometry": { "type": "Polygon", "coordinates": [ [ [ 24.2245, 8.7048 ], [ 24.2234, 8.7014 ], [ 24.2162, 8.6942 ], [ 24.2059, 8.6882 ], [ 24.1996, 8.6903 ], [ 24.1948, 8.6948 ], [ 24.1747, 8.7065 ], [ 24.1645, 8.7078 ], [ 24.1399, 8.6949 ], [ 24.1318, 8.6924 ], [ 24.1015, 8.6994 ], [ 24.061, 8.7032 ], [ 24.0376, 8.71 ], [ 24.0189, 8.7101 ], [ 24.0067, 8.7076 ], [ 23.9944, 8.708 ], [ 23.9755, 8.7189 ], [ 23.9681, 8.7249 ], [ 23.9406, 8.73 ], [ 23.9081, 8.7235 ], [ 23.9011, 8.7234 ], [ 23.8899, 8.7193 ], [ 23.8735, 8.7165 ], [ 23.8298, 8.7349 ], [ 23.818, 8.7369 ], [ 23.8127, 8.7343 ], [ 23.794, 8.7324 ], [ 23.7908, 8.7338 ], [ 23.7832, 8.7331 ], [ 23.7389, 8.7161 ], [ 23.7138, 8.7229 ], [ 23.6768, 8.7252 ], [ 23.6377, 8.7425 ], [ 23.6296, 8.7445 ], [ 23.6082, 8.7442 ], [ 23.5775, 8.7406 ], [ 23.5699, 8.7339 ], [ 23.5576, 8.7161 ], [ 23.5446, 8.7177 ], [ 23.5201, 8.727 ], [ 23.5198, 8.7589 ], [ 23.5091, 8.7686 ], [ 23.5082, 8.7718 ], [ 23.5117, 8.7937 ], [ 23.5081, 8.8061 ], [ 23.5085, 8.8148 ], [ 23.514, 8.8261 ], [ 23.5235, 8.8324 ], [ 23.5368, 8.837 ], [ 23.5465, 8.8467 ], [ 23.5648, 8.8718 ], [ 23.5657, 8.8755 ], [ 23.5696, 8.879 ], [ 23.5703, 8.8834 ], [ 23.581, 8.9027 ], [ 23.586, 8.9186 ], [ 23.5887, 8.9342 ], [ 23.5882, 8.9512 ], [ 23.5856, 8.9615 ], [ 23.5885, 8.9824 ], [ 23.5863, 8.9973 ], [ 23.5772, 9.0072 ], [ 23.5696, 9.0083 ], [ 23.5453, 8.9776 ], [ 23.5313, 8.9635 ], [ 23.5127, 8.9635 ], [ 23.5036, 8.9619 ], [ 23.5004, 8.9624 ], [ 23.4827, 8.9743 ], [ 23.4804, 8.9777 ], [ 23.4656, 8.9813 ], [ 23.4635, 8.984 ], [ 23.465, 8.9985 ], [ 23.4634, 9.0047 ], [ 23.4508, 9.0104 ], [ 23.4478, 9.017 ], [ 23.4508, 9.0258 ], [ 23.462, 9.0401 ], [ 23.4645, 9.0456 ], [ 23.4632, 9.0665 ], [ 23.4655, 9.0764 ], [ 23.4751, 9.0943 ], [ 23.4753, 9.1025 ], [ 23.4717, 9.1171 ], [ 23.4763, 9.142 ], [ 23.49, 9.15 ], [ 23.492, 9.1727 ], [ 23.5054, 9.1733 ], [ 23.5095, 9.1799 ], [ 23.5137, 9.1802 ], [ 23.5276, 9.1738 ], [ 23.5398, 9.1744 ], [ 23.5458, 9.1776 ], [ 23.5724, 9.1977 ], [ 23.5946, 9.2208 ], [ 23.611, 9.2305 ], [ 23.6142, 9.2374 ], [ 23.6125, 9.2457 ], [ 23.6203, 9.2593 ], [ 23.6325, 9.2715 ], [ 23.6401, 9.2729 ], [ 23.6468, 9.2698 ], [ 23.6512, 9.273 ], [ 23.6553, 9.2857 ], [ 23.6537, 9.2939 ], [ 23.6427, 9.3141 ], [ 23.6396, 9.3237 ], [ 23.6391, 9.3433 ], [ 23.6463, 9.3805 ], [ 23.6511, 9.3837 ], [ 23.6508, 9.394 ], [ 23.6637, 9.4065 ], [ 23.6717, 9.4219 ], [ 23.6774, 9.4387 ], [ 23.6727, 9.4546 ], [ 23.6679, 9.4568 ], [ 23.6612, 9.4566 ], [ 23.6517, 9.4524 ], [ 23.6439, 9.4457 ], [ 23.634, 9.4691 ], [ 23.6335, 9.4739 ], [ 23.6406, 9.502 ], [ 23.6414, 9.5157 ], [ 23.6469, 9.5275 ], [ 23.6557, 9.5365 ], [ 23.6526, 9.5401 ], [ 23.6285, 9.5421 ], [ 23.6326, 9.5584 ], [ 23.6502, 9.5721 ], [ 23.6542, 9.5863 ], [ 23.6645, 9.6004 ], [ 23.6679, 9.6181 ], [ 23.6845, 9.6421 ], [ 23.6979, 9.6677 ], [ 23.6978, 9.6775 ], [ 23.6682, 9.8915 ], [ 23.5869, 10.0191 ], [ 23.5015, 10.1588 ], [ 23.4875, 10.1783 ], [ 23.4865, 10.1828 ], [ 23.4294, 10.2736 ], [ 23.4268, 10.2805 ], [ 23.3907, 10.3336 ], [ 23.3874, 10.3418 ], [ 23.3837, 10.3448 ], [ 23.3501, 10.4002 ], [ 23.3445, 10.4061 ], [ 23.3417, 10.4137 ], [ 23.3272, 10.4352 ], [ 23.3232, 10.4444 ], [ 23.3019, 10.4746 ], [ 23.2706, 10.4898 ], [ 23.2638, 10.4946 ], [ 23.2479, 10.5154 ], [ 23.2413, 10.5267 ], [ 23.228, 10.5362 ], [ 23.2167, 10.5407 ], [ 23.2094, 10.5455 ], [ 23.1911, 10.5714 ], [ 23.1864, 10.573 ], [ 23.1595, 10.5971 ], [ 23.1367, 10.6342 ], [ 23.13, 10.6399 ], [ 23.0875, 10.6631 ], [ 23.0779, 10.6711 ], [ 23.073, 10.6784 ], [ 23.0695, 10.6793 ], [ 23.055, 10.6904 ], [ 23.0229, 10.7077 ], [ 23.0074, 10.7161 ], [ 22.9985, 10.7248 ], [ 22.9938, 10.7339 ], [ 22.9906, 10.747 ], [ 22.9762, 10.7782 ], [ 22.9727, 10.7809 ], [ 22.9215, 10.8463 ], [ 22.9207, 10.8626 ], [ 22.9139, 10.8699 ], [ 22.9085, 10.8721 ], [ 22.8988, 10.8822 ], [ 22.8911, 10.8876 ], [ 22.8853, 10.8947 ], [ 22.8772, 10.9174 ], [ 22.8882, 10.9472 ], [ 22.8888, 10.9552 ], [ 22.9041, 10.9926 ], [ 22.9072, 11.0057 ], [ 22.9105, 11.0098 ], [ 22.938, 11.0875 ], [ 22.945, 11.091 ], [ 22.9658, 11.1422 ], [ 22.9777, 11.1814 ], [ 22.9861, 11.1996 ], [ 22.9821, 11.2961 ], [ 22.9652, 11.3061 ], [ 22.9636, 11.3096 ], [ 22.9533, 11.312 ], [ 22.9514, 11.3228 ], [ 22.9453, 11.4172 ], [ 22.9385, 11.4181 ], [ 22.8712, 11.4148 ], [ 22.789, 11.4032 ], [ 22.7878, 11.4383 ], [ 22.7776, 11.4514 ], [ 22.7542, 11.4751 ], [ 22.7415, 11.4794 ], [ 22.6622, 11.5155 ], [ 22.6422, 11.5365 ], [ 22.6363, 11.5399 ], [ 22.6026, 11.5757 ], [ 22.6003, 11.5814 ], [ 22.5661, 11.6207 ], [ 22.5541, 11.6872 ], [ 22.5547, 11.6941 ], [ 22.5563, 11.696 ], [ 22.5623, 11.729 ], [ 22.5774, 11.7872 ], [ 22.5976, 11.8775 ], [ 22.635, 12.0268 ], [ 22.6391, 12.0478 ], [ 22.6381, 12.0556 ], [ 22.635, 12.0578 ], [ 22.611, 12.0505 ], [ 22.5864, 12.0558 ], [ 22.5771, 12.0516 ], [ 22.5638, 12.051 ], [ 22.5609, 12.0524 ], [ 22.5582, 12.0537 ], [ 22.5514, 12.053 ], [ 22.5312, 12.045 ], [ 22.5242, 12.0392 ], [ 22.5179, 12.0371 ], [ 22.5128, 12.0319 ], [ 22.4917, 12.0205 ], [ 22.4713, 12.0194 ], [ 22.4573, 12.0264 ], [ 22.4715, 12.0297 ], [ 22.4821, 12.059 ], [ 22.4834, 12.0703 ], [ 22.4887, 12.0804 ], [ 22.4865, 12.0921 ], [ 22.4906, 12.1124 ], [ 22.4925, 12.1485 ], [ 22.4862, 12.1822 ], [ 22.4831, 12.1919 ], [ 22.4772, 12.2027 ], [ 22.4755, 12.2196 ], [ 22.4656, 12.2286 ], [ 22.444, 12.272 ], [ 22.4426, 12.2888 ], [ 22.4257, 12.3387 ], [ 22.4257, 12.3483 ], [ 22.4198, 12.3561 ], [ 22.4188, 12.3607 ], [ 22.4238, 12.3789 ], [ 22.4219, 12.3878 ], [ 22.4087, 12.4016 ], [ 22.3938, 12.4203 ], [ 22.388, 12.4233 ], [ 22.3781, 12.4237 ], [ 22.3751, 12.426 ], [ 22.3718, 12.4335 ], [ 22.3721, 12.4415 ], [ 22.3954, 12.4778 ], [ 22.4074, 12.4917 ], [ 22.413, 12.4952 ], [ 22.4202, 12.5091 ], [ 22.4414, 12.5654 ], [ 22.4589, 12.6198 ], [ 22.4584, 12.6241 ], [ 22.451, 12.6312 ], [ 22.4166, 12.6382 ], [ 22.3594, 12.6614 ], [ 22.2874, 12.6966 ], [ 22.2858, 12.6998 ], [ 22.2771, 12.7034 ], [ 22.2544, 12.719 ], [ 22.1979, 12.7502 ], [ 22.1951, 12.7069 ], [ 22.1839, 12.693 ], [ 22.1645, 12.6788 ], [ 22.1362, 12.6659 ], [ 22.0328, 12.6372 ], [ 21.9605, 12.6394 ], [ 21.9411, 12.6355 ], [ 21.9342, 12.6394 ], [ 21.9155, 12.6647 ], [ 21.8878, 12.6864 ], [ 21.8853, 12.7014 ], [ 21.8803, 12.7091 ], [ 21.8659, 12.7195 ], [ 21.858, 12.7341 ], [ 21.8598, 12.7549 ], [ 21.8533, 12.7716 ], [ 21.8433, 12.7859 ], [ 21.8389, 12.7983 ], [ 21.8396, 12.8085 ], [ 21.8483, 12.8366 ], [ 21.8503, 12.8502 ], [ 21.8507, 12.8715 ], [ 21.8534, 12.8817 ], [ 21.8604, 12.8905 ], [ 21.8787, 12.9243 ], [ 21.8911, 12.9659 ], [ 21.8987, 12.9817 ], [ 21.9113, 13.0023 ], [ 21.9256, 13.0091 ], [ 21.9308, 13.0184 ], [ 21.9308, 13.0298 ], [ 21.933, 13.0358 ], [ 21.9269, 13.0416 ], [ 21.9257, 13.0469 ], [ 21.939, 13.0553 ], [ 21.9473, 13.068 ], [ 21.9649, 13.0727 ], [ 21.9821, 13.0915 ], [ 21.9942, 13.0994 ], [ 22.0033, 13.1027 ], [ 22.0075, 13.1089 ], [ 22.0099, 13.1308 ], [ 22.0136, 13.1363 ], [ 22.0204, 13.1391 ], [ 22.0511, 13.1382 ], [ 22.0645, 13.1427 ], [ 22.0717, 13.1432 ], [ 22.0745, 13.1462 ], [ 22.0786, 13.157 ], [ 22.0826, 13.16 ], [ 22.0882, 13.1608 ], [ 22.0932, 13.1592 ], [ 22.1091, 13.1605 ], [ 22.1279, 13.1643 ], [ 22.1346, 13.1678 ], [ 22.1381, 13.1719 ], [ 22.1465, 13.1927 ], [ 22.1539, 13.196 ], [ 22.1724, 13.2151 ], [ 22.1842, 13.2451 ], [ 22.1947, 13.2519 ], [ 22.2105, 13.2711 ], [ 22.2215, 13.2751 ], [ 22.2304, 13.2934 ], [ 22.2358, 13.299 ], [ 22.2437, 13.3029 ], [ 22.244, 13.3053 ], [ 22.2544, 13.3169 ], [ 22.2611, 13.3279 ], [ 22.2749, 13.3423 ], [ 22.2842, 13.3497 ], [ 22.2828, 13.3819 ], [ 22.2785, 13.3906 ], [ 22.2596, 13.4068 ], [ 22.2481, 13.4083 ], [ 22.2405, 13.4172 ], [ 22.2383, 13.4365 ], [ 22.2342, 13.4427 ], [ 22.2316, 13.445 ], [ 22.2241, 13.4472 ], [ 22.221, 13.4518 ], [ 22.2165, 13.471 ], [ 22.2218, 13.488 ], [ 22.2167, 13.5083 ], [ 22.2222, 13.5383 ], [ 22.2219, 13.5491 ], [ 22.215, 13.5607 ], [ 22.2137, 13.5665 ], [ 22.1962, 13.5817 ], [ 22.1809, 13.5881 ], [ 22.179, 13.5917 ], [ 22.1701, 13.5962 ], [ 22.1673, 13.5992 ], [ 22.1679, 13.6028 ], [ 22.1608, 13.617 ], [ 22.157, 13.6156 ], [ 22.1516, 13.6163 ], [ 22.1462, 13.6218 ], [ 22.1353, 13.6532 ], [ 22.1204, 13.668 ], [ 22.1163, 13.6852 ], [ 22.1193, 13.693 ], [ 22.1251, 13.6997 ], [ 22.1294, 13.7159 ], [ 22.124, 13.7225 ], [ 22.1239, 13.7326 ], [ 22.114, 13.7425 ], [ 22.1096, 13.7433 ], [ 22.1001, 13.7526 ], [ 22.0908, 13.7656 ], [ 22.0922, 13.7762 ], [ 22.1222, 13.8224 ], [ 22.1264, 13.8243 ], [ 22.1324, 13.8347 ], [ 22.1493, 13.8563 ], [ 22.2096, 13.916 ], [ 22.2319, 13.9474 ], [ 22.2635, 13.9635 ], [ 22.2917, 13.9748 ], [ 22.32, 14.0045 ], [ 22.3281, 14.011 ], [ 22.3519, 14.0172 ], [ 22.3584, 14.0175 ], [ 22.3669, 14.0229 ], [ 22.3927, 14.05 ], [ 22.4261, 14.0498 ], [ 22.431, 14.0511 ], [ 22.4529, 14.0656 ], [ 22.5037, 14.1096 ], [ 22.5364, 14.1186 ], [ 22.5763, 14.1761 ], [ 22.5791, 14.1844 ], [ 22.5534, 14.209 ], [ 22.5582, 14.2297 ], [ 22.5168, 14.2438 ], [ 22.5086, 14.244 ], [ 22.4792, 14.232 ], [ 22.4376, 14.2757 ], [ 22.4316, 14.2842 ], [ 22.4283, 14.2922 ], [ 22.4291, 14.3025 ], [ 22.4354, 14.3125 ], [ 22.4459, 14.3201 ], [ 22.4595, 14.3239 ], [ 22.4618, 14.329 ], [ 22.4554, 14.3567 ], [ 22.45, 14.3594 ], [ 22.4436, 14.3654 ], [ 22.4412, 14.4193 ], [ 22.4435, 14.426 ], [ 22.4429, 14.4308 ], [ 22.4496, 14.4724 ], [ 22.4476, 14.4825 ], [ 22.4286, 14.4968 ], [ 22.418, 14.5006 ], [ 22.4101, 14.5054 ], [ 22.4007, 14.5083 ], [ 22.3873, 14.5045 ], [ 22.3842, 14.5067 ], [ 22.3974, 14.5526 ], [ 22.4025, 14.5625 ], [ 22.4112, 14.5959 ], [ 22.4154, 14.597 ], [ 22.4256, 14.5955 ], [ 22.4314, 14.5972 ], [ 22.4429, 14.6051 ], [ 22.4472, 14.6051 ], [ 22.452, 14.5969 ], [ 22.4559, 14.6068 ], [ 22.4666, 14.616 ], [ 22.482, 14.6238 ], [ 22.4915, 14.6255 ], [ 22.5031, 14.6304 ], [ 22.5231, 14.6345 ], [ 22.6173, 14.6503 ], [ 22.7172, 14.6864 ], [ 22.7207, 14.6913 ], [ 22.7113, 14.7385 ], [ 22.7015, 14.7614 ], [ 22.6845, 14.815 ], [ 22.6711, 14.8487 ], [ 22.6747, 14.8588 ], [ 22.685, 14.8747 ], [ 22.704, 14.8906 ], [ 22.7257, 14.8972 ], [ 22.7408, 14.8947 ], [ 22.7444, 14.8973 ], [ 22.7524, 14.8991 ], [ 22.7571, 14.9028 ], [ 22.7599, 14.91 ], [ 22.7594, 14.9173 ], [ 22.7529, 14.9359 ], [ 22.75, 14.937 ], [ 22.7496, 14.9504 ], [ 22.7536, 14.966 ], [ 22.8044, 14.9531 ], [ 22.8713, 14.8819 ], [ 22.8181, 14.6177 ], [ 22.7973, 14.6325 ], [ 22.8077, 14.5564 ], [ 22.8825, 14.4796 ], [ 23.0051, 14.553 ], [ 23.1277, 14.3223 ], [ 23.0854, 14.1981 ], [ 23.1714, 14.1221 ], [ 23.2016, 14.1529 ], [ 23.2383, 14.1425 ], [ 23.2581, 14.113 ], [ 23.2419, 14.077 ], [ 23.2279, 14.04 ], [ 23.2249, 13.9759 ], [ 23.2094, 13.9183 ], [ 23.2104, 13.8358 ], [ 23.2259, 13.8009 ], [ 23.2218, 13.7633 ], [ 23.2543, 13.7012 ], [ 23.2795, 13.656 ], [ 23.3253, 13.6262 ], [ 23.2615, 13.5875 ], [ 23.2557, 13.4396 ], [ 23.3292, 13.4631 ], [ 23.4332, 13.5399 ], [ 23.4436, 13.5522 ], [ 23.4824, 13.5569 ], [ 23.5199, 13.5299 ], [ 23.5344, 13.5302 ], [ 23.5817, 13.5013 ], [ 23.5893, 13.5159 ], [ 23.6052, 13.5158 ], [ 23.6234, 13.5206 ], [ 23.6643, 13.506 ], [ 23.6654, 13.473 ], [ 23.6529, 13.4424 ], [ 23.6583, 13.425 ], [ 23.6459, 13.394 ], [ 23.6659, 13.3869 ], [ 23.6887, 13.3812 ], [ 23.7085, 13.3993 ], [ 23.7084, 13.4817 ], [ 23.7525, 13.4547 ], [ 23.7679, 13.4133 ], [ 23.8086, 13.3795 ], [ 23.8749, 13.3848 ], [ 23.8937, 13.391 ], [ 23.9347, 13.3837 ], [ 23.9492, 13.3877 ], [ 23.9711, 13.3888 ], [ 23.9865, 13.3832 ], [ 24.0186, 13.3924 ], [ 24.0405, 13.3768 ], [ 24.0182, 13.3662 ], [ 23.9983, 13.3538 ], [ 24.0201, 13.3437 ], [ 24.0429, 13.3401 ], [ 24.0504, 13.3351 ], [ 24.0564, 13.3158 ], [ 24.1246, 13.2457 ], [ 24.1529, 13.2733 ], [ 24.2735, 13.2658 ], [ 24.2906, 13.3507 ], [ 24.5131, 13.4103 ], [ 24.5792, 13.4064 ], [ 24.5992, 13.4114 ], [ 24.6998, 13.4185 ], [ 24.7287, 13.3837 ], [ 24.6345, 13.2238 ], [ 24.5829, 13.1939 ], [ 24.5485, 13.1617 ], [ 24.5206, 13.1511 ], [ 24.4819, 13.1505 ], [ 24.4521, 13.1427 ], [ 24.4396, 13.133 ], [ 24.4662, 13.1193 ], [ 24.523, 13.1185 ], [ 24.5505, 13.1075 ], [ 24.6259, 13.0866 ], [ 24.645, 13.093 ], [ 24.7238, 13.0744 ], [ 24.7661, 13.0804 ], [ 24.8067, 13.0548 ], [ 24.8328, 13.0223 ], [ 24.8524, 13.0021 ], [ 24.8748, 12.9953 ], [ 24.9363, 12.9894 ], [ 24.9769, 12.9579 ], [ 24.9937, 12.9418 ], [ 25.0272, 12.9336 ], [ 25.0477, 12.9323 ], [ 25.0877, 12.9338 ], [ 25.1662, 12.9569 ], [ 25.2162, 12.9703 ], [ 25.2334, 12.9698 ], [ 25.266, 12.9511 ], [ 25.28, 12.9516 ], [ 25.2996, 12.9558 ], [ 25.3466, 12.9549 ], [ 25.4481, 12.9459 ], [ 25.4542, 12.951 ], [ 25.4695, 12.957 ], [ 25.4979, 12.9561 ], [ 25.5236, 12.9365 ], [ 25.5417, 12.9356 ], [ 25.5594, 12.9397 ], [ 25.5771, 12.9393 ], [ 25.5823, 12.9329 ], [ 25.579, 12.9168 ], [ 25.5818, 12.9086 ], [ 25.5763, 12.8682 ], [ 25.5806, 12.8535 ], [ 25.5908, 12.8398 ], [ 25.7307, 12.773 ], [ 25.7652, 12.7447 ], [ 25.7712, 12.7465 ], [ 25.7973, 12.741 ], [ 25.8471, 12.7416 ], [ 26.0819, 12.4654 ], [ 26.0852, 12.4497 ], [ 26.083, 12.4043 ], [ 26.0756, 12.3905 ], [ 26.0677, 12.3882 ], [ 26.0541, 12.3886 ], [ 26.0201, 12.3987 ], [ 26.0024, 12.3987 ], [ 25.9787, 12.3775 ], [ 25.9611, 12.371 ], [ 25.9448, 12.3715 ], [ 25.9322, 12.3742 ], [ 25.9168, 12.382 ], [ 25.9066, 12.3755 ], [ 25.8903, 12.3571 ], [ 25.8847, 12.3466 ], [ 25.924, 12.2985 ], [ 25.9501, 12.2609 ], [ 25.9534, 12.2255 ], [ 25.9572, 12.2086 ], [ 25.9996, 12.1862 ], [ 26.0331, 12.1844 ], [ 26.0304, 12.1734 ], [ 26.0299, 12.1578 ], [ 26.0421, 12.1367 ], [ 26.0646, 12.0853 ], [ 26.161, 12.0557 ], [ 26.1648, 12.036 ], [ 26.1946, 12.0108 ], [ 26.1979, 11.9989 ], [ 26.1924, 11.9846 ], [ 26.3449, 11.8782 ], [ 26.3857, 11.8749 ], [ 26.5631, 11.8484 ], [ 26.651, 11.824 ], [ 26.759, 11.753 ], [ 26.7898, 11.74 ], [ 26.8215, 11.7416 ], [ 26.8901, 11.7679 ], [ 26.989, 11.7898 ], [ 27.0992, 11.7884 ], [ 27.1535, 11.7747 ], [ 27.1946, 11.7389 ], [ 27.2288, 11.7185 ], [ 27.118, 12.0062 ], [ 27.1073, 12.0254 ], [ 27.0914, 12.0438 ], [ 27.0652, 12.1006 ], [ 27.0679, 12.1539 ], [ 27.0748, 12.1883 ], [ 27.0794, 12.2292 ], [ 27.0742, 12.2704 ], [ 27.0695, 12.2874 ], [ 27.0653, 12.2993 ], [ 27.0508, 12.3218 ], [ 27.0442, 12.3438 ], [ 27.0395, 12.37 ], [ 27.0432, 12.3911 ], [ 27.0502, 12.4072 ], [ 27.0706, 12.4366 ], [ 27.111, 12.5027 ], [ 27.1263, 12.5353 ], [ 27.1346, 12.5808 ], [ 27.1355, 12.5964 ], [ 27.134, 12.6189 ], [ 27.1256, 12.6528 ], [ 27.124, 12.7084 ], [ 27.1271, 12.7841 ], [ 27.1479, 12.9048 ], [ 27.1516, 12.9113 ], [ 27.3699, 13.1613 ], [ 27.3592, 13.1732 ], [ 27.3619, 13.2003 ], [ 27.3814, 13.2311 ], [ 27.3863, 13.3325 ], [ 27.5099, 13.481 ], [ 27.5066, 13.4906 ], [ 27.5275, 13.5462 ], [ 27.5268, 13.632 ], [ 27.4894, 13.6994 ], [ 27.4554, 13.7379 ], [ 27.4931, 13.9583 ], [ 27.443, 14.1027 ], [ 27.7913, 14.1117 ], [ 28.0833, 14.0691 ], [ 28.1499, 14.0504 ], [ 28.5456, 13.8915 ], [ 28.5959, 13.8815 ], [ 28.6309, 13.8398 ], [ 28.8651, 13.8518 ], [ 28.8634, 13.7903 ], [ 29.1287, 13.6361 ], [ 29.2253, 13.5266 ], [ 29.277, 13.5047 ], [ 29.2566, 13.4859 ], [ 29.3764, 13.4287 ], [ 29.5087, 13.3987 ], [ 29.5175, 13.3923 ], [ 29.5544, 13.0987 ], [ 29.7694, 12.7517 ], [ 29.9277, 12.7534 ], [ 29.9683, 12.7227 ], [ 30.0311, 12.7011 ], [ 30.031, 12.6363 ], [ 30.051, 12.6249 ], [ 30.0539, 12.6029 ], [ 30.0541, 12.5794 ], [ 30.0463, 12.4499 ], [ 30.0505, 12.443 ], [ 30.0594, 12.4417 ], [ 30.0835, 12.4528 ], [ 30.0951, 12.4593 ], [ 30.142, 12.4958 ], [ 30.196, 12.5167 ], [ 30.2323, 12.5219 ], [ 30.2527, 12.5299 ], [ 30.3347, 12.5431 ], [ 30.3621, 12.552 ], [ 30.3975, 12.5576 ], [ 30.4282, 12.5716 ], [ 30.4612, 12.5823 ], [ 30.3972, 12.508 ], [ 30.4099, 12.4892 ], [ 30.466, 12.4514 ], [ 30.4778, 12.4303 ], [ 30.5085, 12.3262 ], [ 30.5723, 12.2392 ], [ 30.5821, 12.2411 ], [ 30.8191, 12.2569 ], [ 30.8116, 12.2688 ], [ 30.8713, 12.3435 ], [ 30.9069, 12.3166 ], [ 30.9592, 12.3797 ], [ 31.0278, 12.3603 ], [ 31.0375, 12.3636 ], [ 31.0598, 12.3931 ], [ 31.0638, 12.4202 ], [ 31.0646, 12.4523 ], [ 31.0592, 12.4983 ], [ 31.047, 12.5358 ], [ 31.0464, 12.5625 ], [ 31.0504, 12.5882 ], [ 31.0604, 12.5988 ], [ 31.1785, 12.5943 ], [ 31.1814, 12.5824 ], [ 31.1893, 12.5824 ], [ 31.1892, 12.5939 ], [ 31.2116, 12.5945 ], [ 31.213, 12.5853 ], [ 31.2233, 12.584 ], [ 31.2251, 12.5941 ], [ 31.2344, 12.5923 ], [ 31.2474, 12.5965 ], [ 31.2569, 12.5763 ], [ 31.2625, 12.5736 ], [ 31.2643, 12.58 ], [ 31.2628, 12.6012 ], [ 31.2698, 12.6081 ], [ 31.2791, 12.6109 ], [ 31.3181, 12.634 ], [ 31.36, 12.6375 ], [ 31.3582, 12.6246 ], [ 31.3708, 12.609 ], [ 31.3755, 12.6113 ], [ 31.3796, 12.6371 ], [ 31.4052, 12.6299 ], [ 31.4238, 12.6428 ], [ 31.6912, 12.5453 ], [ 31.823, 12.1606 ], [ 31.9115, 12.1619 ], [ 32.1038, 11.985 ], [ 32.1744, 11.9054 ], [ 32.3931, 11.6935 ], [ 32.3963, 11.1967 ], [ 32.4152, 11.1235 ], [ 32.4727, 11.0279 ], [ 32.1609, 10.7313 ], [ 31.9968, 10.6299 ], [ 31.8449, 10.3648 ], [ 31.8026, 10.3073 ], [ 31.5479, 10.0232 ], [ 31.3487, 9.7731 ], [ 31.3221, 9.76 ], [ 31.2687, 9.7434 ], [ 30.9043, 9.7436 ], [ 30.8313, 9.7113 ], [ 30.7892, 9.7486 ], [ 30.7929, 9.7485 ], [ 30.7663, 9.7695 ], [ 30.6024, 9.9239 ], [ 30.4357, 10.0188 ], [ 30.2736, 10.1172 ], [ 30.0637, 10.2489 ], [ 29.9968, 10.2888 ], [ 29.9419, 10.2876 ], [ 29.9138, 10.2943 ], [ 29.8783, 10.2547 ], [ 29.5204, 10.0696 ], [ 29.522, 9.7381 ], [ 29.0678, 9.7291 ], [ 29.022, 9.7136 ], [ 29.0098, 9.6902 ], [ 28.9267, 9.5878 ], [ 28.8292, 9.5031 ], [ 28.7933, 9.4693 ], [ 28.7481, 9.3897 ], [ 28.7591, 9.3371 ], [ 28.034, 9.3346 ], [ 27.9, 9.6033 ], [ 27.789, 9.5922 ], [ 27.6526, 9.608 ], [ 27.4001, 9.6109 ], [ 27.2885, 9.6177 ], [ 27.1234, 9.609 ], [ 27.0263, 9.5898 ], [ 26.7197, 9.4823 ], [ 26.6421, 9.4881 ], [ 26.3693, 9.5709 ], [ 26.2923, 9.6628 ], [ 26.2145, 9.91 ], [ 26.0881, 10.034 ], [ 26.0712, 10.0751 ], [ 26.0433, 10.116 ], [ 25.9755, 10.159 ], [ 25.9281, 10.1723 ], [ 25.931, 10.373 ], [ 25.923, 10.378 ], [ 25.906, 10.403 ], [ 25.887, 10.412 ], [ 25.865, 10.42 ], [ 25.849, 10.423 ], [ 25.839, 10.419 ], [ 25.822, 10.419 ], [ 25.779, 10.407 ], [ 25.764, 10.395 ], [ 25.752, 10.394 ], [ 25.705, 10.396 ], [ 25.694, 10.394 ], [ 25.684, 10.39 ], [ 25.661, 10.387 ], [ 25.648, 10.386 ], [ 25.628, 10.387 ], [ 25.574, 10.373 ], [ 25.536, 10.358 ], [ 25.485, 10.344 ], [ 25.473, 10.343 ], [ 25.445, 10.346 ], [ 25.432, 10.345 ], [ 25.4, 10.338 ], [ 25.391, 10.332 ], [ 25.381, 10.329 ], [ 25.345, 10.326 ], [ 25.327, 10.316 ], [ 25.315, 10.315 ], [ 25.305, 10.317 ], [ 25.294, 10.315 ], [ 25.285, 10.311 ], [ 25.272, 10.312 ], [ 25.251, 10.321 ], [ 25.238, 10.324 ], [ 25.226, 10.322 ], [ 25.219, 10.316 ], [ 25.209, 10.314 ], [ 25.198, 10.318 ], [ 25.187, 10.316 ], [ 25.168, 10.308 ], [ 25.157, 10.306 ], [ 25.143, 10.306 ], [ 25.13, 10.309 ], [ 25.079, 10.292 ], [ 25.0709, 10.2854 ], [ 25.065, 10.278 ], [ 25.054, 10.248 ], [ 25.036, 10.223 ], [ 25.032, 10.212 ], [ 25.03, 10.199 ], [ 25.014, 10.173 ], [ 25.012, 10.161 ], [ 25.014, 10.137 ], [ 25.027, 10.109 ], [ 25.029, 10.098 ], [ 25.027, 10.085 ], [ 25.016, 10.056 ], [ 25.011, 10.047 ], [ 25.004, 10.04 ], [ 24.998, 10.031 ], [ 24.982, 9.981 ], [ 24.973, 9.963 ], [ 24.967, 9.954 ], [ 24.952, 9.941 ], [ 24.946, 9.933 ], [ 24.941, 9.924 ], [ 24.938, 9.914 ], [ 24.932, 9.905 ], [ 24.925, 9.899 ], [ 24.9, 9.882 ], [ 24.874, 9.867 ], [ 24.867, 9.859 ], [ 24.844, 9.841 ], [ 24.827, 9.832 ], [ 24.816, 9.83 ], [ 24.804, 9.83 ], [ 24.795, 9.824 ], [ 24.791, 9.815 ], [ 24.791, 9.808 ], [ 24.781, 9.794 ], [ 24.776, 9.774 ], [ 24.769, 9.761 ], [ 24.755, 9.739 ], [ 24.7432, 9.7328 ], [ 24.7429, 9.7284 ], [ 24.755, 9.6982 ], [ 24.7553, 9.6103 ], [ 24.7658, 9.5737 ], [ 24.7661, 9.5274 ], [ 24.7441, 9.4787 ], [ 24.7026, 9.4513 ], [ 24.6492, 9.4073 ], [ 24.6159, 9.3837 ], [ 24.6175, 9.359 ], [ 24.6321, 9.3174 ], [ 24.6036, 9.2659 ], [ 24.5791, 9.1809 ], [ 24.5549, 9.0653 ], [ 24.5847, 8.9656 ], [ 24.5799, 8.9354 ], [ 24.5603, 8.9123 ], [ 24.5425, 8.9016 ], [ 24.5154, 8.856 ], [ 24.4981, 8.838 ], [ 24.3989, 8.7895 ], [ 24.3633, 8.77 ], [ 24.2578, 8.6791 ], [ 24.2599, 8.6838 ], [ 24.261, 8.7031 ], [ 24.2527, 8.7118 ], [ 24.2455, 8.7129 ], [ 24.2342, 8.7106 ], [ 24.2245, 8.7048 ] ] ] } }
]
}
