{
"type": "FeatureCollection",
"name": "low_rainfall_savanna_boundary",
"crs": { "type": "name", "properties": { "name": "urn:ogc:def:crs:OGC:1.3:CRS84" } },
"features": [
{ "type": "Feature", "properties": { "GID_1": "SDN.2_1", "GID_0": "SDN", "COUNTRY": "Sudan", "NAME_1": "AlQadarif", "VARNAME_1": "Gedarif|Gadarif|Gedaref|Gederaf", "NL_NAME_1": "القضارف", "TYPE_1": "Wilayat", "ENGTYPE_1": "State", "CC_1": "NA", "HASC_1": "SD.GD", "ISO_1": "NA" }, "geometry": { "type": "MultiPolygon", "coordinates": [ [ [ [ 36.4391, 13.7417 ], [ 36.4024, 13.6434 ], [ 36.3838, 13.5672 ], [ 36.3814, 13.5452 ], [ 36.3777, 13.5378 ], [ 36.3643, 13.5246 ], [ 36.35, 13.5 ], [ 36.3106, 13.4263 ], [ 36.288, 13.3878 ], [ 36.278, 13.366 ], [ 36.2601, 13.2979 ], [ 36.257, 13.2805 ], [ 36.2373, 13.215 ], [ 36.1988, 13.0697 ], [ 36.1794, 13.008 ], [ 36.1761, 13.0035 ], [ 36.1678, 12.9786 ], [ 36.1572, 12.9629 ], [ 36.1574, 12.9553 ], [ 36.1528, 12.9404 ], [ 36.153, 12.9334 ], [ 36.1572, 12.9216 ], [ 36.1611, 12.9157 ], [ 36.179, 12.8957 ], [ 36.181, 12.8734 ], [ 36.1757, 12.8081 ], [ 36.176, 12.7776 ], [ 36.1691, 12.7405 ], [ 36.1563, 12.7065 ], [ 36.1557, 12.6986 ], [ 36.1573, 12.6866 ], [ 36.1517, 12.6825 ], [ 36.108, 12.6859 ], [ 36.1056, 12.6969 ], [ 36.1017, 12.7035 ], [ 36.0965, 12.7082 ], [ 36.0728, 12.7189 ], [ 36.0591, 12.7222 ], [ 36.0511, 12.722 ], [ 36.0336, 12.7176 ], [ 36.015, 12.7192 ], [ 36.0082, 12.7177 ], [ 36.0025, 12.7138 ], [ 36.0016, 12.7082 ], [ 35.7724, 12.6605 ], [ 35.7704, 12.6653 ], [ 35.7617, 12.6689 ], [ 35.7477, 12.6573 ], [ 35.7362, 12.6591 ], [ 35.729, 12.6668 ], [ 35.721, 12.6703 ], [ 35.6988, 12.6677 ], [ 35.6974, 12.6657 ], [ 35.6736, 12.6782 ], [ 35.672, 12.6768 ], [ 35.6677, 12.6812 ], [ 35.6541, 12.6884 ], [ 35.6341, 12.6912 ], [ 35.6203, 12.6988 ], [ 35.6092, 12.6996 ], [ 35.6022, 12.7023 ], [ 35.597, 12.7112 ], [ 35.5795, 12.7151 ], [ 35.5729, 12.7252 ], [ 35.5628, 12.7342 ], [ 35.5335, 12.7268 ], [ 35.507, 12.717 ], [ 35.4846, 12.7219 ], [ 35.4655, 12.7186 ], [ 35.4605, 12.7161 ], [ 35.4594, 12.7175 ], [ 35.4161, 12.7225 ], [ 35.3653, 12.733 ], [ 35.3629, 12.7314 ], [ 35.3594, 12.7342 ], [ 35.327, 12.7409 ], [ 35.3008, 12.772 ], [ 35.2616, 12.7962 ], [ 35.2364, 12.8021 ], [ 35.2279, 12.8176 ], [ 35.1911, 12.8244 ], [ 35.1793, 12.8441 ], [ 35.1657, 12.861 ], [ 35.1325, 12.8884 ], [ 35.1278, 12.8962 ], [ 35.1083, 12.8988 ], [ 35.0785, 12.8914 ], [ 35.056, 12.9128 ], [ 35.0331, 12.9274 ], [ 35.0121, 12.9448 ], [ 34.9916, 12.9346 ], [ 34.9669, 12.9455 ], [ 34.9593, 12.9693 ], [ 34.9328, 12.9733 ], [ 34.8823, 13.0099 ], [ 34.8831, 13.0204 ], [ 34.885, 13.0237 ], [ 34.8756, 13.0365 ], [ 34.8616, 13.0424 ], [ 34.8102, 13.0743 ], [ 34.8162, 13.0983 ], [ 34.8119, 13.106 ], [ 34.7956, 13.1197 ], [ 34.7964, 13.1404 ], [ 34.7889, 13.1541 ], [ 34.7758, 13.1559 ], [ 34.7627, 13.1719 ], [ 34.7366, 13.1782 ], [ 34.7226, 13.1726 ], [ 34.7142, 13.1799 ], [ 34.657, 13.1691 ], [ 34.6462, 13.1718 ], [ 34.6195, 13.2176 ], [ 34.6245, 13.231 ], [ 34.597, 13.2331 ], [ 34.583, 13.2473 ], [ 34.5648, 13.2468 ], [ 34.362, 13.4732 ], [ 34.2858, 13.6386 ], [ 34.3555, 13.6684 ], [ 34.3399, 13.7257 ], [ 34.2905, 13.7209 ], [ 34.269, 13.7281 ], [ 34.2555, 13.7276 ], [ 34.2462, 13.7225 ], [ 34.2117, 13.7389 ], [ 34.206, 13.7485 ], [ 34.1618, 13.74 ], [ 34.1375, 13.7592 ], [ 34.1192, 13.7986 ], [ 34.1038, 13.8018 ], [ 34.0807, 13.8439 ], [ 34.068, 13.8838 ], [ 34.066, 13.91 ], [ 34.0296, 13.9268 ], [ 34.001, 13.9643 ], [ 33.9873, 13.99 ], [ 33.9887, 14.0042 ], [ 33.9663, 14.0147 ], [ 33.9605, 14.051 ], [ 33.9413, 14.0775 ], [ 33.9374, 14.0991 ], [ 33.9239, 14.1114 ], [ 33.934, 14.1363 ], [ 33.9283, 14.1578 ], [ 34.09, 14.3931 ], [ 34.0857, 14.4036 ], [ 34.2757, 14.672 ], [ 34.2983, 14.7357 ], [ 34.2208, 14.8736 ], [ 34.0162, 15.1844 ], [ 33.7025, 15.289 ], [ 33.641, 15.2901 ], [ 33.6256, 15.3956 ], [ 33.5905, 15.4318 ], [ 33.555, 15.4458 ], [ 33.5623, 15.4872 ], [ 33.6026, 15.5421 ], [ 33.6217, 15.6225 ], [ 33.6843, 15.6784 ], [ 33.7035, 15.6619 ], [ 33.7221, 15.6666 ], [ 33.7299, 15.6882 ], [ 33.7942, 15.7032 ], [ 33.8853, 15.7285 ], [ 33.9249, 15.7273 ], [ 33.9603, 15.7458 ], [ 33.9951, 15.7671 ], [ 34.1836, 15.7314 ], [ 34.1964, 15.715 ], [ 34.2651, 15.6641 ], [ 34.2842, 15.6565 ], [ 34.3065, 15.655 ], [ 34.3166, 15.6522 ], [ 34.3299, 15.6317 ], [ 34.3499, 15.6122 ], [ 34.356, 15.6032 ], [ 34.3651, 15.5979 ], [ 34.4036, 15.5922 ], [ 34.425, 15.5846 ], [ 34.455, 15.5832 ], [ 34.4646, 15.5794 ], [ 34.4817, 15.576 ], [ 34.4998, 15.5779 ], [ 34.5183, 15.5713 ], [ 34.5274, 15.5732 ], [ 34.5378, 15.5689 ], [ 34.555, 15.5727 ], [ 34.5607, 15.5703 ], [ 34.5811, 15.557 ], [ 34.6559, 15.5251 ], [ 34.6911, 15.507 ], [ 34.703, 15.498 ], [ 34.7044, 15.4537 ], [ 34.702, 15.429 ], [ 34.6977, 15.4123 ], [ 34.6935, 15.3662 ], [ 34.692, 15.3624 ], [ 34.6825, 15.3533 ], [ 34.7168, 15.3362 ], [ 34.7981, 15.2857 ], [ 34.801, 15.2819 ], [ 34.8124, 15.2738 ], [ 34.8472, 15.2696 ], [ 34.9918, 15.1925 ], [ 35.0047, 15.1801 ], [ 35.0156, 15.1287 ], [ 35.0628, 15.0197 ], [ 35.067, 15.0035 ], [ 35.0737, 14.9945 ], [ 35.087, 14.9826 ], [ 35.1432, 14.9045 ], [ 35.2493, 14.9153 ], [ 35.521, 14.9243 ], [ 35.6434, 14.9354 ], [ 35.7034, 15.0719 ], [ 35.7074, 15.1201 ], [ 35.7438, 15.1405 ], [ 35.7615, 15.1446 ], [ 35.7886, 15.2021 ], [ 35.7924, 15.2245 ], [ 35.7657, 15.284 ], [ 35.7535, 15.3017 ], [ 35.7419, 15.3148 ], [ 35.743, 15.332 ], [ 35.756, 15.3458 ], [ 35.757, 15.338 ], [ 35.761, 15.329 ], [ 35.767, 15.321 ], [ 35.787, 15.299 ], [ 35.797, 15.291 ], [ 35.807, 15.286 ], [ 35.813, 15.279 ], [ 35.822, 15.26 ], [ 35.824, 15.248 ], [ 35.834, 15.218 ], [ 35.846, 15.201 ], [ 35.854, 15.196 ], [ 35.865, 15.193 ], [ 35.875, 15.188 ], [ 35.882, 15.181 ], [ 35.895, 15.153 ], [ 35.902, 15.147 ], [ 35.924, 15.14 ], [ 35.934, 15.122 ], [ 35.94, 15.114 ], [ 35.948, 15.108 ], [ 35.956, 15.089 ], [ 35.964, 15.083 ], [ 35.968, 15.061 ], [ 35.9788, 15.0441 ], [ 36.045, 14.9803 ], [ 36.0848, 14.983 ], [ 36.0998, 15.0059 ], [ 36.1078, 15.0302 ], [ 36.1308, 15.0297 ], [ 36.209, 15.0723 ], [ 36.4408, 15.1462 ], [ 36.4496, 15.1004 ], [ 36.463, 14.9918 ], [ 36.4639, 14.9654 ], [ 36.4682, 14.9471 ], [ 36.472, 14.8555 ], [ 36.4819, 14.7933 ], [ 36.5002, 14.6041 ], [ 36.5033, 14.5609 ], [ 36.5025, 14.5471 ], [ 36.5059, 14.5255 ], [ 36.5054, 14.512 ], [ 36.5108, 14.4906 ], [ 36.5108, 14.4607 ], [ 36.5198, 14.4043 ], [ 36.5198, 14.3884 ], [ 36.5233, 14.3702 ], [ 36.5231, 14.3579 ], [ 36.5269, 14.3291 ], [ 36.5377, 14.3041 ], [ 36.5436, 14.2786 ], [ 36.5483, 14.2683 ], [ 36.5582, 14.2629 ], [ 36.5609, 14.2664 ], [ 36.5617, 14.2606 ], [ 36.5495, 14.2502 ], [ 36.5431, 14.2507 ], [ 36.5405, 14.1981 ], [ 36.4628, 13.971 ], [ 36.4991, 13.8468 ], [ 36.4512, 13.7687 ], [ 36.4455, 13.7641 ], [ 36.4391, 13.7417 ] ] ], [ [ [ 31.6466, 12.6985 ], [ 31.6514, 12.671 ], [ 31.6912, 12.5453 ], [ 31.4238, 12.6428 ], [ 31.4052, 12.6299 ], [ 31.3796, 12.6371 ], [ 31.3755, 12.6113 ], [ 31.3708, 12.609 ], [ 31.3582, 12.6246 ], [ 31.36, 12.6375 ], [ 31.3181, 12.634 ], [ 31.2791, 12.6109 ], [ 31.2698, 12.6081 ], [ 31.2628, 12.6012 ], [ 31.2643, 12.58 ], [ 31.2625, 12.5736 ], [ 31.2569, 12.5763 ], [ 31.2474, 12.5965 ], [ 31.2344, 12.5923 ], [ 31.2251, 12.5941 ], [ 31.2233, 12.584 ], [ 31.213, 12.5853 ], [ 31.2116, 12.5945 ], [ 31.1892, 12.5939 ], [ 31.1893, 12.5824 ], [ 31.1814, 12.5824 ], [ 31.1785, 12.5943 ], [ 31.0604, 12.5988 ], [ 31.0504, 12.5882 ], [ 31.0464, 12.5625 ], [ 31.047, 12.5358 ], [ 31.0592, 12.4983 ], [ 31.0646, 12.4523 ], [ 31.0638, 12.4202 ], [ 31.0598, 12.3931 ], [ 31.0375, 12.3636 ], [ 31.0278, 12.3603 ], [ 30.9592, 12.3797 ], [ 30.9069, 12.3166 ], [ 30.8713, 12.3435 ], [ 30.8116, 12.2688 ], [ 30.8191, 12.2569 ], [ 30.5821, 12.2411 ], [ 30.5723, 12.2392 ], [ 30.5085, 12.3262 ], [ 30.4778, 12.4303 ], [ 30.466, 12.4514 ], [ 30.4099, 12.4892 ], [ 30.3972, 12.508 ], [ 30.4612, 12.5823 ], [ 30.4282, 12.5716 ], [ 30.3975, 12.5576 ], [ 30.3621, 12.552 ], [ 30.3347, 12.5431 ], [ 30.2527, 12.5299 ], [ 30.2323, 12.5219 ], [ 30.196, 12.5167 ], [ 30.142, 12.4958 ], [ 30.0951, 12.4593 ], [ 30.0835, 12.4528 ], [ 30.0594, 12.4417 ], [ 30.0505, 12.443 ], [ 30.0463, 12.4499 ], [ 30.0541, 12.5794 ], [ 30.0539, 12.6029 ], [ 30.051, 12.6249 ], [ 30.031, 12.6363 ], [ 30.0311, 12.7011 ], [ 29.9683, 12.7227 ], [ 29.9277, 12.7534 ], [ 29.7694, 12.7517 ], [ 29.5544, 13.0987 ], [ 29.5175, 13.3923 ], [ 29.5087, 13.3987 ], [ 29.3764, 13.4287 ], [ 29.2566, 13.4859 ], [ 29.277, 13.5047 ], [ 29.2253, 13.5266 ], [ 29.1287, 13.6361 ], [ 28.8634, 13.7903 ], [ 28.8651, 13.8518 ], [ 28.6309, 13.8398 ], [ 28.5959, 13.8815 ], [ 28.5456, 13.8915 ], [ 28.1499, 14.0504 ], [ 28.0833, 14.0691 ], [ 27.7913, 14.1117 ], [ 27.443, 14.1027 ], [ 27.4931, 13.9583 ], [ 27.4554, 13.7379 ], [ 27.4894, 13.6994 ], [ 27.5268, 13.632 ], [ 27.5275, 13.5462 ], [ 27.5066, 13.4906 ], [ 27.5099, 13.481 ], [ 27.3863, 13.3325 ], [ 27.3814, 13.2311 ], [ 27.3619, 13.2003 ], [ 27.3592, 13.1732 ], [ 27.3699, 13.1613 ], [ 27.1516, 12.9113 ], [ 27.1479, 12.9048 ], [ 27.1271, 12.7841 ], [ 27.124, 12.7084 ], [ 27.1256, 12.6528 ], [ 27.134, 12.6189 ], [ 27.1355, 12.5964 ], [ 27.1346, 12.5808 ], [ 27.1263, 12.5353 ], [ 27.111, 12.5027 ], [ 27.0706, 12.4366 ], [ 27.0502, 12.4072 ], [ 27.0432, 12.3911 ], [ 27.0395, 12.37 ], [ 27.0442, 12.3438 ], [ 27.0508, 12.3218 ], [ 27.0653, 12.2993 ], [ 27.0695, 12.2874 ], [ 27.0742, 12.2704 ], [ 27.0794, 12.2292 ], [ 27.0748, 12.1883 ], [ 27.0679, 12.1539 ], [ 27.0652, 12.1006 ], [ 27.0914, 12.0438 ], [ 27.1073, 12.0254 ], [ 27.118, 12.0062 ], [ 27.2288, 11.7185 ], [ 27.1946, 11.7389 ], [ 27.1535, 11.7747 ], [ 27.0992, 11.7884 ], [ 26.989, 11.7898 ], [ 26.8901, 11.7679 ], [ 26.8215, 11.7416 ], [ 26.7898, 11.74 ], [ 26.759, 11.753 ], [ 26.651, 11.824 ], [ 26.5631, 11.8484 ], [ 26.3857, 11.8749 ], [ 26.3449, 11.8782 ], [ 26.1924, 11.9846 ], [ 26.1979, 11.9989 ], [ 26.1946, 12.0108 ], [ 26.1648, 12.036 ], [ 26.161, 12.0557 ], [ 26.0646, 12.0853 ], [ 26.0421, 12.1367 ], [ 26.0299, 12.1578 ], [ 26.0304, 12.1734 ], [ 26.0331, 12.1844 ], [ 25.9996, 12.1862 ], [ 25.9572, 12.2086 ], [ 25.9534, 12.2255 ], [ 25.9501, 12.2609 ], [ 25.924, 12.2985 ], [ 25.8847, 12.3466 ], [ 25.8903, 12.3571 ], [ 25.9066, 12.3755 ], [ 25.9168, 12.382 ], [ 25.9322, 12.3742 ], [ 25.9448, 12.3715 ], [ 25.9611, 12.371 ], [ 25.9787, 12.3775 ], [ 26.0024, 12.3987 ], [ 26.0201, 12.3987 ], [ 26.0541, 12.3886 ], [ 26.0677, 12.3882 ], [ 26.0756, 12.3905 ], [ 26.083, 12.4043 ], [ 26.0848, 12.4222 ], [ 26.0852, 12.4497 ], [ 26.0819, 12.4654 ], [ 25.8471, 12.7416 ], [ 25.7973, 12.741 ], [ 25.7712, 12.7465 ], [ 25.7652, 12.7447 ], [ 25.7307, 12.773 ], [ 25.5908, 12.8398 ], [ 25.5806, 12.8535 ], [ 25.5763, 12.8682 ], [ 25.5818, 12.9086 ], [ 25.579, 12.9168 ], [ 25.5823, 12.9329 ], [ 25.5771, 12.9393 ], [ 25.5594, 12.9397 ], [ 25.5417, 12.9356 ], [ 25.5236, 12.9365 ], [ 25.4979, 12.9561 ], [ 25.4695, 12.957 ], [ 25.4542, 12.951 ], [ 25.4481, 12.9459 ], [ 25.3466, 12.9549 ], [ 25.2996, 12.9558 ], [ 25.28, 12.9516 ], [ 25.266, 12.9511 ], [ 25.2334, 12.9698 ], [ 25.2162, 12.9703 ], [ 25.1734, 12.9592 ], [ 25.0877, 12.9338 ], [ 25.0477, 12.9323 ], [ 25.0272, 12.9336 ], [ 24.9937, 12.9418 ], [ 24.9769, 12.9579 ], [ 24.9363, 12.9894 ], [ 24.8748, 12.9953 ], [ 24.8524, 13.0021 ], [ 24.8328, 13.0223 ], [ 24.8067, 13.0548 ], [ 24.7661, 13.0804 ], [ 24.7238, 13.0744 ], [ 24.645, 13.093 ], [ 24.6259, 13.0866 ], [ 24.5505, 13.1075 ], [ 24.523, 13.1185 ], [ 24.4662, 13.1193 ], [ 24.4396, 13.133 ], [ 24.4521, 13.1427 ], [ 24.4819, 13.1505 ], [ 24.5206, 13.1511 ], [ 24.5485, 13.1617 ], [ 24.5829, 13.1939 ], [ 24.6345, 13.2238 ], [ 24.7287, 13.3837 ], [ 24.6998, 13.4185 ], [ 24.5992, 13.4114 ], [ 24.5792, 13.4064 ], [ 24.5131, 13.4103 ], [ 24.2906, 13.3507 ], [ 24.2735, 13.2658 ], [ 24.1529, 13.2733 ], [ 24.1246, 13.2457 ], [ 24.0564, 13.3158 ], [ 24.0504, 13.3351 ], [ 24.0429, 13.3401 ], [ 24.0201, 13.3437 ], [ 23.9983, 13.3538 ], [ 24.0182, 13.3662 ], [ 24.0405, 13.3768 ], [ 24.0186, 13.3924 ], [ 23.9865, 13.3832 ], [ 23.9711, 13.3888 ], [ 23.9492, 13.3877 ], [ 23.9347, 13.3837 ], [ 23.8937, 13.391 ], [ 23.8749, 13.3848 ], [ 23.8086, 13.3795 ], [ 23.7679, 13.4133 ], [ 23.7525, 13.4547 ], [ 23.7084, 13.4817 ], [ 23.7085, 13.3993 ], [ 23.6887, 13.3812 ], [ 23.6659, 13.3869 ], [ 23.6459, 13.394 ], [ 23.6583, 13.425 ], [ 23.6529, 13.4424 ], [ 23.6654, 13.473 ], [ 23.6643, 13.506 ], [ 23.6234, 13.5206 ], [ 23.6052, 13.5158 ], [ 23.5893, 13.5159 ], [ 23.5817, 13.5013 ], [ 23.5344, 13.5302 ], [ 23.5199, 13.5299 ], [ 23.4824, 13.5569 ], [ 23.4436, 13.5522 ], [ 23.4332, 13.5399 ], [ 23.3292, 13.4631 ], [ 23.2557, 13.4396 ], [ 23.2615, 13.5875 ], [ 23.3253, 13.6262 ], [ 23.2795, 13.656 ], [ 23.2543, 13.7012 ], [ 23.2218, 13.7633 ], [ 23.2259, 13.8009 ], [ 23.2104, 13.8358 ], [ 23.2094, 13.9183 ], [ 23.2249, 13.9759 ], [ 23.2279, 14.04 ], [ 23.2419, 14.077 ], [ 23.2581, 14.113 ], [ 23.2383, 14.1425 ], [ 23.2016, 14.1529 ], [ 23.1714, 14.1221 ], [ 23.0854, 14.1981 ], [ 23.1277, 14.3223 ], [ 23.0051, 14.553 ], [ 22.8825, 14.4796 ], [ 22.8077, 14.5564 ], [ 22.7973, 14.6325 ], [ 22.8181, 14.6177 ], [ 22.8713, 14.8819 ], [ 22.8044, 14.9531 ], [ 22.7536, 14.966 ], [ 22.7569, 14.9722 ], [ 22.7671, 14.9845 ], [ 22.777, 14.9944 ], [ 22.7924, 15.0061 ], [ 22.8142, 15.0295 ], [ 22.8346, 15.0444 ], [ 22.838, 15.0452 ], [ 22.8522, 15.0548 ], [ 22.8707, 15.0831 ], [ 22.8929, 15.0944 ], [ 22.9073, 15.0954 ], [ 22.9158, 15.0932 ], [ 22.921, 15.0934 ], [ 22.9401, 15.1075 ], [ 22.9389, 15.1112 ], [ 22.9397, 15.1252 ], [ 22.9306, 15.1575 ], [ 22.9317, 15.1658 ], [ 22.936, 15.172 ], [ 22.9468, 15.181 ], [ 22.965, 15.1909 ], [ 22.9692, 15.1916 ], [ 22.9753, 15.1963 ], [ 22.9789, 15.2011 ], [ 22.9868, 15.2213 ], [ 22.992, 15.228 ], [ 22.9969, 15.2315 ], [ 22.9997, 15.2372 ], [ 22.9902, 15.2559 ], [ 22.9868, 15.2595 ], [ 22.9912, 15.286 ], [ 22.9992, 15.2961 ], [ 23.0039, 15.3086 ], [ 22.9995, 15.3223 ], [ 22.9933, 15.3303 ], [ 22.9911, 15.3406 ], [ 22.9904, 15.3706 ], [ 22.9964, 15.3911 ], [ 22.9969, 15.3984 ], [ 22.9902, 15.4159 ], [ 22.9638, 15.4381 ], [ 22.9496, 15.4467 ], [ 22.9303, 15.4652 ], [ 22.925, 15.4771 ], [ 22.9221, 15.4886 ], [ 22.9282, 15.5143 ], [ 22.9243, 15.5249 ], [ 22.9261, 15.5405 ], [ 22.9306, 15.5508 ], [ 22.9473, 15.572 ], [ 22.9544, 15.5787 ], [ 22.9619, 15.5812 ], [ 22.975, 15.5799 ], [ 22.9894, 15.5807 ], [ 22.9967, 15.5837 ], [ 23.0047, 15.5894 ], [ 23.0226, 15.6088 ], [ 23.0248, 15.6088 ], [ 23.0259, 15.6118 ], [ 23.0359, 15.6178 ], [ 23.0427, 15.6272 ], [ 23.0544, 15.6534 ], [ 23.0577, 15.6571 ], [ 23.0773, 15.6632 ], [ 23.0854, 15.6685 ], [ 23.106, 15.6906 ], [ 23.1152, 15.7048 ], [ 23.1223, 15.7099 ], [ 23.1535, 15.7122 ], [ 23.1701, 15.7051 ], [ 23.1985, 15.7041 ], [ 23.2147, 15.7087 ], [ 23.2267, 15.7009 ], [ 23.2413, 15.7013 ], [ 23.2737, 15.6933 ], [ 23.3335, 15.6863 ], [ 23.3526, 15.6863 ], [ 23.3777, 15.6901 ], [ 23.4165, 15.6931 ], [ 23.4439, 15.7024 ], [ 23.4916, 15.7284 ], [ 23.5148, 15.7372 ], [ 23.5781, 15.7538 ], [ 23.662, 15.7577 ], [ 23.7127, 15.7494 ], [ 23.7253, 15.7453 ], [ 23.7411, 15.7439 ], [ 23.7767, 15.7451 ], [ 23.7907, 15.7425 ], [ 23.8058, 15.7427 ], [ 23.8563, 15.7317 ], [ 23.9033, 15.7167 ], [ 23.9425, 15.7101 ], [ 23.9639, 15.7039 ], [ 23.9891, 15.7033 ], [ 24.0017, 15.7049 ], [ 24.0025, 15.8849 ], [ 24.0001, 16.0001 ], [ 24.0, 20.0 ], [ 25.0, 20.0 ], [ 25.0, 20.0036 ], [ 27.4714, 19.9982 ], [ 27.5, 20.0 ], [ 27.5, 16.573801822401787 ], [ 28.6421, 16.5739 ], [ 29.9839, 16.5605 ], [ 30.131, 16.5568 ], [ 31.0034, 16.5079 ], [ 31.493, 16.5126 ], [ 31.6231, 16.5281 ], [ 31.6509, 16.4516 ], [ 31.7016, 16.3836 ], [ 31.8068, 16.119 ], [ 31.7984, 16.0812 ], [ 31.8202, 16.0828 ], [ 31.8896, 15.9808 ], [ 32.1232, 15.7005 ], [ 32.3741, 15.1698 ], [ 32.0621, 15.0388 ], [ 32.0482, 15.0167 ], [ 32.0455, 14.9978 ], [ 32.0629, 14.9662 ], [ 32.077, 14.9456 ], [ 32.0775, 14.9383 ], [ 32.0556, 14.9322 ], [ 32.0501, 14.9225 ], [ 31.9648, 14.9258 ], [ 31.9112, 14.7331 ], [ 31.6273, 14.4856 ], [ 31.5523, 14.2992 ], [ 31.5539, 14.1679 ], [ 31.5662, 14.1252 ], [ 31.6026, 14.0161 ], [ 31.7919, 13.8805 ], [ 31.843, 13.7246 ], [ 31.8793, 13.6214 ], [ 32.0594, 13.4675 ], [ 32.0599, 13.4555 ], [ 32.0697, 13.4519 ], [ 32.0749, 13.4446 ], [ 32.0586, 13.4358 ], [ 32.0191, 13.3153 ], [ 32.018, 13.2652 ], [ 32.0213, 13.2578 ], [ 32.0442, 13.2511 ], [ 32.061, 13.2438 ], [ 32.0647, 13.2365 ], [ 32.0662, 13.2236 ], [ 32.0023, 13.1448 ], [ 31.9255, 13.1215 ], [ 31.9144, 13.1136 ], [ 31.8759, 13.0767 ], [ 31.8388, 13.0448 ], [ 31.7375, 12.9892 ], [ 31.6737, 12.7946 ], [ 31.6742, 12.7836 ], [ 31.6789, 12.7666 ], [ 31.6466, 12.6985 ] ] ] ] } }
]
}
