{
"type": "FeatureCollection",
"name": "coastal_lowlands_boundary",
"crs": { "type": "name", "properties": { "name": "urn:ogc:def:crs:OGC:1.3:CRS84" } },
"features": [
{ "type": "Feature", "properties": { "GID_1": "KEN.14_1", "GID_0": "KEN", "COUNTRY": "Kenya", "NAME_1": "Kilifi", "VARNAME_1": "NA", "NL_NAME_1": "NA", "TYPE_1": "County", "ENGTYPE_1": "County", "CC_1": "3", "HASC_1": "KE.KF", "ISO_1": "KE-14" }, "geometry": { "type": "MultiPolygon", "coordinates": [ [ [ [ 39.3788, -4.7165 ], [ 39.3801, -4.7179 ], [ 39.3779, -4.7204 ], [ 39.3785, -4.7176 ], [ 39.3735, -4.7171 ], [ 39.3751, -4.7157 ], [ 39.3788, -4.7165 ] ] ], [ [ [ 39.404, -4.7035 ], [ 39.409, -4.7007 ], [ 39.4124, -4.7001 ], [ 39.4101, -4.7012 ], [ 39.4087, -4.7051 ], [ 39.404, -4.7035 ] ] ], [ [ [ 39.4143, -4.7015 ], [ 39.4135, -4.7018 ], [ 39.4132, -4.6987 ], [ 39.4151, -4.6965 ], [ 39.4157, -4.6985 ], [ 39.4143, -4.7015 ] ] ], [ [ [ 39.4068, -4.6849 ], [ 39.4007, -4.6904 ], [ 39.3949, -4.6879 ], [ 39.3954, -4.6862 ], [ 39.4038, -4.6851 ], [ 39.4043, -4.6835 ], [ 39.4068, -4.6832 ], [ 39.4068, -4.6849 ] ] ], [ [ [ 39.3899, -4.6618 ], [ 39.3951, -4.6618 ], [ 39.3965, -4.6599 ], [ 39.3946, -4.6587 ], [ 39.4004, -4.6576 ], [ 39.4068, -4.671 ], [ 39.4068, -4.6746 ], [ 39.4032, -4.6779 ], [ 39.4021, -4.6751 ], [ 39.4051, -4.6746 ], [ 39.4057, -4.6718 ], [ 39.4007, -4.6743 ], [ 39.4004, -4.6724 ], [ 39.3965, -4.6693 ], [ 39.3946, -4.6707 ], [ 39.3874, -4.6693 ], [ 39.3668, -4.6718 ], [ 39.3649, -4.6704 ], [ 39.3549, -4.6707 ], [ 39.3526, -4.6693 ], [ 39.3518, -4.666 ], [ 39.3482, -4.6668 ], [ 39.3504, -4.6632 ], [ 39.3582, -4.6585 ], [ 39.3568, -4.656 ], [ 39.3579, -4.6537 ], [ 39.3618, -4.6537 ], [ 39.366, -4.6579 ], [ 39.3735, -4.6585 ], [ 39.3749, -4.6574 ], [ 39.3796, -4.6585 ], [ 39.3807, -4.6601 ], [ 39.3882, -4.6599 ], [ 39.3899, -4.6618 ] ] ], [ [ [ 39.2901, -4.6674 ], [ 39.284, -4.6696 ], [ 39.2832, -4.6715 ], [ 39.2768, -4.6707 ], [ 39.2724, -4.6671 ], [ 39.2707, -4.661 ], [ 39.2679, -4.6593 ], [ 39.2679, -4.6537 ], [ 39.2718, -4.6537 ], [ 39.2863, -4.6632 ], [ 39.2868, -4.6618 ], [ 39.2893, -4.6632 ], [ 39.2938, -4.661 ], [ 39.2946, -4.6621 ], [ 39.2901, -4.6674 ] ] ], [ [ [ 39.2865, -4.626 ], [ 39.2857, -4.6226 ], [ 39.2893, -4.6232 ], [ 39.2893, -4.6251 ], [ 39.2865, -4.626 ] ] ], [ [ [ 39.291, -4.6187 ], [ 39.2924, -4.619 ], [ 39.2929, -4.6199 ], [ 39.2932, -4.6218 ], [ 39.291, -4.6187 ] ] ], [ [ [ 39.2968, -4.6082 ], [ 39.2988, -4.6118 ], [ 39.2962, -4.6129 ], [ 39.2968, -4.6151 ], [ 39.2929, -4.6187 ], [ 39.294, -4.609 ], [ 39.2954, -4.6074 ], [ 39.2968, -4.6082 ] ] ], [ [ [ 39.2993, -4.609 ], [ 39.2968, -4.6037 ], [ 39.3018, -4.5987 ], [ 39.3035, -4.6015 ], [ 39.3035, -4.6079 ], [ 39.2993, -4.609 ] ] ], [ [ [ 39.3043, -4.6007 ], [ 39.3054, -4.6007 ], [ 39.306, -4.6021 ], [ 39.3049, -4.6037 ], [ 39.3043, -4.6007 ] ] ], [ [ [ 39.4282, -4.5629 ], [ 39.431, -4.5654 ], [ 39.4301, -4.5671 ], [ 39.4329, -4.5737 ], [ 39.4285, -4.5696 ], [ 39.4263, -4.5621 ], [ 39.4282, -4.5629 ] ] ], [ [ [ 39.5346, -4.4488 ], [ 39.5313, -4.4485 ], [ 39.5335, -4.4421 ], [ 39.5385, -4.4418 ], [ 39.5382, -4.4432 ], [ 39.5346, -4.4488 ] ] ], [ [ [ 39.5913, -4.0743 ], [ 39.591, -4.069 ], [ 39.5932, -4.064 ], [ 39.6182, -4.0613 ], [ 39.6179, -4.0596 ], [ 39.6218, -4.0576 ], [ 39.6218, -4.0596 ], [ 39.6254, -4.0626 ], [ 39.6296, -4.0635 ], [ 39.6379, -4.0579 ], [ 39.6365, -4.054 ], [ 39.6379, -4.051 ], [ 39.6396, -4.0518 ], [ 39.6399, -4.0585 ], [ 39.6426, -4.0618 ], [ 39.6418, -4.0682 ], [ 39.6457, -4.0738 ], [ 39.6493, -4.0757 ], [ 39.6546, -4.0751 ], [ 39.661, -4.0812 ], [ 39.666, -4.0835 ], [ 39.6771, -4.0826 ], [ 39.674, -4.0887 ], [ 39.6757, -4.0937 ], [ 39.6721, -4.1018 ], [ 39.6637, -4.1132 ], [ 39.6596, -4.1243 ], [ 39.6557, -4.129 ], [ 39.6518, -4.1415 ], [ 39.6449, -4.1529 ], [ 39.642011662531004, -4.151816873449127 ], [ 39.6446, -4.1535 ], [ 39.6387, -4.1621 ], [ 39.631, -4.1807 ], [ 39.6143, -4.2032 ], [ 39.6012, -4.2529 ], [ 39.5996, -4.2579 ], [ 39.5971, -4.2585 ], [ 39.5988, -4.2596 ], [ 39.599, -4.2701 ], [ 39.571, -4.3307 ], [ 39.5701, -4.3382 ], [ 39.5643, -4.3507 ], [ 39.5582, -4.3738 ], [ 39.5496, -4.3921 ], [ 39.5482, -4.4026 ], [ 39.546, -4.4068 ], [ 39.544, -4.4268 ], [ 39.5407, -4.4329 ], [ 39.541, -4.4351 ], [ 39.5374, -4.4396 ], [ 39.5337, -4.4387 ], [ 39.5335, -4.4287 ], [ 39.5293, -4.4299 ], [ 39.5246, -4.419 ], [ 39.5218, -4.4218 ], [ 39.5179, -4.4226 ], [ 39.5168, -4.421 ], [ 39.5168, -4.4243 ], [ 39.5151, -4.4221 ], [ 39.516, -4.4293 ], [ 39.5124, -4.4296 ], [ 39.5096, -4.4412 ], [ 39.5032, -4.4437 ], [ 39.5071, -4.4468 ], [ 39.5029, -4.4476 ], [ 39.5026, -4.4443 ], [ 39.5004, -4.4446 ], [ 39.5018, -4.4493 ], [ 39.4985, -4.4582 ], [ 39.5001, -4.4654 ], [ 39.4982, -4.4657 ], [ 39.4979, -4.4687 ], [ 39.4946, -4.4726 ], [ 39.4926, -4.4724 ], [ 39.4885, -4.4763 ], [ 39.4882, -4.4801 ], [ 39.4857, -4.4799 ], [ 39.4846, -4.4818 ], [ 39.481, -4.4829 ], [ 39.481, -4.4857 ], [ 39.4787, -4.4868 ], [ 39.4787, -4.4893 ], [ 39.4724, -4.5013 ], [ 39.4696, -4.5132 ], [ 39.4654, -4.5221 ], [ 39.4649, -4.531 ], [ 39.4624, -4.5338 ], [ 39.4624, -4.5376 ], [ 39.464, -4.539 ], [ 39.4629, -4.5429 ], [ 39.466, -4.5446 ], [ 39.4626, -4.5474 ], [ 39.4621, -4.5546 ], [ 39.4565, -4.5621 ], [ 39.4562, -4.5735 ], [ 39.4532, -4.5838 ], [ 39.4507, -4.5868 ], [ 39.4488, -4.5854 ], [ 39.4446, -4.5857 ], [ 39.4426, -4.5921 ], [ 39.439, -4.5924 ], [ 39.4362, -4.5901 ], [ 39.4362, -4.5846 ], [ 39.4349, -4.5835 ], [ 39.4354, -4.5718 ], [ 39.4329, -4.566 ], [ 39.4271, -4.5599 ], [ 39.4271, -4.5571 ], [ 39.4315, -4.551 ], [ 39.4346, -4.549 ], [ 39.4401, -4.5507 ], [ 39.4368, -4.5474 ], [ 39.4474, -4.5332 ], [ 39.449, -4.5268 ], [ 39.4485, -4.526 ], [ 39.4435, -4.5357 ], [ 39.4393, -4.5332 ], [ 39.4301, -4.534 ], [ 39.4285, -4.5329 ], [ 39.4299, -4.5351 ], [ 39.4354, -4.534 ], [ 39.4399, -4.5354 ], [ 39.4418, -4.5385 ], [ 39.4263, -4.5493 ], [ 39.4265, -4.5521 ], [ 39.4232, -4.5546 ], [ 39.4224, -4.5585 ], [ 39.4182, -4.5524 ], [ 39.4129, -4.5504 ], [ 39.4113, -4.5546 ], [ 39.414, -4.5526 ], [ 39.4182, -4.5532 ], [ 39.419, -4.556 ], [ 39.4168, -4.5557 ], [ 39.4171, -4.5568 ], [ 39.4246, -4.5651 ], [ 39.424, -4.5696 ], [ 39.4179, -4.5674 ], [ 39.4221, -4.5707 ], [ 39.4224, -4.5729 ], [ 39.4174, -4.5807 ], [ 39.4143, -4.5796 ], [ 39.4101, -4.5818 ], [ 39.4093, -4.5849 ], [ 39.4049, -4.5874 ], [ 39.4057, -4.5893 ], [ 39.4024, -4.5901 ], [ 39.3999, -4.5871 ], [ 39.3971, -4.5782 ], [ 39.3943, -4.5774 ], [ 39.3985, -4.5868 ], [ 39.3954, -4.5904 ], [ 39.3946, -4.5957 ], [ 39.3971, -4.5985 ], [ 39.3943, -4.599 ], [ 39.3957, -4.6012 ], [ 39.3949, -4.6032 ], [ 39.3985, -4.6051 ], [ 39.3974, -4.6076 ], [ 39.4007, -4.6088 ], [ 39.3982, -4.6135 ], [ 39.3982, -4.619 ], [ 39.4026, -4.6232 ], [ 39.4051, -4.6199 ], [ 39.4124, -4.6212 ], [ 39.4129, -4.6346 ], [ 39.409, -4.6363 ], [ 39.409, -4.639 ], [ 39.4065, -4.6399 ], [ 39.4046, -4.6465 ], [ 39.3985, -4.649 ], [ 39.3885, -4.6499 ], [ 39.3838, -4.6499 ], [ 39.3546, -4.6407 ], [ 39.3387, -4.6415 ], [ 39.3282, -4.6465 ], [ 39.324, -4.6429 ], [ 39.3054, -4.6388 ], [ 39.3035, -4.6335 ], [ 39.3043, -4.6301 ], [ 39.3057, -4.6304 ], [ 39.306, -4.616 ], [ 39.3104, -4.6132 ], [ 39.3063, -4.6121 ], [ 39.3063, -4.6074 ], [ 39.3082, -4.6035 ], [ 39.3049, -4.5968 ], [ 39.3065, -4.5926 ], [ 39.3115, -4.5887 ], [ 39.314, -4.5801 ], [ 39.3021, -4.5971 ], [ 39.2982, -4.5996 ], [ 39.2943, -4.5874 ], [ 39.2943, -4.5804 ], [ 39.2929, -4.5796 ], [ 39.2932, -4.5868 ], [ 39.2965, -4.5987 ], [ 39.2907, -4.6146 ], [ 39.2871, -4.616 ], [ 39.2871, -4.6185 ], [ 39.2807, -4.6154 ], [ 39.279, -4.5968 ], [ 39.2813, -4.5937 ], [ 39.2768, -4.5968 ], [ 39.2704, -4.5868 ], [ 39.2699, -4.5879 ], [ 39.2637, -4.5871 ], [ 39.2593, -4.5885 ], [ 39.2571, -4.5904 ], [ 39.2621, -4.5901 ], [ 39.2646, -4.5882 ], [ 39.2715, -4.5901 ], [ 39.2738, -4.5929 ], [ 39.2732, -4.5968 ], [ 39.2779, -4.6018 ], [ 39.2771, -4.6113 ], [ 39.2751, -4.6104 ], [ 39.2768, -4.6151 ], [ 39.2757, -4.6254 ], [ 39.2735, -4.6279 ], [ 39.2704, -4.6257 ], [ 39.2679, -4.6276 ], [ 39.2654, -4.6274 ], [ 39.2643, -4.6251 ], [ 39.266, -4.6229 ], [ 39.2674, -4.6174 ], [ 39.2671, -4.6168 ], [ 39.2651, -4.619 ], [ 39.2651, -4.6221 ], [ 39.2629, -4.6235 ], [ 39.2607, -4.624 ], [ 39.2579, -4.621 ], [ 39.2562, -4.6237 ], [ 39.2546, -4.6237 ], [ 39.2532, -4.6276 ], [ 39.2513, -4.6243 ], [ 39.2515, -4.6271 ], [ 39.2474, -4.6318 ], [ 39.249, -4.6351 ], [ 39.2457, -4.6324 ], [ 39.2465, -4.6354 ], [ 39.2449, -4.6365 ], [ 39.2365, -4.6349 ], [ 39.2465, -4.6424 ], [ 39.244, -4.6454 ], [ 39.2432, -4.6429 ], [ 39.2393, -4.6457 ], [ 39.2382, -4.6515 ], [ 39.2354, -4.6543 ], [ 39.2368, -4.661 ], [ 39.2337, -4.6624 ], [ 39.2313, -4.6587 ], [ 39.226, -4.671 ], [ 39.2223, -4.6707 ], [ 39.2193, -4.6758 ], [ 39.2097, -4.6722 ], [ 39.2073, -4.6675 ], [ 39.2047, -4.6659 ], [ 39.1979, -4.6661 ], [ 39.1928, -4.6603 ], [ 38.9645, -4.4984 ], [ 38.8028, -4.3875 ], [ 38.7608, -4.3604 ], [ 38.445, -4.1388 ], [ 37.7858, -3.6771 ], [ 37.768, -3.6333 ], [ 37.7489, -3.565 ], [ 37.7475, -3.5507 ], [ 37.7441, -3.5441 ], [ 37.702, -3.5304 ], [ 37.6737, -3.509 ], [ 37.6265, -3.5308 ], [ 37.6136, -3.5273 ], [ 37.6134, -3.525 ], [ 37.608, -3.524 ], [ 37.6062, -3.5206 ], [ 37.6036, -3.5206 ], [ 37.6047, -3.5064 ], [ 37.6083, -3.4974 ], [ 37.6256, -3.473 ], [ 37.6271, -3.4673 ], [ 37.5927, -3.4646 ], [ 37.5927, -3.4612 ], [ 37.5854, -3.4621 ], [ 37.5854, -3.4405 ], [ 37.6164, -3.4056 ], [ 37.6151, -3.4036 ], [ 37.6181, -3.4002 ], [ 37.6411, -3.3781 ], [ 37.6432, -3.3796 ], [ 37.6643, -3.3589 ], [ 37.6808, -3.3571 ], [ 37.6856, -3.3512 ], [ 37.6856, -3.3236 ], [ 37.6894, -3.3222 ], [ 37.7114, -3.3055 ], [ 37.6904, -3.1751 ], [ 37.7917, -3.1711 ], [ 37.7955, -3.1729 ], [ 37.8007, -3.1688 ], [ 37.8105, -3.1682 ], [ 37.8159, -3.1703 ], [ 37.8197, -3.1746 ], [ 37.8281, -3.1795 ], [ 37.8307, -3.1839 ], [ 37.8351, -3.1869 ], [ 37.8475, -3.1838 ], [ 37.8527, -3.1799 ], [ 37.8543, -3.0801 ], [ 37.8663, -3.0792 ], [ 37.8707, -3.0775 ], [ 37.8945, -2.8857 ], [ 37.9179, -2.8684 ], [ 37.9375, -2.7708 ], [ 37.9744, -2.7874 ], [ 38.1001, -2.7207 ], [ 38.1013, -2.7183 ], [ 38.1153, -2.7126 ], [ 38.1183, -2.7047 ], [ 38.1224, -2.7045 ], [ 38.1287, -2.6981 ], [ 38.1533, -2.6982 ], [ 38.1577, -2.6936 ], [ 38.1573, -2.6881 ], [ 38.1613, -2.6792 ], [ 38.1625, -2.693 ], [ 38.1669, -2.6931 ], [ 38.1847, -2.7028 ], [ 38.2497, -2.7497 ], [ 38.2505, -2.752 ], [ 38.2579, -2.7576 ], [ 38.2791, -2.7824 ], [ 38.302, -2.8159 ], [ 38.3187, -2.8327 ], [ 38.3385, -2.8653 ], [ 38.3619, -2.898 ], [ 38.3929, -2.926 ], [ 38.3982, -2.9271 ], [ 38.4053, -2.9256 ], [ 38.4087, -2.927 ], [ 38.4301, -2.9556 ], [ 38.4475, -2.971 ], [ 38.4568, -2.9895 ], [ 38.4599, -2.9922 ], [ 38.4633, -2.9878 ], [ 38.4677, -2.9877 ], [ 38.4681, -2.985 ], [ 38.4774, -2.9853 ], [ 38.4885, -2.9776 ], [ 38.4928, -2.984 ], [ 38.5083, -2.9824 ], [ 38.5132, -2.9835 ], [ 38.5147, -2.9825 ], [ 38.5143, -2.9789 ], [ 38.5194, -2.9747 ], [ 38.5257, -2.974 ], [ 38.5309, -2.9759 ], [ 38.5381, -2.9734 ], [ 38.5439, -2.9796 ], [ 38.5507, -2.9805 ], [ 38.5595, -2.986 ], [ 38.5843, -2.9875 ], [ 38.594, -2.9991 ], [ 38.6019, -2.9986 ], [ 38.6085, -2.9947 ], [ 38.6092, -2.9967 ], [ 38.6061, -3.0033 ], [ 38.6083, -3.0064 ], [ 38.6133, -3.007 ], [ 38.6176, -3.0099 ], [ 38.6251, -3.0099 ], [ 38.6295, -3.0119 ], [ 38.6358, -3.0108 ], [ 38.6427, -3.0127 ], [ 38.6513, -3.0204 ], [ 38.6538, -3.025 ], [ 38.6613, -3.0288 ], [ 38.6652, -3.0393 ], [ 38.6816, -3.035 ], [ 38.6943, -3.0356 ], [ 38.7073, -3.0315 ], [ 38.7231, -3.0364 ], [ 38.7333, -3.0422 ], [ 38.7442, -3.0432 ], [ 38.7544, -3.0462 ], [ 38.7585, -3.0467 ], [ 38.7688, -3.0431 ], [ 38.774, -3.0434 ], [ 38.7786, -3.0478 ], [ 38.7891, -3.0476 ], [ 38.7988, -3.0518 ], [ 38.8089, -3.0527 ], [ 38.8099, -3.0566 ], [ 38.8075, -3.0598 ], [ 38.8021, -3.0577 ], [ 38.7981, -3.0604 ], [ 38.7989, -3.0663 ], [ 38.8053, -3.0684 ], [ 38.8195, -3.0672 ], [ 38.8259, -3.0608 ], [ 38.8362, -3.0592 ], [ 38.8415, -3.0534 ], [ 38.8449, -3.0548 ], [ 38.8477, -3.0609 ], [ 38.8623, -3.0575 ], [ 38.8933, -3.0377 ], [ 38.8988, -3.0381 ], [ 38.9029, -3.0422 ], [ 38.9115, -3.0429 ], [ 38.9175, -3.0427 ], [ 38.9255, -3.0397 ], [ 38.9316, -3.0402 ], [ 38.9371, -3.0343 ], [ 38.9529, -3.0385 ], [ 38.9767, -3.0393 ], [ 38.9863, -3.033 ], [ 38.9893, -3.0272 ], [ 38.9919, -3.0257 ], [ 39.0139, -3.0253 ], [ 39.0256, -3.0206 ], [ 39.0367, -3.025 ], [ 39.0453, -3.021 ], [ 39.0445, -3.0281 ], [ 39.0458, -3.0313 ], [ 39.0535, -3.033 ], [ 39.062, -3.0409 ], [ 39.0726, -3.0403 ], [ 39.0789, -3.042 ], [ 39.0805, -3.0496 ], [ 39.0855, -3.0532 ], [ 39.0888, -3.0507 ], [ 39.0885, -3.0446 ], [ 39.0899, -3.0427 ], [ 39.1025, -3.0377 ], [ 39.1063, -3.0346 ], [ 39.1131, -3.0245 ], [ 39.1257, -3.0195 ], [ 39.1297, -3.0199 ], [ 39.1343, -3.0357 ], [ 39.1337, -3.0396 ], [ 39.1355, -3.042 ], [ 39.1415, -3.0414 ], [ 39.1435, -3.0485 ], [ 39.1509, -3.0443 ], [ 39.1527, -3.0447 ], [ 39.1635, -3.0595 ], [ 39.1643, -3.0651 ], [ 39.1671, -3.0663 ], [ 39.1705, -3.0649 ], [ 39.1741, -3.0582 ], [ 39.1777, -3.057 ], [ 39.1835, -3.0632 ], [ 39.1959, -3.0613 ], [ 39.1997, -3.062 ], [ 39.2041, -3.0654 ], [ 39.2195, -3.0661 ], [ 39.184793846659872, -3.197309476802385 ], [ 39.2189, -3.0692 ], [ 39.5055, -2.7482 ], [ 39.8923, -2.3092 ], [ 40.1793, -2.7159 ], [ 40.1862, -2.7274 ], [ 40.1851, -2.7276 ], [ 40.1876, -2.7387 ], [ 40.1885, -2.7362 ], [ 40.1924, -2.7368 ], [ 40.1904, -2.741 ], [ 40.1926, -2.7421 ], [ 40.1935, -2.7454 ], [ 40.1865, -2.7615 ], [ 40.1832, -2.7618 ], [ 40.1846, -2.7637 ], [ 40.1804, -2.7651 ], [ 40.181, -2.7707 ], [ 40.1785, -2.771 ], [ 40.1796, -2.7718 ], [ 40.179, -2.7788 ], [ 40.176, -2.7849 ], [ 40.1793, -2.7838 ], [ 40.1849, -2.7771 ], [ 40.1868, -2.7771 ], [ 40.1832, -2.7912 ], [ 40.1846, -2.7949 ], [ 40.1835, -2.799 ], [ 40.1857, -2.8004 ], [ 40.1835, -2.829 ], [ 40.1779, -2.8437 ], [ 40.1749, -2.8468 ], [ 40.174, -2.8524 ], [ 40.1715, -2.8554 ], [ 40.1721, -2.8626 ], [ 40.1701, -2.8693 ], [ 40.171, -2.8768 ], [ 40.1696, -2.8818 ], [ 40.1726, -2.8888 ], [ 40.1726, -2.8996 ], [ 40.1665, -2.9143 ], [ 40.164, -2.9349 ], [ 40.1665, -2.9432 ], [ 40.1651, -2.9474 ], [ 40.1665, -2.9479 ], [ 40.1657, -2.9546 ], [ 40.1668, -2.9576 ], [ 40.1615, -2.9551 ], [ 40.1696, -2.9649 ], [ 40.1707, -2.9643 ], [ 40.1682, -2.9629 ], [ 40.1685, -2.9601 ], [ 40.1721, -2.9587 ], [ 40.174, -2.9618 ], [ 40.1749, -2.9601 ], [ 40.1804, -2.9707 ], [ 40.1843, -2.974 ], [ 40.1904, -2.9862 ], [ 40.1882, -2.9871 ], [ 40.1868, -2.986 ], [ 40.1843, -2.9799 ], [ 40.1829, -2.9812 ], [ 40.1782, -2.9801 ], [ 40.1732, -2.9849 ], [ 40.1735, -2.9868 ], [ 40.1685, -2.9932 ], [ 40.1707, -2.9935 ], [ 40.1696, -2.9988 ], [ 40.1721, -2.999 ], [ 40.1743, -2.9904 ], [ 40.1821, -2.9871 ], [ 40.1871, -2.9924 ], [ 40.1879, -2.9954 ], [ 40.1937, -2.9954 ], [ 40.2007, -2.9926 ], [ 40.2124, -2.9938 ], [ 40.2221, -2.9887 ], [ 40.2299, -2.9801 ], [ 40.2376, -2.9779 ], [ 40.2407, -2.979 ], [ 40.2415, -2.9896 ], [ 40.2382, -2.9963 ], [ 40.2349, -2.9932 ], [ 40.2315, -2.9935 ], [ 40.2238, -3.0015 ], [ 40.2121, -3.0032 ], [ 40.2015, -3.0104 ], [ 40.1965, -3.019 ], [ 40.1968, -3.0268 ], [ 40.1954, -3.0307 ], [ 40.1846, -3.0329 ], [ 40.174, -3.0415 ], [ 40.1696, -3.0526 ], [ 40.1701, -3.0596 ], [ 40.1735, -3.0646 ], [ 40.1732, -3.0693 ], [ 40.1637, -3.0751 ], [ 40.1613, -3.0751 ], [ 40.1596, -3.0813 ], [ 40.156, -3.0832 ], [ 40.1571, -3.0857 ], [ 40.156, -3.0904 ], [ 40.1593, -3.0968 ], [ 40.1618, -3.1268 ], [ 40.1637, -3.129 ], [ 40.1637, -3.1318 ], [ 40.1512, -3.1526 ], [ 40.1474, -3.1665 ], [ 40.1443, -3.166 ], [ 40.1426, -3.1674 ], [ 40.136, -3.1618 ], [ 40.1404, -3.1682 ], [ 40.1407, -3.1715 ], [ 40.1265, -3.1893 ], [ 40.1215, -3.199 ], [ 40.1213, -3.2101 ], [ 40.1268, -3.219 ], [ 40.1276, -3.2235 ], [ 40.1296, -3.2229 ], [ 40.1304, -3.2246 ], [ 40.1282, -3.2293 ], [ 40.1265, -3.249 ], [ 40.1287, -3.2493 ], [ 40.1326, -3.2562 ], [ 40.1312, -3.264 ], [ 40.1249, -3.2749 ], [ 40.1263, -3.2793 ], [ 40.1226, -3.2832 ], [ 40.1224, -3.2887 ], [ 40.1204, -3.2915 ], [ 40.1174, -3.2926 ], [ 40.1135, -3.299 ], [ 40.1099, -3.2999 ], [ 40.0885, -3.3149 ], [ 40.0743, -3.3199 ], [ 40.0715, -3.3237 ], [ 40.0618, -3.3301 ], [ 40.0551, -3.3368 ], [ 40.0376, -3.3443 ], [ 40.0354, -3.3468 ], [ 40.0282, -3.3488 ], [ 40.024, -3.3521 ], [ 40.0238, -3.356 ], [ 40.0218, -3.3574 ], [ 40.0187, -3.3562 ], [ 40.0146, -3.3574 ], [ 40.0132, -3.3599 ], [ 40.0151, -3.3615 ], [ 40.0129, -3.3637 ], [ 40.0118, -3.3635 ], [ 40.0121, -3.3604 ], [ 40.0068, -3.3615 ], [ 39.9946, -3.3754 ], [ 39.9801, -3.3857 ], [ 39.9765, -3.3901 ], [ 39.9726, -3.3901 ], [ 39.9696, -3.3876 ], [ 39.9732, -3.371 ], [ 39.9712, -3.3612 ], [ 39.9718, -3.3543 ], [ 39.9676, -3.3504 ], [ 39.9657, -3.3443 ], [ 39.969, -3.3404 ], [ 39.9721, -3.3404 ], [ 39.9746, -3.3426 ], [ 39.9774, -3.3507 ], [ 39.9821, -3.3499 ], [ 39.9826, -3.3449 ], [ 39.9879, -3.3474 ], [ 39.9896, -3.3446 ], [ 39.984, -3.3365 ], [ 39.9837, -3.3321 ], [ 39.986, -3.3268 ], [ 39.9915, -3.3218 ], [ 39.9799, -3.3229 ], [ 39.9782, -3.3215 ], [ 39.9771, -3.3232 ], [ 39.9738, -3.3232 ], [ 39.9693, -3.3257 ], [ 39.9682, -3.3293 ], [ 39.9721, -3.3301 ], [ 39.9676, -3.3332 ], [ 39.9637, -3.3318 ], [ 39.9649, -3.3332 ], [ 39.9615, -3.3393 ], [ 39.9618, -3.3426 ], [ 39.9571, -3.3443 ], [ 39.9601, -3.3451 ], [ 39.961, -3.349 ], [ 39.966, -3.3535 ], [ 39.9657, -3.3668 ], [ 39.9646, -3.3715 ], [ 39.9629, -3.3715 ], [ 39.9615, -3.3751 ], [ 39.9657, -3.3713 ], [ 39.9693, -3.3724 ], [ 39.9679, -3.3801 ], [ 39.9663, -3.3812 ], [ 39.9668, -3.3782 ], [ 39.9657, -3.3782 ], [ 39.9643, -3.3807 ], [ 39.9649, -3.384 ], [ 39.9637, -3.384 ], [ 39.9629, -3.3796 ], [ 39.961, -3.3793 ], [ 39.9582, -3.3738 ], [ 39.9574, -3.3754 ], [ 39.959, -3.3837 ], [ 39.9613, -3.3846 ], [ 39.9618, -3.389 ], [ 39.9668, -3.3907 ], [ 39.9679, -3.3932 ], [ 39.966, -3.4013 ], [ 39.9699, -3.4032 ], [ 39.9696, -3.4062 ], [ 39.9635, -3.416 ], [ 39.9615, -3.424 ], [ 39.9579, -3.4279 ], [ 39.9579, -3.4324 ], [ 39.9554, -3.4382 ], [ 39.9424, -3.4607 ], [ 39.9338, -3.484 ], [ 39.9265, -3.4949 ], [ 39.9246, -3.5082 ], [ 39.9032, -3.5671 ], [ 39.8985, -3.5768 ], [ 39.8954, -3.5779 ], [ 39.8943, -3.5801 ], [ 39.8954, -3.5826 ], [ 39.8926, -3.5865 ], [ 39.891, -3.5943 ], [ 39.8876, -3.5979 ], [ 39.8826, -3.6115 ], [ 39.8763, -3.619 ], [ 39.8765, -3.6215 ], [ 39.8715, -3.6315 ], [ 39.8657, -3.6374 ], [ 39.8579, -3.6382 ], [ 39.8524, -3.6346 ], [ 39.8451, -3.6354 ], [ 39.8415, -3.6279 ], [ 39.8382, -3.6274 ], [ 39.836, -3.6249 ], [ 39.8312, -3.6249 ], [ 39.8279, -3.6218 ], [ 39.8249, -3.6129 ], [ 39.8213, -3.6096 ], [ 39.8174, -3.609 ], [ 39.8138, -3.6132 ], [ 39.8118, -3.6218 ], [ 39.8082, -3.611 ], [ 39.8001, -3.6063 ], [ 39.7954, -3.6085 ], [ 39.7968, -3.6093 ], [ 39.8007, -3.6071 ], [ 39.806, -3.6107 ], [ 39.8076, -3.6201 ], [ 39.8115, -3.6237 ], [ 39.8115, -3.6335 ], [ 39.8085, -3.6299 ], [ 39.8057, -3.6304 ], [ 39.8035, -3.6324 ], [ 39.8026, -3.636 ], [ 39.8049, -3.6426 ], [ 39.8085, -3.6438 ], [ 39.8101, -3.6471 ], [ 39.8204, -3.6471 ], [ 39.8224, -3.6429 ], [ 39.826, -3.6413 ], [ 39.8274, -3.6371 ], [ 39.8321, -3.6379 ], [ 39.8385, -3.6335 ], [ 39.8446, -3.6385 ], [ 39.8496, -3.6371 ], [ 39.856, -3.6407 ], [ 39.8621, -3.6415 ], [ 39.8679, -3.6524 ], [ 39.8699, -3.6651 ], [ 39.8693, -3.6749 ], [ 39.8671, -3.676 ], [ 39.8668, -3.6779 ], [ 39.8632, -3.6785 ], [ 39.8624, -3.6799 ], [ 39.8651, -3.6787 ], [ 39.8682, -3.681 ], [ 39.8707, -3.6979 ], [ 39.8662, -3.7093 ], [ 39.8613, -3.7149 ], [ 39.8632, -3.7185 ], [ 39.8624, -3.7224 ], [ 39.8582, -3.7268 ], [ 39.856, -3.7407 ], [ 39.8501, -3.7501 ], [ 39.8474, -3.7615 ], [ 39.8446, -3.7651 ], [ 39.8435, -3.7774 ], [ 39.841, -3.7799 ], [ 39.8376, -3.7963 ], [ 39.831, -3.8104 ], [ 39.8301, -3.8235 ], [ 39.8257, -3.8338 ], [ 39.8187, -3.846 ], [ 39.8132, -3.861 ], [ 39.8035, -3.8782 ], [ 39.799, -3.8896 ], [ 39.7876, -3.909 ], [ 39.7785, -3.9371 ], [ 39.7749, -3.944 ], [ 39.7665, -3.9537 ], [ 39.7635, -3.9554 ], [ 39.7601, -3.9549 ], [ 39.7588, -3.9568 ], [ 39.7554128, -3.9570784 ], [ 39.7562, -3.9572 ], [ 39.7532, -3.9596 ], [ 39.7604, -3.9582 ], [ 39.764, -3.9618 ], [ 39.7618, -3.9654 ], [ 39.7549, -3.9693 ], [ 39.7496, -3.9787 ], [ 39.7379, -3.9896 ], [ 39.7343, -3.9968 ], [ 39.729, -4.0026 ], [ 39.7262, -4.0138 ], [ 39.7282, -4.0176 ], [ 39.7315, -4.0176 ], [ 39.7301, -4.0237 ], [ 39.7229, -4.0268 ], [ 39.7188, -4.0354 ], [ 39.7174, -4.0354 ], [ 39.7171, -4.0382 ], [ 39.7137, -4.041 ], [ 39.7001, -4.0618 ], [ 39.6876, -4.0654 ], [ 39.6854, -4.0643 ], [ 39.6835, -4.0613 ], [ 39.684, -4.0576 ], [ 39.681, -4.0549 ], [ 39.6818, -4.0446 ], [ 39.6799, -4.0429 ], [ 39.6738, -4.0432 ], [ 39.6774, -4.0379 ], [ 39.6768, -4.0324 ], [ 39.6721, -4.0324 ], [ 39.671, -4.0279 ], [ 39.669, -4.0279 ], [ 39.661, -4.0218 ], [ 39.6585, -4.0232 ], [ 39.6529, -4.0182 ], [ 39.6501, -4.0193 ], [ 39.6512, -4.0218 ], [ 39.6499, -4.0229 ], [ 39.6474, -4.0182 ], [ 39.6437, -4.0163 ], [ 39.6421, -4.0237 ], [ 39.6449, -4.0271 ], [ 39.6504, -4.0287 ], [ 39.6518, -4.0318 ], [ 39.6479, -4.0371 ], [ 39.6463, -4.0371 ], [ 39.6443, -4.0335 ], [ 39.6387, -4.0346 ], [ 39.6376, -4.0363 ], [ 39.6387, -4.0393 ], [ 39.644, -4.0376 ], [ 39.6496, -4.0382 ], [ 39.6585, -4.0296 ], [ 39.6668, -4.0299 ], [ 39.6699, -4.0346 ], [ 39.6754, -4.0365 ], [ 39.6754, -4.0385 ], [ 39.6712, -4.041 ], [ 39.6715, -4.0449 ], [ 39.6738, -4.0468 ], [ 39.6776, -4.0457 ], [ 39.679, -4.0474 ], [ 39.6751, -4.0529 ], [ 39.676, -4.0557 ], [ 39.6796, -4.0576 ], [ 39.681, -4.0632 ], [ 39.6826, -4.0643 ], [ 39.6829, -4.0721 ], [ 39.6729, -4.0796 ], [ 39.6657, -4.0796 ], [ 39.6629, -4.0779 ], [ 39.6593, -4.0715 ], [ 39.6571, -4.0713 ], [ 39.651, -4.0624 ], [ 39.6476, -4.0613 ], [ 39.6465, -4.0515 ], [ 39.6404, -4.0426 ], [ 39.634, -4.0449 ], [ 39.631, -4.0435 ], [ 39.6312, -4.046 ], [ 39.6274, -4.0479 ], [ 39.6263, -4.0465 ], [ 39.6207, -4.0463 ], [ 39.6213, -4.0438 ], [ 39.6176, -4.0421 ], [ 39.6124, -4.0426 ], [ 39.6076, -4.0454 ], [ 39.5907, -4.0451 ], [ 39.589, -4.0499 ], [ 39.5865, -4.0507 ], [ 39.5835, -4.0463 ], [ 39.584954829497732, -4.036619788342017 ], [ 39.5793, -4.0296 ], [ 39.5732, -4.0257 ], [ 39.5663, -4.0257 ], [ 39.5657, -4.0371 ], [ 39.5638, -4.0396 ], [ 39.559, -4.0415 ], [ 39.5624, -4.0412 ], [ 39.566, -4.0382 ], [ 39.5685, -4.0262 ], [ 39.5738, -4.0279 ], [ 39.5807, -4.0349 ], [ 39.5824, -4.0396 ], [ 39.581, -4.0432 ], [ 39.5793, -4.0415 ], [ 39.5726, -4.041 ], [ 39.5696, -4.0424 ], [ 39.5665, -4.0468 ], [ 39.5679, -4.0518 ], [ 39.5715, -4.056 ], [ 39.5724, -4.0635 ], [ 39.5749, -4.0685 ], [ 39.5821, -4.0707 ], [ 39.5882, -4.0676 ], [ 39.5785, -4.0804 ], [ 39.5751, -4.0843 ], [ 39.5754, -4.0868 ], [ 39.5787, -4.0821 ], [ 39.5791, -4.0888 ], [ 39.5788, -4.0818 ], [ 39.5807, -4.0821 ], [ 39.5913, -4.0743 ] ], [ [ 39.0873, -3.5696 ], [ 39.100695992714108, -3.516939890710056 ], [ 39.084461601377512, -3.580052948773193 ], [ 39.0873, -3.5696 ] ], [ [ 39.3567, -3.6546 ], [ 39.356539775910363, -3.654068347338936 ], [ 39.3541, -3.6612 ], [ 39.3567, -3.6546 ] ], [ [ 39.4937, -3.8841 ], [ 39.4857, -3.8809 ], [ 39.493875722543351, -3.884266473988437 ], [ 39.4937, -3.8841 ] ], [ [ 39.530331768953069, -3.949594584837545 ], [ 39.5277, -3.9436 ], [ 39.5283, -3.9472 ], [ 39.530331768953069, -3.949594584837545 ] ], [ [ 39.5393, -3.9569 ], [ 39.533266996699673, -3.953053960396042 ], [ 39.5339, -3.9538 ], [ 39.5393, -3.9569 ] ], [ [ 39.5751, -3.9842 ], [ 39.568948893166507, -3.990630702598654 ], [ 39.568956495468278, -3.990636052366568 ], [ 39.5751, -3.9842 ] ], [ [ 39.6663, -3.9186 ], [ 39.6437, -3.9246 ], [ 39.643243680709539, -3.925099778270509 ], [ 39.6672975, -3.91862375 ], [ 39.6663, -3.9186 ] ], [ [ 39.6705, -3.9187 ], [ 39.669353280318091, -3.918672697150431 ], [ 39.6772, -3.9221 ], [ 39.6705, -3.9187 ] ], [ [ 39.6993, -3.9205 ], [ 39.698630434782608, -3.920519130434783 ], [ 39.699278109452734, -3.920713432835822 ], [ 39.6993, -3.9205 ] ], [ [ 39.7145, -3.9505 ], [ 39.702415554094046, -3.94326764222295 ], [ 39.7027, -3.9437 ], [ 39.7145, -3.9505 ] ], [ [ 39.7239, -3.9525 ], [ 39.729182087912093, -3.952276813186813 ], [ 39.7145, -3.9505 ], [ 39.7239, -3.9525 ] ], [ [ 39.7358, -3.9484 ], [ 39.730447305389227, -3.952223353293413 ], [ 39.731, -3.9522 ], [ 39.7358, -3.9484 ] ], [ [ 39.7349, -3.9513 ], [ 39.735466666666667, -3.949474074074074 ], [ 39.7352, -3.9498 ], [ 39.7349, -3.9513 ] ] ], [ [ [ 39.5882, -4.0568 ], [ 39.5896, -4.0537 ], [ 39.5965, -4.0529 ], [ 39.5896, -4.0515 ], [ 39.5982, -4.0504 ], [ 39.6024, -4.0501 ], [ 39.6035, -4.0526 ], [ 39.5929, -4.0568 ], [ 39.5915, -4.059 ], [ 39.5893, -4.0588 ], [ 39.5882, -4.0568 ] ] ], [ [ [ 39.5857, -4.0562 ], [ 39.5857, -4.0582 ], [ 39.5835, -4.0576 ], [ 39.5799, -4.0518 ], [ 39.5799, -4.0468 ], [ 39.581, -4.0476 ], [ 39.5857, -4.0562 ] ] ], [ [ [ 39.9718, -3.3343 ], [ 39.9782, -3.3346 ], [ 39.9793, -3.3365 ], [ 39.9724, -3.3365 ], [ 39.9718, -3.3343 ] ] ], [ [ [ 39.9771, -3.3285 ], [ 39.9796, -3.3296 ], [ 39.9799, -3.3329 ], [ 39.9763, -3.331 ], [ 39.9771, -3.3285 ] ] ], [ [ [ 40.2349, -2.9974 ], [ 40.2363, -2.9965 ], [ 40.2357, -3.0004 ], [ 40.234, -3.0004 ], [ 40.2343, -2.9988 ], [ 40.2349, -2.9974 ] ] ], [ [ [ 40.1935, -2.9907 ], [ 40.1943, -2.9882 ], [ 40.1982, -2.989 ], [ 40.1971, -2.9901 ], [ 40.1935, -2.9907 ] ] ], [ [ [ 40.1907, -2.9796 ], [ 40.1921, -2.9815 ], [ 40.194, -2.9829 ], [ 40.1929, -2.9854 ], [ 40.1907, -2.9796 ] ] ], [ [ [ 40.1897, -2.7314 ], [ 40.1874, -2.7313 ], [ 40.1876, -2.7293 ], [ 40.1871, -2.7284 ], [ 40.1897, -2.7314 ] ] ], [ [ [ 40.1868, -2.7281 ], [ 40.1869, -2.7282 ], [ 40.1868, -2.7282 ], [ 40.1868, -2.7281 ] ] ], [ [ [ 40.1867, -2.7279 ], [ 40.1865, -2.7279 ], [ 40.1865, -2.7277 ], [ 40.1867, -2.7279 ] ] ], [ [ [ 40.1865, -2.7276 ], [ 40.1862, -2.7276 ], [ 40.1863, -2.7274 ], [ 40.1865, -2.7276 ] ] ], [ [ [ 40.5518, -2.5454 ], [ 40.5532, -2.5432 ], [ 40.5546, -2.5446 ], [ 40.5532, -2.5462 ], [ 40.5518, -2.5454 ] ] ], [ [ [ 40.5274, -2.5401 ], [ 40.5282, -2.541 ], [ 40.5285, -2.5421 ], [ 40.5257, -2.5401 ], [ 40.5274, -2.5401 ] ] ], [ [ [ 40.8421, -2.429 ], [ 40.8421, -2.4307 ], [ 40.8404, -2.4315 ], [ 40.8401, -2.4301 ], [ 40.8421, -2.429 ] ] ], [ [ [ 40.8071, -2.3162 ], [ 40.8079, -2.314 ], [ 40.8088, -2.3149 ], [ 40.8076, -2.3165 ], [ 40.8071, -2.3162 ] ] ], [ [ [ 40.7882, -2.3057 ], [ 40.7837, -2.3024 ], [ 40.7868, -2.3029 ], [ 40.8007, -2.3049 ], [ 40.8071, -2.3121 ], [ 40.8068, -2.3149 ], [ 40.8054, -2.3151 ], [ 40.7996, -2.309 ], [ 40.7882, -2.3057 ] ] ], [ [ [ 40.9138, -2.2993 ], [ 40.9101, -2.2999 ], [ 40.8996, -2.2971 ], [ 40.884, -2.2979 ], [ 40.8662, -2.3029 ], [ 40.8399, -2.3193 ], [ 40.8307, -2.3304 ], [ 40.8171, -2.3374 ], [ 40.8154, -2.3346 ], [ 40.8165, -2.3218 ], [ 40.8151, -2.321 ], [ 40.8154, -2.316 ], [ 40.814, -2.3137 ], [ 40.8151, -2.3076 ], [ 40.8132, -2.3076 ], [ 40.8129, -2.304 ], [ 40.8146, -2.2993 ], [ 40.8138, -2.2954 ], [ 40.8168, -2.2915 ], [ 40.8185, -2.2804 ], [ 40.8265, -2.2726 ], [ 40.8299, -2.2735 ], [ 40.8296, -2.2718 ], [ 40.8371, -2.2685 ], [ 40.8413, -2.261 ], [ 40.8474, -2.2549 ], [ 40.8601, -2.251 ], [ 40.8682, -2.2463 ], [ 40.874, -2.2451 ], [ 40.8826, -2.2463 ], [ 40.8876, -2.2476 ], [ 40.8979, -2.2554 ], [ 40.9049, -2.2751 ], [ 40.9143, -2.289 ], [ 40.9165, -2.2965 ], [ 40.9138, -2.2993 ] ] ], [ [ [ 40.9143, -2.2757 ], [ 40.9174, -2.2824 ], [ 40.9162, -2.2854 ], [ 40.9138, -2.2826 ], [ 40.9129, -2.2796 ], [ 40.9143, -2.2765 ], [ 40.9124, -2.2746 ], [ 40.9143, -2.2757 ] ] ], [ [ [ 40.979, -2.2224 ], [ 40.9821, -2.2229 ], [ 40.986, -2.229 ], [ 40.9918, -2.2279 ], [ 40.9929, -2.2321 ], [ 40.9915, -2.2337 ], [ 40.9826, -2.2296 ], [ 40.9813, -2.2243 ], [ 40.979, -2.2224 ] ] ], [ [ [ 40.8924, -2.2362 ], [ 40.8887, -2.2307 ], [ 40.8885, -2.2271 ], [ 40.8907, -2.224 ], [ 40.8899, -2.2193 ], [ 40.8926, -2.2185 ], [ 40.8943, -2.2196 ], [ 40.8974, -2.2237 ], [ 40.8976, -2.2285 ], [ 40.8968, -2.2318 ], [ 40.894, -2.234 ], [ 40.8943, -2.236 ], [ 40.8924, -2.2362 ] ] ], [ [ [ 40.944, -2.2107 ], [ 40.9388, -2.2093 ], [ 40.9346, -2.2046 ], [ 40.9365, -2.2054 ], [ 40.9418, -2.2099 ], [ 40.944, -2.2107 ] ] ], [ [ [ 40.9765, -2.1982 ], [ 40.9749, -2.194 ], [ 40.9751, -2.1888 ], [ 40.9779, -2.1899 ], [ 40.9785, -2.1971 ], [ 40.9765, -2.1982 ] ] ], [ [ [ 40.9199, -2.1287 ], [ 40.9185, -2.1246 ], [ 40.9204, -2.126 ], [ 40.921, -2.1279 ], [ 40.9199, -2.1287 ] ] ], [ [ [ 41.0476, -2.1651 ], [ 41.0424, -2.1615 ], [ 41.0415, -2.1549 ], [ 41.0432, -2.1451 ], [ 41.0385, -2.1462 ], [ 41.0371, -2.1487 ], [ 41.0351, -2.1471 ], [ 41.0351, -2.1426 ], [ 41.039, -2.1343 ], [ 41.0396, -2.1279 ], [ 41.0379, -2.1287 ], [ 41.0371, -2.1335 ], [ 41.0324, -2.141 ], [ 41.0285, -2.1404 ], [ 41.0307, -2.1432 ], [ 41.0307, -2.1462 ], [ 41.0257, -2.1493 ], [ 41.0193, -2.1512 ], [ 41.0168, -2.1507 ], [ 41.0174, -2.1485 ], [ 41.0157, -2.1501 ], [ 41.0118, -2.1496 ], [ 41.0076, -2.1543 ], [ 41.0038, -2.149 ], [ 40.9993, -2.1474 ], [ 41.0035, -2.1512 ], [ 41.0054, -2.1568 ], [ 41.004, -2.1579 ], [ 41.0051, -2.161 ], [ 41.0024, -2.1657 ], [ 40.9982, -2.1638 ], [ 40.9985, -2.159 ], [ 40.9968, -2.1571 ], [ 40.9921, -2.1582 ], [ 40.9943, -2.1626 ], [ 40.9943, -2.1676 ], [ 40.9993, -2.1743 ], [ 40.999, -2.1815 ], [ 41.0032, -2.1835 ], [ 41.0035, -2.1815 ], [ 41.0068, -2.1812 ], [ 41.0101, -2.1882 ], [ 41.009, -2.1974 ], [ 41.0146, -2.1987 ], [ 41.0143, -2.2007 ], [ 41.0157, -2.2004 ], [ 41.016, -2.2049 ], [ 41.0113, -2.209 ], [ 41.0001, -2.2096 ], [ 40.9899, -2.2007 ], [ 40.9879, -2.1951 ], [ 40.9899, -2.1921 ], [ 40.9868, -2.1815 ], [ 40.9874, -2.179 ], [ 40.9865, -2.1776 ], [ 40.9818, -2.1776 ], [ 40.9799, -2.1724 ], [ 40.9776, -2.174 ], [ 40.9782, -2.1818 ], [ 40.9799, -2.1837 ], [ 40.9787, -2.186 ], [ 40.9763, -2.1862 ], [ 40.9763, -2.1804 ], [ 40.9732, -2.1865 ], [ 40.9682, -2.1857 ], [ 40.969, -2.1826 ], [ 40.9749, -2.1776 ], [ 40.9735, -2.1754 ], [ 40.9693, -2.1751 ], [ 40.9674, -2.1729 ], [ 40.9613, -2.1587 ], [ 40.9604, -2.1504 ], [ 40.9629, -2.1493 ], [ 40.9624, -2.1424 ], [ 40.9643, -2.1399 ], [ 40.971, -2.1385 ], [ 40.9712, -2.1415 ], [ 40.9724, -2.1424 ], [ 40.9712, -2.1379 ], [ 40.969, -2.1363 ], [ 40.9696, -2.1315 ], [ 40.9674, -2.131 ], [ 40.9699, -2.126 ], [ 40.969, -2.1179 ], [ 40.9718, -2.111 ], [ 40.9751, -2.1082 ], [ 40.9874, -2.1046 ], [ 40.9929, -2.0971 ], [ 40.9996, -2.0924 ], [ 41.0024, -2.0912 ], [ 41.0068, -2.0921 ], [ 41.0076, -2.0946 ], [ 41.0082, -2.0921 ], [ 41.0121, -2.0904 ], [ 41.0243, -2.0899 ], [ 41.0421, -2.081 ], [ 41.0468, -2.0746 ], [ 41.0499, -2.0762 ], [ 41.0507, -2.0729 ], [ 41.0546, -2.071 ], [ 41.061, -2.064 ], [ 41.0638, -2.0635 ], [ 41.0643, -2.0665 ], [ 41.066, -2.0654 ], [ 41.0635, -2.0599 ], [ 41.0643, -2.0554 ], [ 41.069, -2.0557 ], [ 41.0718, -2.0529 ], [ 41.076, -2.0529 ], [ 41.076, -2.0512 ], [ 41.0796, -2.0501 ], [ 41.0865, -2.0418 ], [ 41.0965, -2.0421 ], [ 41.1037, -2.0451 ], [ 41.1129, -2.0443 ], [ 41.1165, -2.0468 ], [ 41.1232, -2.0462 ], [ 41.1243, -2.0507 ], [ 41.1263, -2.0501 ], [ 41.1271, -2.0518 ], [ 41.136, -2.0557 ], [ 41.1368, -2.061 ], [ 41.1399, -2.0609 ], [ 41.1418, -2.0635 ], [ 41.1407, -2.0671 ], [ 41.144, -2.0715 ], [ 41.1457, -2.0693 ], [ 41.146, -2.0724 ], [ 41.1521, -2.0718 ], [ 41.1563, -2.0735 ], [ 41.1626, -2.0762 ], [ 41.1662, -2.081 ], [ 41.171, -2.0929 ], [ 41.159, -2.0976 ], [ 41.1679, -2.0965 ], [ 41.1729, -2.1004 ], [ 41.1732, -2.106 ], [ 41.166, -2.1124 ], [ 41.1613, -2.1137 ], [ 41.1551, -2.121 ], [ 41.1485, -2.1249 ], [ 41.146, -2.1287 ], [ 41.1321, -2.1324 ], [ 41.126, -2.1299 ], [ 41.1251, -2.1274 ], [ 41.1279, -2.1215 ], [ 41.1299, -2.1193 ], [ 41.1343, -2.1196 ], [ 41.1357, -2.1168 ], [ 41.1307, -2.1137 ], [ 41.1246, -2.1118 ], [ 41.1213, -2.1071 ], [ 41.1204, -2.1021 ], [ 41.1182, -2.1035 ], [ 41.1221, -2.1121 ], [ 41.1279, -2.114 ], [ 41.1265, -2.1176 ], [ 41.1229, -2.116 ], [ 41.1224, -2.1229 ], [ 41.119, -2.1249 ], [ 41.119, -2.1265 ], [ 41.114, -2.1235 ], [ 41.116, -2.1287 ], [ 41.1154, -2.1363 ], [ 41.1113, -2.1404 ], [ 41.1001, -2.144 ], [ 41.0979, -2.1429 ], [ 41.0926, -2.1437 ], [ 41.0901, -2.1404 ], [ 41.079, -2.1396 ], [ 41.0785, -2.1324 ], [ 41.0754, -2.1363 ], [ 41.0713, -2.134 ], [ 41.066, -2.1368 ], [ 41.0649, -2.139 ], [ 41.0626, -2.1388 ], [ 41.0585, -2.1415 ], [ 41.0549, -2.1393 ], [ 41.0493, -2.1407 ], [ 41.0454, -2.1421 ], [ 41.0457, -2.144 ], [ 41.0535, -2.1468 ], [ 41.0621, -2.1585 ], [ 41.0596, -2.1649 ], [ 41.0563, -2.1668 ], [ 41.0476, -2.1651 ] ] ], [ [ [ 40.9746, -2.0737 ], [ 40.9765, -2.0712 ], [ 40.9779, -2.0715 ], [ 40.9771, -2.0729 ], [ 40.9757, -2.074 ], [ 40.9746, -2.0737 ] ] ], [ [ [ 40.786, -2.3365 ], [ 40.7882, -2.3396 ], [ 40.7971, -2.3424 ], [ 40.8043, -2.3551 ], [ 40.8104, -2.3579 ], [ 40.8176, -2.3587 ], [ 40.8226, -2.3632 ], [ 40.8243, -2.3674 ], [ 40.8235, -2.3696 ], [ 40.8262, -2.3743 ], [ 40.8262, -2.3837 ], [ 40.8243, -2.3868 ], [ 40.8257, -2.3882 ], [ 40.8251, -2.3924 ], [ 40.8213, -2.3979 ], [ 40.8115, -2.4024 ], [ 40.8063, -2.4079 ], [ 40.7879, -2.4212 ], [ 40.7788, -2.4304 ], [ 40.7718, -2.444 ], [ 40.7715, -2.4532 ], [ 40.7704, -2.4543 ], [ 40.7585, -2.4524 ], [ 40.7487, -2.4532 ], [ 40.7379, -2.4574 ], [ 40.7346, -2.4562 ], [ 40.6657, -2.4666 ], [ 40.5365, -2.4277 ], [ 40.5285, -2.4249 ], [ 40.5291, -2.4216 ], [ 40.5273, -2.4246 ], [ 40.5235, -2.4237 ], [ 40.4473, -2.4005 ], [ 40.4431, -2.4 ], [ 40.4457, -2.4034 ], [ 40.4437, -2.4079 ], [ 40.4331, -2.4166 ], [ 40.4271, -2.4177 ], [ 40.4249, -2.4213 ], [ 40.4107, -2.4254 ], [ 40.4064, -2.4338 ], [ 40.4059, -2.4299 ], [ 40.3969, -2.4302 ], [ 40.3839, -2.4256 ], [ 40.3811, -2.4218 ], [ 40.3705, -2.4223 ], [ 40.3655, -2.417 ], [ 40.3577, -2.4146 ], [ 40.3546, -2.4121 ], [ 40.3483, -2.405 ], [ 40.3489, -2.401 ], [ 40.3453, -2.3986 ], [ 40.2993, -2.3992 ], [ 40.2509, -2.3976 ], [ 40.2503, -2.2475 ], [ 40.2127, -2.0375 ], [ 40.3507, -1.9717 ], [ 40.3595, -1.9684 ], [ 40.3613, -1.9709 ], [ 40.3595, -1.968 ], [ 40.3623, -1.9663 ], [ 40.4033, -1.9472 ], [ 40.5169, -1.8997 ], [ 40.5203, -1.8967 ], [ 40.7351, -1.7936 ], [ 40.7363, -1.7961 ], [ 40.7387, -1.7983 ], [ 40.7357, -1.7946 ], [ 40.7407, -1.7905 ], [ 40.8373, -1.7437 ], [ 40.8519, -1.7351 ], [ 40.8925, -1.7165 ], [ 41.1635, -1.6917 ], [ 41.5624, -1.658 ], [ 41.5501, -1.6743 ], [ 41.5182, -1.7021 ], [ 41.4965, -1.7351 ], [ 41.4951, -1.7379 ], [ 41.4968, -1.7393 ], [ 41.4949, -1.7429 ], [ 41.4957, -1.7451 ], [ 41.459, -1.7801 ], [ 41.4599, -1.7812 ], [ 41.4629, -1.779 ], [ 41.4674, -1.7793 ], [ 41.4704, -1.7735 ], [ 41.4729, -1.7724 ], [ 41.471, -1.7776 ], [ 41.4718, -1.7799 ], [ 41.476, -1.7718 ], [ 41.4785, -1.7707 ], [ 41.4774, -1.774 ], [ 41.4787, -1.7746 ], [ 41.4821, -1.7685 ], [ 41.4863, -1.7668 ], [ 41.489, -1.7779 ], [ 41.4851, -1.7829 ], [ 41.4857, -1.7882 ], [ 41.4824, -1.7885 ], [ 41.4824, -1.791 ], [ 41.4796, -1.7937 ], [ 41.4804, -1.7987 ], [ 41.466, -1.8001 ], [ 41.4646, -1.7979 ], [ 41.4665, -1.7926 ], [ 41.4651, -1.7915 ], [ 41.459, -1.7987 ], [ 41.4532, -1.8026 ], [ 41.4521, -1.7974 ], [ 41.4571, -1.789 ], [ 41.4562, -1.7876 ], [ 41.4521, -1.7929 ], [ 41.4476, -1.7954 ], [ 41.446, -1.8004 ], [ 41.4368, -1.8062 ], [ 41.4401, -1.8087 ], [ 41.4468, -1.8087 ], [ 41.4471, -1.8124 ], [ 41.4396, -1.8104 ], [ 41.434, -1.811 ], [ 41.4293, -1.8087 ], [ 41.429, -1.8138 ], [ 41.4326, -1.8187 ], [ 41.4349, -1.8174 ], [ 41.4368, -1.8207 ], [ 41.4335, -1.8199 ], [ 41.4285, -1.8235 ], [ 41.4271, -1.8279 ], [ 41.4226, -1.8299 ], [ 41.4121, -1.841 ], [ 41.4154, -1.8421 ], [ 41.4193, -1.8407 ], [ 41.4199, -1.8421 ], [ 41.4224, -1.8401 ], [ 41.4257, -1.8407 ], [ 41.4265, -1.8446 ], [ 41.4243, -1.849 ], [ 41.4287, -1.8465 ], [ 41.4304, -1.8382 ], [ 41.4362, -1.8382 ], [ 41.4388, -1.8415 ], [ 41.4293, -1.8518 ], [ 41.4243, -1.8529 ], [ 41.4218, -1.8582 ], [ 41.4179, -1.8593 ], [ 41.3874, -1.8913 ], [ 41.3885, -1.8876 ], [ 41.3954, -1.8799 ], [ 41.4015, -1.869 ], [ 41.4096, -1.8599 ], [ 41.4113, -1.8549 ], [ 41.4096, -1.8546 ], [ 41.4063, -1.8599 ], [ 41.4043, -1.8587 ], [ 41.4032, -1.8624 ], [ 41.3965, -1.8676 ], [ 41.3957, -1.8712 ], [ 41.391, -1.8726 ], [ 41.3935, -1.8757 ], [ 41.3921, -1.8793 ], [ 41.3907, -1.8774 ], [ 41.3868, -1.8765 ], [ 41.3776, -1.8851 ], [ 41.3782, -1.8904 ], [ 41.3815, -1.8913 ], [ 41.3793, -1.8921 ], [ 41.3757, -1.8982 ], [ 41.3732, -1.899 ], [ 41.3776, -1.8921 ], [ 41.3763, -1.8887 ], [ 41.3699, -1.8946 ], [ 41.3685, -1.8974 ], [ 41.3693, -1.9004 ], [ 41.3674, -1.8999 ], [ 41.3621, -1.9085 ], [ 41.3635, -1.9101 ], [ 41.3626, -1.9132 ], [ 41.3535, -1.9224 ], [ 41.3504, -1.9243 ], [ 41.3485, -1.9185 ], [ 41.3465, -1.9176 ], [ 41.341, -1.9207 ], [ 41.3399, -1.9249 ], [ 41.3465, -1.9287 ], [ 41.3229, -1.9537 ], [ 41.3218, -1.9507 ], [ 41.3174, -1.9524 ], [ 41.314, -1.9585 ], [ 41.3171, -1.9607 ], [ 41.3168, -1.9624 ], [ 41.3126, -1.9654 ], [ 41.3149, -1.961 ], [ 41.3132, -1.9587 ], [ 41.3082, -1.9576 ], [ 41.3043, -1.9599 ], [ 41.2993, -1.9657 ], [ 41.2979, -1.9721 ], [ 41.2943, -1.9721 ], [ 41.2904, -1.9754 ], [ 41.2857, -1.9832 ], [ 41.2807, -1.9871 ], [ 41.2779, -1.986 ], [ 41.2757, -1.9721 ], [ 41.2707, -1.9649 ], [ 41.2663, -1.9621 ], [ 41.2604, -1.9629 ], [ 41.2615, -1.9546 ], [ 41.2585, -1.959 ], [ 41.2593, -1.9643 ], [ 41.2579, -1.9662 ], [ 41.2529, -1.9671 ], [ 41.2426, -1.964 ], [ 41.241, -1.9679 ], [ 41.2365, -1.9693 ], [ 41.2357, -1.9621 ], [ 41.2343, -1.9612 ], [ 41.2321, -1.9637 ], [ 41.2337, -1.9685 ], [ 41.2329, -1.9712 ], [ 41.2321, -1.9732 ], [ 41.2301, -1.9721 ], [ 41.2243, -1.9507 ], [ 41.2257, -1.9474 ], [ 41.2243, -1.9451 ], [ 41.226, -1.9432 ], [ 41.2357, -1.9401 ], [ 41.2263, -1.9404 ], [ 41.2271, -1.9346 ], [ 41.2254, -1.9396 ], [ 41.2232, -1.9396 ], [ 41.2218, -1.9265 ], [ 41.2201, -1.9251 ], [ 41.2215, -1.9165 ], [ 41.2193, -1.9149 ], [ 41.2207, -1.9168 ], [ 41.219, -1.9221 ], [ 41.2185, -1.9351 ], [ 41.2199, -1.9426 ], [ 41.2154, -1.9529 ], [ 41.2132, -1.9535 ], [ 41.2118, -1.9501 ], [ 41.2054, -1.9454 ], [ 41.204, -1.9346 ], [ 41.2026, -1.9349 ], [ 41.2026, -1.9415 ], [ 41.1965, -1.9396 ], [ 41.1957, -1.9357 ], [ 41.1976, -1.936 ], [ 41.199, -1.9326 ], [ 41.1971, -1.9318 ], [ 41.196, -1.9337 ], [ 41.196, -1.9296 ], [ 41.1943, -1.9271 ], [ 41.1924, -1.9276 ], [ 41.1946, -1.9296 ], [ 41.1951, -1.9329 ], [ 41.1913, -1.9374 ], [ 41.1943, -1.9349 ], [ 41.1946, -1.9393 ], [ 41.1882, -1.9379 ], [ 41.1829, -1.9324 ], [ 41.1796, -1.9326 ], [ 41.176, -1.9351 ], [ 41.1718, -1.9457 ], [ 41.1674, -1.9488 ], [ 41.1729, -1.9474 ], [ 41.179, -1.9354 ], [ 41.1932, -1.9415 ], [ 41.2001, -1.9474 ], [ 41.201, -1.9507 ], [ 41.191, -1.9501 ], [ 41.1882, -1.9565 ], [ 41.1899, -1.9571 ], [ 41.191, -1.9526 ], [ 41.1924, -1.9524 ], [ 41.199, -1.9551 ], [ 41.2032, -1.954 ], [ 41.2026, -1.9565 ], [ 41.1976, -1.9571 ], [ 41.199, -1.9624 ], [ 41.1957, -1.9687 ], [ 41.189, -1.9668 ], [ 41.1901, -1.9687 ], [ 41.1968, -1.9712 ], [ 41.1932, -1.9874 ], [ 41.1868, -1.9846 ], [ 41.1832, -1.979 ], [ 41.1804, -1.9785 ], [ 41.1751, -1.9812 ], [ 41.1718, -1.9799 ], [ 41.1735, -1.9821 ], [ 41.1832, -1.981 ], [ 41.1846, -1.9829 ], [ 41.1824, -1.9865 ], [ 41.1899, -1.9904 ], [ 41.1918, -1.9962 ], [ 41.1851, -1.9974 ], [ 41.1779, -2.0029 ], [ 41.1726, -2.0029 ], [ 41.1721, -2.0043 ], [ 41.1632, -2.0015 ], [ 41.1626, -1.9993 ], [ 41.1596, -2.0021 ], [ 41.1579, -1.9951 ], [ 41.1529, -1.9982 ], [ 41.1524, -1.9946 ], [ 41.1493, -1.9921 ], [ 41.1451, -1.9943 ], [ 41.1446, -1.9904 ], [ 41.1435, -1.996 ], [ 41.1449, -1.9971 ], [ 41.1435, -1.9982 ], [ 41.141, -1.9982 ], [ 41.1376, -1.9949 ], [ 41.1335, -1.9951 ], [ 41.1321, -1.9926 ], [ 41.1301, -1.9929 ], [ 41.1285, -1.9976 ], [ 41.1257, -1.9979 ], [ 41.1237, -1.9954 ], [ 41.129, -1.9924 ], [ 41.1293, -1.9882 ], [ 41.1276, -1.9882 ], [ 41.1271, -1.9915 ], [ 41.1257, -1.9924 ], [ 41.1246, -1.9851 ], [ 41.1276, -1.9799 ], [ 41.1251, -1.9801 ], [ 41.1176, -1.991 ], [ 41.1162, -1.9876 ], [ 41.1132, -1.986 ], [ 41.114, -1.9896 ], [ 41.1121, -1.9918 ], [ 41.1096, -1.9935 ], [ 41.1051, -1.9932 ], [ 41.106, -1.9993 ], [ 41.1037, -2.0021 ], [ 41.101, -1.9988 ], [ 41.1004, -1.9924 ], [ 41.099, -1.9904 ], [ 41.0962, -1.9904 ], [ 41.0954, -1.9915 ], [ 41.099, -1.9949 ], [ 41.1004, -2.0024 ], [ 41.0996, -2.0057 ], [ 41.0982, -2.0021 ], [ 41.0962, -2.0013 ], [ 41.0957, -2.004 ], [ 41.0901, -2.0085 ], [ 41.0879, -2.009 ], [ 41.0885, -2.0065 ], [ 41.0874, -2.0065 ], [ 41.0835, -2.0137 ], [ 41.0801, -2.0129 ], [ 41.0768, -2.0079 ], [ 41.0774, -1.9982 ], [ 41.076, -1.9974 ], [ 41.0754, -2.0085 ], [ 41.0782, -2.0126 ], [ 41.0782, -2.0182 ], [ 41.0704, -2.019 ], [ 41.0665, -2.0235 ], [ 41.0638, -2.0224 ], [ 41.0643, -2.0243 ], [ 41.061, -2.0265 ], [ 41.0576, -2.026 ], [ 41.0582, -2.0279 ], [ 41.0549, -2.0288 ], [ 41.0526, -2.0321 ], [ 41.0449, -2.0329 ], [ 41.0388, -2.0401 ], [ 41.039, -2.0454 ], [ 41.0357, -2.049 ], [ 41.0343, -2.0538 ], [ 41.0321, -2.051 ], [ 41.0293, -2.0507 ], [ 41.0254, -2.054 ], [ 41.0124, -2.056 ], [ 41.0051, -2.0512 ], [ 40.9996, -2.0504 ], [ 40.9971, -2.0482 ], [ 40.9974, -2.0451 ], [ 40.9899, -2.0415 ], [ 40.9874, -2.0313 ], [ 40.9821, -2.0263 ], [ 40.979, -2.0199 ], [ 40.979, -2.0129 ], [ 40.9813, -2.0126 ], [ 40.9821, -2.0082 ], [ 40.9821, -1.9996 ], [ 40.9915, -1.9799 ], [ 40.9907, -1.9624 ], [ 40.9863, -1.9571 ], [ 40.9857, -1.9482 ], [ 40.9865, -1.9465 ], [ 40.9912, -1.9451 ], [ 41.0007, -1.9349 ], [ 41.0062, -1.9196 ], [ 41.0129, -1.9129 ], [ 41.0137, -1.909 ], [ 41.0174, -1.909 ], [ 41.0129, -1.9082 ], [ 41.0104, -1.9101 ], [ 41.0099, -1.9082 ], [ 41.0079, -1.9126 ], [ 41.0071, -1.9112 ], [ 41.0054, -1.9118 ], [ 41.0032, -1.9082 ], [ 40.9979, -1.9143 ], [ 40.9957, -1.9215 ], [ 40.9904, -1.9301 ], [ 40.9813, -1.9329 ], [ 40.9735, -1.939 ], [ 40.9712, -1.9465 ], [ 40.9712, -1.9554 ], [ 40.9751, -1.9637 ], [ 40.9754, -1.9687 ], [ 40.9715, -1.9721 ], [ 40.9699, -1.9793 ], [ 40.9751, -1.9871 ], [ 40.9751, -1.9893 ], [ 40.9732, -1.9926 ], [ 40.9685, -1.9951 ], [ 40.9676, -1.9993 ], [ 40.9696, -2.0018 ], [ 40.969, -2.0057 ], [ 40.9599, -2.0171 ], [ 40.9613, -2.0268 ], [ 40.964, -2.0276 ], [ 40.9721, -2.0432 ], [ 40.9807, -2.0521 ], [ 40.9807, -2.0662 ], [ 40.979, -2.0687 ], [ 40.9718, -2.0718 ], [ 40.9701, -2.0732 ], [ 40.9707, -2.0751 ], [ 40.9654, -2.0787 ], [ 40.9471, -2.0849 ], [ 40.9368, -2.0813 ], [ 40.9335, -2.0779 ], [ 40.9332, -2.074 ], [ 40.936, -2.0704 ], [ 40.939, -2.0593 ], [ 40.9307, -2.0476 ], [ 40.9238, -2.0418 ], [ 40.9188, -2.0335 ], [ 40.9171, -2.0149 ], [ 40.9196, -2.0043 ], [ 40.9215, -2.0029 ], [ 40.921, -1.9988 ], [ 40.914, -1.9943 ], [ 40.9063, -1.9926 ], [ 40.8926, -1.9954 ], [ 40.8874, -1.9946 ], [ 40.8818, -1.9915 ], [ 40.8788, -1.9921 ], [ 40.8801, -1.9907 ], [ 40.8757, -1.9874 ], [ 40.8685, -1.9774 ], [ 40.8629, -1.9735 ], [ 40.8607, -1.9732 ], [ 40.8604, -1.9754 ], [ 40.8635, -1.9774 ], [ 40.8501, -1.9732 ], [ 40.8496, -1.9715 ], [ 40.8482, -1.9732 ], [ 40.8449, -1.9721 ], [ 40.8415, -1.9732 ], [ 40.829, -1.9701 ], [ 40.8168, -1.9626 ], [ 40.8129, -1.9615 ], [ 40.8101, -1.9629 ], [ 40.809, -1.9601 ], [ 40.8101, -1.9571 ], [ 40.8076, -1.9574 ], [ 40.8071, -1.9621 ], [ 40.8179, -1.9679 ], [ 40.8235, -1.9732 ], [ 40.8276, -1.9732 ], [ 40.8346, -1.9763 ], [ 40.8329, -1.9768 ], [ 40.8338, -1.9776 ], [ 40.846, -1.9807 ], [ 40.8462, -1.9815 ], [ 40.8565, -1.989 ], [ 40.8624, -1.9912 ], [ 40.8682, -1.9979 ], [ 40.8746, -1.9996 ], [ 40.8843, -2.0051 ], [ 40.8882, -2.0054 ], [ 40.8899, -2.0085 ], [ 40.8915, -2.0082 ], [ 40.891, -2.0143 ], [ 40.8863, -2.0151 ], [ 40.8821, -2.0126 ], [ 40.8788, -2.0065 ], [ 40.8815, -2.0146 ], [ 40.8865, -2.0168 ], [ 40.891, -2.0162 ], [ 40.8929, -2.0143 ], [ 40.8946, -2.0068 ], [ 40.8982, -2.0046 ], [ 40.9021, -2.006 ], [ 40.906, -2.0101 ], [ 40.9068, -2.0187 ], [ 40.9043, -2.0426 ], [ 40.9057, -2.0501 ], [ 40.909, -2.054 ], [ 40.9068, -2.0599 ], [ 40.9126, -2.0604 ], [ 40.9132, -2.0657 ], [ 40.9071, -2.0668 ], [ 40.8974, -2.0651 ], [ 40.8974, -2.056 ], [ 40.9012, -2.051 ], [ 40.899, -2.0479 ], [ 40.8971, -2.0479 ], [ 40.8954, -2.0496 ], [ 40.8985, -2.0485 ], [ 40.9001, -2.0512 ], [ 40.8974, -2.0538 ], [ 40.8949, -2.0624 ], [ 40.8951, -2.0657 ], [ 40.8985, -2.0682 ], [ 40.8971, -2.0696 ], [ 40.8937, -2.0682 ], [ 40.8924, -2.0687 ], [ 40.8954, -2.0712 ], [ 40.9018, -2.0685 ], [ 40.9074, -2.0699 ], [ 40.9113, -2.0846 ], [ 40.9165, -2.0937 ], [ 40.9162, -2.1021 ], [ 40.9185, -2.1063 ], [ 40.9168, -2.1171 ], [ 40.9185, -2.124 ], [ 40.9168, -2.1246 ], [ 40.9162, -2.1287 ], [ 40.9176, -2.1332 ], [ 40.9212, -2.1349 ], [ 40.9204, -2.1565 ], [ 40.9221, -2.1729 ], [ 40.9201, -2.1835 ], [ 40.9212, -2.1868 ], [ 40.9204, -2.1924 ], [ 40.9226, -2.2004 ], [ 40.9215, -2.2107 ], [ 40.9268, -2.219 ], [ 40.9315, -2.2207 ], [ 40.9368, -2.2199 ], [ 40.934, -2.2276 ], [ 40.9301, -2.2296 ], [ 40.9349, -2.2293 ], [ 40.9368, -2.2343 ], [ 40.9429, -2.2404 ], [ 40.9424, -2.2371 ], [ 40.9374, -2.2312 ], [ 40.9382, -2.2254 ], [ 40.941, -2.2215 ], [ 40.9454, -2.2204 ], [ 40.9482, -2.2237 ], [ 40.954, -2.2257 ], [ 40.9579, -2.2232 ], [ 40.9632, -2.2235 ], [ 40.9618, -2.2282 ], [ 40.969, -2.2368 ], [ 40.9707, -2.236 ], [ 40.9699, -2.234 ], [ 40.9654, -2.2304 ], [ 40.9665, -2.2235 ], [ 40.9701, -2.2232 ], [ 40.976, -2.2262 ], [ 40.9774, -2.2282 ], [ 40.976, -2.2374 ], [ 40.9813, -2.2432 ], [ 40.9837, -2.249 ], [ 40.9868, -2.2507 ], [ 40.9865, -2.2593 ], [ 40.9904, -2.2621 ], [ 40.9879, -2.2632 ], [ 40.9876, -2.2651 ], [ 40.9801, -2.2726 ], [ 40.9771, -2.2738 ], [ 40.976, -2.2776 ], [ 40.9704, -2.2818 ], [ 40.9696, -2.2907 ], [ 40.9604, -2.3004 ], [ 40.9604, -2.3065 ], [ 40.9554, -2.3126 ], [ 40.9465, -2.319 ], [ 40.9249, -2.3232 ], [ 40.9149, -2.3174 ], [ 40.9129, -2.314 ], [ 40.9129, -2.3104 ], [ 40.9154, -2.3065 ], [ 40.921, -2.3026 ], [ 40.924, -2.2918 ], [ 40.9229, -2.2887 ], [ 40.9385, -2.2901 ], [ 40.9429, -2.2851 ], [ 40.9476, -2.2868 ], [ 40.9507, -2.2904 ], [ 40.9518, -2.2885 ], [ 40.9454, -2.2835 ], [ 40.9399, -2.2846 ], [ 40.9351, -2.2885 ], [ 40.9274, -2.2854 ], [ 40.9265, -2.2815 ], [ 40.9207, -2.2726 ], [ 40.9146, -2.2676 ], [ 40.9071, -2.2574 ], [ 40.9035, -2.2424 ], [ 40.9001, -2.236 ], [ 40.9026, -2.226 ], [ 40.9087, -2.2196 ], [ 40.9049, -2.2204 ], [ 40.9021, -2.2251 ], [ 40.8963, -2.219 ], [ 40.8855, -2.2156 ], [ 40.889, -2.2185 ], [ 40.8846, -2.2213 ], [ 40.8887, -2.2207 ], [ 40.8896, -2.2221 ], [ 40.8857, -2.2287 ], [ 40.8913, -2.2401 ], [ 40.891, -2.2426 ], [ 40.871, -2.2421 ], [ 40.8649, -2.244 ], [ 40.8565, -2.2499 ], [ 40.8479, -2.2524 ], [ 40.841, -2.2582 ], [ 40.8357, -2.2671 ], [ 40.8265, -2.2718 ], [ 40.8221, -2.2707 ], [ 40.8232, -2.2735 ], [ 40.819, -2.2779 ], [ 40.8143, -2.2762 ], [ 40.8163, -2.2804 ], [ 40.8093, -2.2899 ], [ 40.8054, -2.2912 ], [ 40.7976, -2.2824 ], [ 40.7982, -2.2754 ], [ 40.8032, -2.2685 ], [ 40.8104, -2.264 ], [ 40.8132, -2.2574 ], [ 40.8132, -2.2518 ], [ 40.821, -2.2465 ], [ 40.8126, -2.2504 ], [ 40.8088, -2.2485 ], [ 40.8093, -2.2518 ], [ 40.8115, -2.2537 ], [ 40.8112, -2.2576 ], [ 40.8043, -2.2657 ], [ 40.7974, -2.269 ], [ 40.7932, -2.2804 ], [ 40.7949, -2.2857 ], [ 40.8021, -2.2937 ], [ 40.806, -2.304 ], [ 40.809, -2.3046 ], [ 40.8085, -2.3104 ], [ 40.8063, -2.3101 ], [ 40.804, -2.3062 ], [ 40.7993, -2.3035 ], [ 40.7762, -2.2996 ], [ 40.7751, -2.2901 ], [ 40.7765, -2.2854 ], [ 40.7818, -2.2793 ], [ 40.7846, -2.2685 ], [ 40.7818, -2.2635 ], [ 40.7749, -2.259 ], [ 40.7685, -2.261 ], [ 40.7663, -2.2593 ], [ 40.7671, -2.2626 ], [ 40.7629, -2.2643 ], [ 40.7596, -2.2604 ], [ 40.7507, -2.2576 ], [ 40.7465, -2.2515 ], [ 40.7507, -2.2587 ], [ 40.7604, -2.2632 ], [ 40.761, -2.2649 ], [ 40.7593, -2.2654 ], [ 40.7613, -2.2671 ], [ 40.7713, -2.2632 ], [ 40.7749, -2.2635 ], [ 40.7785, -2.2665 ], [ 40.7762, -2.2721 ], [ 40.7718, -2.2771 ], [ 40.7715, -2.281 ], [ 40.7696, -2.2821 ], [ 40.7713, -2.2982 ], [ 40.7632, -2.2974 ], [ 40.7613, -2.2882 ], [ 40.7604, -2.2949 ], [ 40.7626, -2.2985 ], [ 40.776, -2.3035 ], [ 40.7854, -2.3121 ], [ 40.796, -2.3149 ], [ 40.7988, -2.3171 ], [ 40.8007, -2.3193 ], [ 40.8007, -2.3226 ], [ 40.7974, -2.3229 ], [ 40.7993, -2.3246 ], [ 40.7979, -2.329 ], [ 40.7901, -2.3332 ], [ 40.7796, -2.3296 ], [ 40.7687, -2.3171 ], [ 40.769, -2.3196 ], [ 40.7635, -2.3171 ], [ 40.7613, -2.3137 ], [ 40.7568, -2.3137 ], [ 40.7513, -2.3068 ], [ 40.741, -2.2993 ], [ 40.7282, -2.2957 ], [ 40.7235, -2.2968 ], [ 40.7246, -2.2982 ], [ 40.7346, -2.299 ], [ 40.7435, -2.3032 ], [ 40.751, -2.3118 ], [ 40.7515, -2.3143 ], [ 40.7713, -2.326 ], [ 40.7735, -2.331 ], [ 40.7776, -2.3332 ], [ 40.7754, -2.3374 ], [ 40.7776, -2.3518 ], [ 40.7813, -2.3574 ], [ 40.7829, -2.3579 ], [ 40.7779, -2.3488 ], [ 40.7768, -2.3401 ], [ 40.7788, -2.3351 ], [ 40.786, -2.3365 ] ] ], [ [ [ 41.1351, -2.0407 ], [ 41.1393, -2.0415 ], [ 41.1479, -2.0465 ], [ 41.1501, -2.0512 ], [ 41.1476, -2.0518 ], [ 41.1332, -2.0474 ], [ 41.1282, -2.0435 ], [ 41.1351, -2.0407 ] ] ], [ [ [ 41.1582, -2.0085 ], [ 41.154, -2.0074 ], [ 41.1543, -2.0057 ], [ 41.1579, -2.0049 ], [ 41.1601, -2.006 ], [ 41.1582, -2.0085 ] ] ], [ [ [ 40.9057, -2.0035 ], [ 40.9068, -2.0043 ], [ 40.906, -2.0057 ], [ 40.9043, -2.0051 ], [ 40.9057, -2.0035 ] ] ], [ [ [ 41.164, -2.0057 ], [ 41.1632, -2.004 ], [ 41.164, -2.0024 ], [ 41.1674, -2.0032 ], [ 41.1665, -2.0057 ], [ 41.164, -2.0057 ] ] ], [ [ [ 41.1501, -2.0021 ], [ 41.1504, -2.004 ], [ 41.1499, -2.0046 ], [ 41.1479, -2.006 ], [ 41.1501, -2.0021 ] ] ], [ [ [ 41.1357, -2.0013 ], [ 41.134, -2.0024 ], [ 41.131, -1.9996 ], [ 41.1332, -1.9962 ], [ 41.1351, -1.9968 ], [ 41.1357, -2.0013 ] ] ], [ [ [ 41.1165, -2.0004 ], [ 41.1143, -2.0013 ], [ 41.114, -1.9979 ], [ 41.116, -1.9962 ], [ 41.1171, -1.9976 ], [ 41.1165, -2.0004 ] ] ], [ [ [ 40.8685, -1.9968 ], [ 40.8693, -1.9937 ], [ 40.876, -1.9899 ], [ 40.8768, -1.9907 ], [ 40.8754, -1.994 ], [ 40.8685, -1.9968 ] ] ], [ [ [ 40.8579, -1.9826 ], [ 40.856, -1.9824 ], [ 40.8549, -1.984 ], [ 40.8518, -1.9835 ], [ 40.8565, -1.9793 ], [ 40.8576, -1.9812 ], [ 40.8579, -1.9826 ] ] ], [ [ [ 40.856, -1.9763 ], [ 40.8537, -1.979 ], [ 40.8462, -1.981 ], [ 40.8474, -1.9782 ], [ 40.8493, -1.9776 ], [ 40.8488, -1.9763 ], [ 40.856, -1.9763 ] ] ], [ [ [ 40.8413, -1.9774 ], [ 40.844, -1.9746 ], [ 40.8454, -1.9754 ], [ 40.8438, -1.9776 ], [ 40.8413, -1.9774 ] ] ], [ [ [ 40.8426, -1.9746 ], [ 40.8426, -1.9749 ], [ 40.839, -1.9751 ], [ 40.8393, -1.9743 ], [ 40.8426, -1.9746 ] ] ], [ [ [ 40.8196, -1.9657 ], [ 40.8196, -1.9668 ], [ 40.8193, -1.969 ], [ 40.8168, -1.966 ], [ 40.8196, -1.9657 ] ] ], [ [ [ 40.9815, -1.9432 ], [ 40.9824, -1.9446 ], [ 40.981, -1.9457 ], [ 40.9793, -1.9451 ], [ 40.9815, -1.9432 ] ] ], [ [ [ 41.2446, -2.0235 ], [ 41.2449, -2.0196 ], [ 41.249, -2.0146 ], [ 41.2485, -2.0126 ], [ 41.2504, -2.0104 ], [ 41.2549, -2.0115 ], [ 41.2546, -2.014 ], [ 41.2518, -2.0149 ], [ 41.2521, -2.0215 ], [ 41.249, -2.026 ], [ 41.2465, -2.0263 ], [ 41.2446, -2.0235 ] ] ], [ [ [ 41.1968, -2.016 ], [ 41.1976, -2.0176 ], [ 41.1963, -2.0193 ], [ 41.1957, -2.0162 ], [ 41.1968, -2.016 ] ] ], [ [ [ 41.2582, -2.0215 ], [ 41.2576, -2.0154 ], [ 41.2588, -2.0137 ], [ 41.2601, -2.0149 ], [ 41.261, -2.0165 ], [ 41.2582, -2.0215 ] ] ], [ [ [ 41.181, -2.029 ], [ 41.1776, -2.0271 ], [ 41.1763, -2.029 ], [ 41.1688, -2.0293 ], [ 41.1587, -2.0254 ], [ 41.1437, -2.024 ], [ 41.1404, -2.021 ], [ 41.1407, -2.0162 ], [ 41.1479, -2.0135 ], [ 41.146, -2.0104 ], [ 41.1604, -2.0124 ], [ 41.1715, -2.0085 ], [ 41.1732, -2.0143 ], [ 41.174, -2.0096 ], [ 41.1768, -2.0076 ], [ 41.1821, -2.0093 ], [ 41.179, -2.0082 ], [ 41.1793, -2.0068 ], [ 41.1901, -2.0024 ], [ 41.1943, -2.0032 ], [ 41.1949, -2.0132 ], [ 41.1893, -2.0199 ], [ 41.1885, -2.0296 ], [ 41.1871, -2.0313 ], [ 41.1854, -2.0288 ], [ 41.181, -2.029 ] ] ], [ [ [ 41.2115, -2.0274 ], [ 41.2018, -2.0276 ], [ 41.1988, -2.0265 ], [ 41.1965, -2.0232 ], [ 41.1963, -2.0204 ], [ 41.1988, -2.0179 ], [ 41.1985, -2.0149 ], [ 41.2004, -2.0132 ], [ 41.1974, -2.0013 ], [ 41.2046, -2.0013 ], [ 41.2051, -2.0049 ], [ 41.2113, -2.009 ], [ 41.2118, -2.0124 ], [ 41.214, -2.0126 ], [ 41.216, -2.016 ], [ 41.2149, -2.0237 ], [ 41.2115, -2.0274 ] ] ], [ [ [ 41.2574, -1.9854 ], [ 41.2568, -1.9876 ], [ 41.2599, -1.9882 ], [ 41.2621, -1.9843 ], [ 41.2657, -1.9882 ], [ 41.2562, -1.9935 ], [ 41.2607, -1.9937 ], [ 41.2615, -1.9921 ], [ 41.2635, -1.9929 ], [ 41.2643, -1.9912 ], [ 41.2668, -1.991 ], [ 41.2743, -1.9976 ], [ 41.2788, -1.9974 ], [ 41.2824, -1.9943 ], [ 41.2868, -1.9865 ], [ 41.3043, -1.9685 ], [ 41.3071, -1.9685 ], [ 41.3076, -1.9718 ], [ 41.2976, -1.9835 ], [ 41.2935, -1.9854 ], [ 41.2774, -2.0085 ], [ 41.2679, -2.0165 ], [ 41.2596, -2.0276 ], [ 41.2579, -2.0335 ], [ 41.2565, -2.034 ], [ 41.2551, -2.0321 ], [ 41.2368, -2.0471 ], [ 41.259, -2.0246 ], [ 41.2624, -2.016 ], [ 41.2676, -2.0093 ], [ 41.2687, -2.0026 ], [ 41.2518, -1.9965 ], [ 41.2471, -1.9887 ], [ 41.2485, -1.9835 ], [ 41.2474, -1.974 ], [ 41.2493, -1.9746 ], [ 41.2496, -1.9712 ], [ 41.2626, -1.9637 ], [ 41.2671, -1.9646 ], [ 41.2732, -1.9763 ], [ 41.2682, -1.9874 ], [ 41.2618, -1.9796 ], [ 41.2596, -1.9801 ], [ 41.2618, -1.9829 ], [ 41.2596, -1.9857 ], [ 41.2574, -1.9854 ] ] ], [ [ [ 41.2212, -1.9896 ], [ 41.2229, -1.9921 ], [ 41.2215, -1.996 ], [ 41.2132, -1.9957 ], [ 41.2137, -1.9901 ], [ 41.219, -1.9885 ], [ 41.2212, -1.9896 ] ] ], [ [ [ 41.2701, -1.9874 ], [ 41.2732, -1.9826 ], [ 41.2751, -1.9824 ], [ 41.276, -1.9871 ], [ 41.276, -1.9899 ], [ 41.281, -1.9918 ], [ 41.279, -1.9954 ], [ 41.2746, -1.9954 ], [ 41.2704, -1.9918 ], [ 41.2701, -1.9874 ] ] ], [ [ [ 41.1963, -1.9818 ], [ 41.1976, -1.9829 ], [ 41.2018, -1.9854 ], [ 41.2021, -1.9876 ], [ 41.2021, -1.9893 ], [ 41.1979, -1.9926 ], [ 41.1954, -1.9907 ], [ 41.1963, -1.9818 ] ] ], [ [ [ 41.1862, -1.9871 ], [ 41.1843, -1.9871 ], [ 41.1849, -1.9851 ], [ 41.1862, -1.9857 ], [ 41.1862, -1.9871 ] ] ], [ [ [ 41.2135, -1.9807 ], [ 41.2168, -1.9821 ], [ 41.2188, -1.9835 ], [ 41.2154, -1.9835 ], [ 41.2135, -1.9807 ] ] ], [ [ [ 41.244, -1.9715 ], [ 41.2451, -1.9718 ], [ 41.2446, -1.9763 ], [ 41.2426, -1.9749 ], [ 41.244, -1.9715 ] ] ], [ [ [ 41.2099, -1.9599 ], [ 41.2085, -1.9637 ], [ 41.2099, -1.9643 ], [ 41.2099, -1.969 ], [ 41.2079, -1.9712 ], [ 41.2049, -1.9657 ], [ 41.2065, -1.9585 ], [ 41.2099, -1.9599 ] ] ], [ [ [ 41.181, -1.9332 ], [ 41.1835, -1.934 ], [ 41.1838, -1.9365 ], [ 41.1796, -1.9349 ], [ 41.181, -1.9332 ] ] ], [ [ [ 41.3662, -1.911 ], [ 41.3651, -1.9107 ], [ 41.3676, -1.9076 ], [ 41.3693, -1.9079 ], [ 41.3688, -1.909 ], [ 41.3662, -1.911 ] ] ], [ [ [ 41.3726, -1.8996 ], [ 41.3724, -1.9015 ], [ 41.3721, -1.9029 ], [ 41.3707, -1.9035 ], [ 41.3726, -1.8996 ] ] ], [ [ [ 41.381, -1.899 ], [ 41.3807, -1.9004 ], [ 41.3788, -1.9029 ], [ 41.3779, -1.9026 ], [ 41.381, -1.899 ] ] ], [ [ [ 41.3876, -1.8851 ], [ 41.3857, -1.8846 ], [ 41.3865, -1.8824 ], [ 41.3901, -1.881 ], [ 41.3893, -1.8835 ], [ 41.3876, -1.8851 ] ] ], [ [ [ 41.4399, -1.8401 ], [ 41.4388, -1.8393 ], [ 41.4407, -1.8357 ], [ 41.4418, -1.836 ], [ 41.4412, -1.8379 ], [ 41.4399, -1.8401 ] ] ], [ [ [ 41.4365, -1.8374 ], [ 41.4379, -1.8351 ], [ 41.4396, -1.8368 ], [ 41.439, -1.8374 ], [ 41.4365, -1.8374 ] ] ], [ [ [ 41.4285, -1.8365 ], [ 41.4263, -1.8393 ], [ 41.4246, -1.8371 ], [ 41.426, -1.8329 ], [ 41.4271, -1.8332 ], [ 41.4265, -1.8351 ], [ 41.4285, -1.8365 ] ] ], [ [ [ 41.4412, -1.8351 ], [ 41.4426, -1.8326 ], [ 41.4449, -1.8324 ], [ 41.4446, -1.8335 ], [ 41.4432, -1.8335 ], [ 41.4412, -1.8351 ] ] ], [ [ [ 41.4343, -1.8276 ], [ 41.4313, -1.8326 ], [ 41.4301, -1.8321 ], [ 41.4307, -1.8257 ], [ 41.4335, -1.826 ], [ 41.4343, -1.8276 ] ] ], [ [ [ 41.4368, -1.829 ], [ 41.4368, -1.8246 ], [ 41.4401, -1.8232 ], [ 41.4396, -1.8249 ], [ 41.4376, -1.8265 ], [ 41.4368, -1.829 ] ] ], [ [ [ 41.4546, -1.8193 ], [ 41.4551, -1.8215 ], [ 41.4546, -1.8226 ], [ 41.4524, -1.8235 ], [ 41.4546, -1.8193 ] ] ], [ [ [ 41.4551, -1.819 ], [ 41.4551, -1.8171 ], [ 41.4568, -1.8165 ], [ 41.4565, -1.8182 ], [ 41.4551, -1.819 ] ] ], [ [ [ 41.4776, -1.8032 ], [ 41.4776, -1.806 ], [ 41.4751, -1.8076 ], [ 41.4757, -1.8062 ], [ 41.4757, -1.8043 ], [ 41.4776, -1.8032 ] ] ], [ [ [ 41.4946, -1.7613 ], [ 41.5018, -1.7596 ], [ 41.5065, -1.756 ], [ 41.5068, -1.7537 ], [ 41.5093, -1.754 ], [ 41.5113, -1.7512 ], [ 41.5121, -1.7521 ], [ 41.504, -1.7599 ], [ 41.4979, -1.7704 ], [ 41.4946, -1.7726 ], [ 41.4943, -1.771 ], [ 41.4915, -1.771 ], [ 41.4912, -1.7651 ], [ 41.4946, -1.7613 ] ] ] ] } }
]
}
