{
"type": "FeatureCollection",
"name": "rift_valley_highlands_boundary",
"crs": { "type": "name", "properties": { "name": "urn:ogc:def:crs:OGC:1.3:CRS84" } },
"features": [
{ "type": "Feature", "properties": { "GID_1": "KEN.1_1", "GID_0": "KEN", "COUNTRY": "Kenya", "NAME_1": "Baringo", "VARNAME_1": "NA", "NL_NAME_1": "NA", "TYPE_1": "County", "ENGTYPE_1": "County", "CC_1": "30", "HASC_1": "KE.BA", "ISO_1": "KE-01" }, "geometry": { "type": "Polygon", "coordinates": [ [ [ 35.0136, -0.881 ], [ 35.012, -0.8755 ], [ 35.0179, -0.867 ], [ 35.0204, -0.8654 ], [ 35.0239, -0.8702 ], [ 35.0254, -0.8688 ], [ 35.0255, -0.8567 ], [ 35.0215, -0.8458 ], [ 35.0219, -0.8425 ], [ 35.0319, -0.8406 ], [ 35.0444, -0.8485 ], [ 35.0913, -0.7969 ], [ 35.0477, -0.7021 ], [ 35.0502, -0.6966 ], [ 35.0603, -0.6906 ], [ 35.0676, -0.6903 ], [ 35.0724, -0.6871 ], [ 35.0693, -0.6783 ], [ 35.0668, -0.6773 ], [ 35.0623, -0.6708 ], [ 35.0632, -0.6659 ], [ 35.0572, -0.6592 ], [ 35.055, -0.6515 ], [ 35.0569, -0.6432 ], [ 35.0554, -0.6395 ], [ 35.059, -0.6312 ], [ 35.0641, -0.6267 ], [ 35.0641, -0.6237 ], [ 35.0592, -0.6166 ], [ 35.0571, -0.6143 ], [ 35.0572, -0.6092 ], [ 35.0604, -0.607 ], [ 35.0625, -0.6022 ], [ 35.0619, -0.5976 ], [ 35.0566, -0.5914 ], [ 35.0548, -0.5849 ], [ 35.0509, -0.5793 ], [ 35.0498, -0.5673 ], [ 35.0474, -0.5661 ], [ 35.0508, -0.5598 ], [ 35.0497, -0.5504 ], [ 35.0513, -0.5482 ], [ 35.0496, -0.5411 ], [ 35.0528, -0.5397 ], [ 35.0491, -0.5325 ], [ 35.053, -0.53 ], [ 35.0517, -0.5231 ], [ 35.048, -0.5195 ], [ 35.0479, -0.5166 ], [ 35.0506, -0.5131 ], [ 35.0522, -0.5136 ], [ 35.0529, -0.5069 ], [ 35.0571, -0.502 ], [ 35.0541, -0.4994 ], [ 35.0554, -0.4982 ], [ 35.0497, -0.4924 ], [ 35.0471, -0.4944 ], [ 35.0425, -0.4943 ], [ 35.0371, -0.4921 ], [ 35.034, -0.4933 ], [ 35.0327, -0.4913 ], [ 35.0343, -0.4841 ], [ 35.0336, -0.4788 ], [ 35.0394, -0.4787 ], [ 35.041, -0.4737 ], [ 35.0421, -0.4511 ], [ 35.0461, -0.449 ], [ 35.0443, -0.4449 ], [ 35.0451, -0.44 ], [ 35.0384, -0.4321 ], [ 35.0388, -0.425 ], [ 35.0328, -0.4148 ], [ 35.0301, -0.4142 ], [ 35.0269, -0.4088 ], [ 35.0198, -0.4076 ], [ 35.0215, -0.3995 ], [ 35.0176, -0.3964 ], [ 35.0178, -0.3913 ], [ 35.0102, -0.3851 ], [ 35.0084, -0.3727 ], [ 35.0068, -0.3701 ], [ 35.0062, -0.3567 ], [ 35.0043, -0.3507 ], [ 35.0059, -0.3485 ], [ 35.004, -0.3447 ], [ 35.0059, -0.3432 ], [ 35.0064, -0.3379 ], [ 35.0048, -0.3322 ], [ 35.0083, -0.3306 ], [ 35.0067, -0.33 ], [ 35.0073, -0.3265 ], [ 35.0245, -0.3175 ], [ 35.0469, -0.2966 ], [ 35.0503, -0.2914 ], [ 35.0522, -0.2709 ], [ 35.0552, -0.2629 ], [ 35.0573, -0.2313 ], [ 35.0634, -0.2115 ], [ 35.0719, -0.2032 ], [ 35.1033, -0.1957 ], [ 35.1274, -0.1505 ], [ 35.129, -0.1493 ], [ 35.1301, -0.1514 ], [ 35.1314, -0.1511 ], [ 35.1307, -0.1488 ], [ 35.134, -0.1497 ], [ 35.1382, -0.1572 ], [ 35.1401, -0.1567 ], [ 35.1397, -0.1554 ], [ 35.1466, -0.1562 ], [ 35.1537, -0.1582 ], [ 35.156, -0.1603 ], [ 35.1618, -0.1588 ], [ 35.164, -0.1562 ], [ 35.1657, -0.1574 ], [ 35.1675, -0.156 ], [ 35.1662, -0.1585 ], [ 35.1671, -0.1597 ], [ 35.1703, -0.1569 ], [ 35.1734, -0.1568 ], [ 35.184, -0.1597 ], [ 35.1865, -0.1568 ], [ 35.1846, -0.1549 ], [ 35.186, -0.1535 ], [ 35.1919, -0.1572 ], [ 35.1979, -0.1566 ], [ 35.2014, -0.1607 ], [ 35.2041, -0.1599 ], [ 35.2037, -0.1629 ], [ 35.2109, -0.1659 ], [ 35.2102, -0.1677 ], [ 35.2123, -0.1668 ], [ 35.2154, -0.169 ], [ 35.2156, -0.1745 ], [ 35.218, -0.1754 ], [ 35.219, -0.1804 ], [ 35.2176, -0.1815 ], [ 35.2202, -0.1869 ], [ 35.218, -0.1884 ], [ 35.2211, -0.1892 ], [ 35.2218, -0.188 ], [ 35.2266, -0.191 ], [ 35.2314, -0.1888 ], [ 35.236, -0.1911 ], [ 35.2368, -0.1955 ], [ 35.2408, -0.1941 ], [ 35.2443, -0.1987 ], [ 35.2461, -0.1966 ], [ 35.2491, -0.2025 ], [ 35.2473, -0.2047 ], [ 35.2493, -0.2056 ], [ 35.2487, -0.2078 ], [ 35.2508, -0.2067 ], [ 35.2506, -0.2086 ], [ 35.2532, -0.2102 ], [ 35.2541, -0.213 ], [ 35.2561, -0.2132 ], [ 35.2573, -0.2162 ], [ 35.2626, -0.2171 ], [ 35.2635, -0.2187 ], [ 35.2613, -0.2202 ], [ 35.2608, -0.2239 ], [ 35.2634, -0.2285 ], [ 35.2648, -0.2271 ], [ 35.2659, -0.2292 ], [ 35.2688, -0.2294 ], [ 35.2696, -0.2316 ], [ 35.2779, -0.2322 ], [ 35.2861, -0.2303 ], [ 35.2928, -0.2307 ], [ 35.2982, -0.2333 ], [ 35.2997, -0.2321 ], [ 35.3014, -0.235 ], [ 35.3063, -0.2342 ], [ 35.3131, -0.243 ], [ 35.3159, -0.2434 ], [ 35.342, -0.234 ], [ 35.343, -0.2317 ], [ 35.3394, -0.2151 ], [ 35.331, -0.1864 ], [ 35.3307, -0.1707 ], [ 35.2961, -0.1701 ], [ 35.2787, -0.1402 ], [ 35.2772, -0.1399 ], [ 35.2712, -0.1473 ], [ 35.2536, -0.1143 ], [ 35.2349, -0.1139 ], [ 35.2263, -0.1029 ], [ 35.2265, -0.0997 ], [ 35.2268, -0.0609 ], [ 35.2211, -0.0299 ], [ 35.2165, -0.0306 ], [ 35.2149, -0.0265 ], [ 35.2128, -0.0265 ], [ 35.2124, -0.025 ], [ 35.2102, -0.0258 ], [ 35.2065, -0.0218 ], [ 35.2026, -0.0229 ], [ 35.1997, -0.0201 ], [ 35.1952, -0.0209 ], [ 35.194, -0.0194 ], [ 35.192, -0.0198 ], [ 35.1917, -0.022 ], [ 35.188, -0.0227 ], [ 35.1828, -0.0231 ], [ 35.1811, -0.021 ], [ 35.1812, -0.023 ], [ 35.1794, -0.0239 ], [ 35.1774, -0.0212 ], [ 35.1667, -0.0248 ], [ 35.1666, -0.026 ], [ 35.1615, -0.0241 ], [ 35.1587, -0.0309 ], [ 35.1551, -0.0302 ], [ 35.1502, -0.0326 ], [ 35.1511, -0.0307 ], [ 35.1474, -0.0272 ], [ 35.146, -0.0278 ], [ 35.1024, 0.0019 ], [ 35.1005, -0.0013 ], [ 35.1013, -0.0055 ], [ 35.1029, -0.006 ], [ 35.1013, -0.0093 ], [ 35.1036, -0.0169 ], [ 35.1011, -0.0215 ], [ 35.0993, -0.0212 ], [ 35.0989, -0.023 ], [ 35.0958, -0.0239 ], [ 35.0926, -0.0385 ], [ 35.0897, -0.0389 ], [ 35.0867, -0.0434 ], [ 35.0836, -0.043 ], [ 35.0826, -0.0456 ], [ 35.0743, -0.0488 ], [ 35.0656, -0.0598 ], [ 35.0662, -0.0626 ], [ 35.0618, -0.0525 ], [ 35.0594, -0.0528 ], [ 35.0604, -0.0498 ], [ 35.0595, -0.0478 ], [ 35.0071, -0.0477 ], [ 35.0076, -0.0228 ], [ 34.9885, -0.0131 ], [ 34.9884, -0.0176 ], [ 34.9783, -0.0181 ], [ 34.9641, -0.0263 ], [ 34.9568, -0.0199 ], [ 34.9524, -0.0204 ], [ 34.9544, -0.0243 ], [ 34.934, -0.0297 ], [ 34.9233, -0.0302 ], [ 34.9195, -0.0269 ], [ 34.922, -0.0196 ], [ 34.909, -0.0222 ], [ 34.8912, -0.0188 ], [ 34.8276, -0.0218 ], [ 34.8081, -0.0156 ], [ 34.8062, -0.011 ], [ 34.8102, -0.0082 ], [ 34.81, -0.0059 ], [ 34.808, -0.005 ], [ 34.8101, -0.0 ], [ 34.8314, 0.0301 ], [ 34.819, 0.0275 ], [ 34.8165, 0.0224 ], [ 34.8095, 0.016 ], [ 34.804, 0.0151 ], [ 34.7862, -0.0011 ], [ 34.7808, -0.0125 ], [ 34.7755, -0.01 ], [ 34.7708, -0.0117 ], [ 34.7643, -0.0105 ], [ 34.7615, -0.0169 ], [ 34.758, -0.0194 ], [ 34.7522, -0.0287 ], [ 34.751, -0.0279 ], [ 34.7466, -0.0169 ], [ 34.7495, -0.016 ], [ 34.7497, -0.0146 ], [ 34.7482, -0.0114 ], [ 34.7449, -0.0123 ], [ 34.7444, -0.0052 ], [ 34.7395, 0.0037 ], [ 34.7411, 0.0093 ], [ 34.7474, 0.0092 ], [ 34.7475, 0.0112 ], [ 34.7513, 0.0119 ], [ 34.7543, 0.0151 ], [ 34.7598, 0.0145 ], [ 34.7597, 0.0084 ], [ 34.7628, 0.0034 ], [ 34.7667, 0.0062 ], [ 34.77, 0.0058 ], [ 34.7747, 0.0104 ], [ 34.7786, 0.0111 ], [ 34.7811, 0.0167 ], [ 34.7835, 0.0171 ], [ 34.7839, 0.0188 ], [ 34.7861, 0.0176 ], [ 34.7899, 0.022 ], [ 34.7897, 0.0239 ], [ 34.7984, 0.028 ], [ 34.7985, 0.03 ], [ 34.8043, 0.0264 ], [ 34.8089, 0.0276 ], [ 34.8102, 0.0286 ], [ 34.8085, 0.0317 ], [ 34.8093, 0.0334 ], [ 34.8206, 0.0392 ], [ 34.8287, 0.0349 ], [ 34.836, 0.0365 ], [ 34.838, 0.0394 ], [ 34.8396, 0.0511 ], [ 34.8495, 0.0651 ], [ 34.8468, 0.0688 ], [ 34.8486, 0.0745 ], [ 34.8532, 0.078 ], [ 34.8551, 0.0841 ], [ 34.8581, 0.0854 ], [ 34.8599, 0.0884 ], [ 34.8572, 0.0995 ], [ 34.8592, 0.1091 ], [ 34.8568, 0.1132 ], [ 34.8596, 0.1256 ], [ 34.8645, 0.1283 ], [ 34.8725, 0.1376 ], [ 34.882, 0.1425 ], [ 34.8829, 0.1481 ], [ 34.9011, 0.1578 ], [ 34.9141, 0.1603 ], [ 34.9206, 0.1739 ], [ 34.916, 0.1774 ], [ 34.9203, 0.1861 ], [ 34.929, 0.2136 ], [ 34.9432, 0.2131 ], [ 34.9565, 0.2458 ], [ 34.9785, 0.2459 ], [ 34.9773, 0.253 ], [ 34.9421, 0.3281 ], [ 34.9373, 0.362 ], [ 34.9371, 0.3648 ], [ 34.9487, 0.3583 ], [ 34.9553, 0.3759 ], [ 34.9566, 0.42 ], [ 34.9457, 0.4428 ], [ 34.9241, 0.4813 ], [ 34.9084, 0.4959 ], [ 34.907, 0.5097 ], [ 34.8883, 0.526 ], [ 34.8759, 0.5326 ], [ 34.8707, 0.5381 ], [ 34.8521, 0.5518 ], [ 34.8976, 0.6055 ], [ 34.8908, 0.6123 ], [ 34.8992, 0.6101 ], [ 34.9081, 0.6012 ], [ 34.9202, 0.5966 ], [ 34.9356, 0.6088 ], [ 34.9435, 0.6127 ], [ 34.953, 0.613 ], [ 34.9578, 0.6156 ], [ 34.9627, 0.6142 ], [ 34.9658, 0.6152 ], [ 34.9686, 0.6188 ], [ 34.9707, 0.6188 ], [ 34.9769, 0.6295 ], [ 34.9807, 0.6322 ], [ 34.9859, 0.6327 ], [ 34.9903, 0.6352 ], [ 34.9941, 0.6349 ], [ 35.0, 0.6432 ], [ 35.0272, 0.6184 ], [ 35.0313, 0.6214 ], [ 35.0351, 0.629 ], [ 35.0352, 0.6331 ], [ 35.041, 0.6371 ], [ 35.0393, 0.6453 ], [ 35.0527, 0.6408 ], [ 35.0538, 0.6369 ], [ 35.0611, 0.6364 ], [ 35.0613, 0.6381 ], [ 35.0629, 0.6382 ], [ 35.0685, 0.6367 ], [ 35.0697, 0.6339 ], [ 35.0834, 0.6358 ], [ 35.0863, 0.6343 ], [ 35.0918, 0.6399 ], [ 35.0963, 0.6417 ], [ 35.1033, 0.6517 ], [ 35.1067, 0.651 ], [ 35.113, 0.6464 ], [ 35.116, 0.6463 ], [ 35.1174, 0.6542 ], [ 35.1195, 0.654 ], [ 35.125, 0.6594 ], [ 35.1341, 0.6603 ], [ 35.1414, 0.6661 ], [ 35.1465, 0.6643 ], [ 35.1547, 0.6664 ], [ 35.1513, 0.6728 ], [ 35.1553, 0.6802 ], [ 35.1555, 0.7453 ], [ 35.1439, 0.7449 ], [ 35.1448, 0.832 ], [ 35.1313, 0.8352 ], [ 35.1257, 0.8334 ], [ 35.125, 0.8235 ], [ 35.1161, 0.8563 ], [ 35.113837532637071, 0.887777806788508 ], [ 35.1133, 0.8873 ], [ 35.1085, 0.8852 ], [ 35.1083, 0.8821 ], [ 35.1018, 0.8792 ], [ 35.098, 0.8815 ], [ 35.0976, 0.8851 ], [ 35.0934, 0.8843 ], [ 35.0928, 0.8866 ], [ 35.0894, 0.8863 ], [ 35.0884, 0.8876 ], [ 35.0886, 0.8853 ], [ 35.0861, 0.8863 ], [ 35.0873, 0.8874 ], [ 35.0864, 0.8892 ], [ 35.0849, 0.888 ], [ 35.084, 0.8922 ], [ 35.0825, 0.8914 ], [ 35.0809, 0.8929 ], [ 35.082, 0.8949 ], [ 35.0805, 0.8951 ], [ 35.0822, 0.8971 ], [ 35.081, 0.8979 ], [ 35.0825, 0.8986 ], [ 35.0738, 0.9047 ], [ 35.0688, 0.9014 ], [ 35.0666, 0.9035 ], [ 35.0606, 0.9026 ], [ 35.0515, 0.9076 ], [ 35.0476, 0.9041 ], [ 35.0464, 0.9068 ], [ 35.0411, 0.9067 ], [ 35.0394, 0.9032 ], [ 35.0322, 0.9011 ], [ 35.0319, 0.8986 ], [ 35.0277, 0.9017 ], [ 35.0241, 0.9008 ], [ 35.0189, 0.8946 ], [ 35.0191, 0.8918 ], [ 34.9852, 0.8848 ], [ 34.988, 0.8905 ], [ 34.9657, 0.8838 ], [ 34.9667, 0.8789 ], [ 34.9511, 0.8751 ], [ 34.9422, 0.8753 ], [ 34.9337, 0.8587 ], [ 34.9257, 0.8597 ], [ 34.9191, 0.8534 ], [ 34.9138, 0.8524 ], [ 34.8705, 0.8303 ], [ 34.809, 0.8112 ], [ 34.8113, 0.8192 ], [ 34.8103, 0.8312 ], [ 34.8051, 0.8441 ], [ 34.805, 0.8494 ], [ 34.7993, 0.8534 ], [ 34.7964, 0.8599 ], [ 34.7951, 0.8649 ], [ 34.7955, 0.8745 ], [ 34.7929, 0.8776 ], [ 34.7893, 0.8884 ], [ 34.79, 0.8912 ], [ 34.7866, 0.8949 ], [ 34.7891, 0.8993 ], [ 34.7925, 0.9014 ], [ 34.7935, 0.9061 ], [ 34.799, 0.9077 ], [ 34.8007, 0.9105 ], [ 34.7976, 0.9198 ], [ 34.7851, 0.9301 ], [ 34.7772, 0.9303 ], [ 34.7679, 0.9268 ], [ 34.7392, 0.9441 ], [ 34.6562, 1.0568 ], [ 34.6508, 1.0606 ], [ 34.6616, 1.0876 ], [ 34.6521, 1.0884 ], [ 34.6414, 1.0947 ], [ 34.6321, 1.0973 ], [ 34.6161, 1.1091 ], [ 34.6089, 1.1159 ], [ 34.5818, 1.1512 ], [ 34.6094, 1.1583 ], [ 34.6206, 1.1677 ], [ 34.636, 1.1718 ], [ 34.6405, 1.1759 ], [ 34.6488, 1.1792 ], [ 34.655, 1.1839 ], [ 34.6569, 1.188 ], [ 34.6634, 1.1924 ], [ 34.6695, 1.2082 ], [ 34.6955, 1.2134 ], [ 34.7007, 1.216 ], [ 34.7104, 1.2152 ], [ 34.7204, 1.2179 ], [ 34.7398, 1.2193 ], [ 34.7426, 1.221 ], [ 34.75, 1.2198 ], [ 34.7572, 1.2228 ], [ 34.7693, 1.2195 ], [ 34.7752, 1.2238 ], [ 34.7787, 1.2223 ], [ 34.7825, 1.225 ], [ 34.7865, 1.2229 ], [ 34.7952, 1.2232 ], [ 34.8052, 1.2307 ], [ 34.8114, 1.2409 ], [ 34.8106, 1.2429 ], [ 34.8133, 1.2485 ], [ 34.8184, 1.2507 ], [ 34.8177, 1.2558 ], [ 34.8196, 1.2622 ], [ 34.8248, 1.2646 ], [ 34.8314, 1.2712 ], [ 34.829, 1.275 ], [ 34.8282, 1.2967 ], [ 34.83, 1.3038 ], [ 34.829, 1.3098 ], [ 34.7867, 1.3664 ], [ 34.8065, 1.384 ], [ 34.8049, 1.3924 ], [ 34.7993, 1.4043 ], [ 34.7944, 1.4104 ], [ 34.7942, 1.4147 ], [ 34.8008, 1.4233 ], [ 34.8167, 1.431 ], [ 34.8269, 1.448 ], [ 34.831, 1.4519 ], [ 34.8417, 1.4546 ], [ 34.8442, 1.4572 ], [ 34.864, 1.5285 ], [ 34.8902, 1.5554 ], [ 34.9066, 1.5532 ], [ 34.9235, 1.5627 ], [ 34.9436, 1.5768 ], [ 34.9672, 1.6169 ], [ 34.9915, 1.6665 ], [ 35.0003, 1.7587 ], [ 35.0002, 1.9626 ], [ 34.9845, 1.9854 ], [ 34.9797, 2.0539 ], [ 34.9455, 2.2115 ], [ 34.9202, 2.3733 ], [ 34.9178, 2.3903 ], [ 34.9197, 2.3937 ], [ 34.915, 2.3975 ], [ 34.9143, 2.4032 ], [ 34.9171, 2.4102 ], [ 34.9166, 2.4249 ], [ 34.9189, 2.4244 ], [ 34.9222, 2.4269 ], [ 34.926, 2.4274 ], [ 34.9255, 2.4289 ], [ 34.9298, 2.429 ], [ 34.9323, 2.4311 ], [ 34.9312, 2.4387 ], [ 34.9358, 2.4383 ], [ 34.9375, 2.4407 ], [ 34.9366, 2.4439 ], [ 34.9404, 2.4483 ], [ 34.9398, 2.4502 ], [ 34.9437, 2.4494 ], [ 34.9421, 2.4531 ], [ 34.9448, 2.4554 ], [ 34.9461, 2.4542 ], [ 34.9536, 2.4579 ], [ 34.9702, 2.4483 ], [ 35.0256, 2.4365 ], [ 35.0256, 2.4439 ], [ 35.0228, 2.4468 ], [ 35.0194, 2.4607 ], [ 35.0218, 2.4685 ], [ 35.0193, 2.4748 ], [ 35.0204, 2.4877 ], [ 35.0156, 2.5018 ], [ 35.0197, 2.513 ], [ 35.0386, 2.5379 ], [ 35.0555, 2.5677 ], [ 35.0583, 2.5776 ], [ 35.0565, 2.5912 ], [ 35.0598, 2.6033 ], [ 35.0595, 2.6108 ], [ 35.0654, 2.6248 ], [ 35.0742, 2.6284 ], [ 35.0811, 2.6394 ], [ 35.0923, 2.6454 ], [ 35.0961, 2.6495 ], [ 35.1091, 2.6527 ], [ 35.1106, 2.6499 ], [ 35.1126, 2.6526 ], [ 35.1317, 2.6452 ], [ 35.1575, 2.6284 ], [ 35.1668, 2.6167 ], [ 35.1784, 2.598 ], [ 35.1858, 2.5789 ], [ 35.1869, 2.5716 ], [ 35.2129, 2.5425 ], [ 35.2153, 2.4965 ], [ 35.2205, 2.4788 ], [ 35.2211, 2.4662 ], [ 35.2231, 2.4593 ], [ 35.2288, 2.4498 ], [ 35.2325, 2.4469 ], [ 35.2459, 2.4455 ], [ 35.2507, 2.4397 ], [ 35.2721, 2.4374 ], [ 35.2917, 2.4285 ], [ 35.2976, 2.4206 ], [ 35.3024, 2.4018 ], [ 35.3031, 2.403 ], [ 35.3073, 2.3307 ], [ 35.3118, 2.2841 ], [ 35.3432, 2.1714 ], [ 35.3937, 1.9688 ], [ 35.3893, 1.9654 ], [ 35.3912, 1.9585 ], [ 35.3872, 1.9549 ], [ 35.3805, 1.9533 ], [ 35.3769, 1.9502 ], [ 35.3749, 1.9465 ], [ 35.3745, 1.9402 ], [ 35.3694, 1.9343 ], [ 35.4518, 1.8554 ], [ 35.4527, 1.8506 ], [ 35.4575, 1.8516 ], [ 35.4608, 1.8455 ], [ 35.4675, 1.8474 ], [ 35.4691, 1.8436 ], [ 35.4732, 1.8411 ], [ 35.4743, 1.8333 ], [ 35.4767, 1.8311 ], [ 35.4747, 1.8284 ], [ 35.4769, 1.8267 ], [ 35.4726, 1.822 ], [ 35.473, 1.8186 ], [ 35.4776, 1.8179 ], [ 35.4745, 1.8145 ], [ 35.4742, 1.8108 ], [ 35.4715, 1.8102 ], [ 35.4709, 1.8083 ], [ 35.4746, 1.8085 ], [ 35.4759, 1.8043 ], [ 35.4825, 1.8019 ], [ 35.4827, 1.7966 ], [ 35.4858, 1.7953 ], [ 35.4853, 1.7917 ], [ 35.4879, 1.7904 ], [ 35.4897, 1.7862 ], [ 35.4928, 1.787 ], [ 35.4915, 1.7849 ], [ 35.4925, 1.7832 ], [ 35.495, 1.7832 ], [ 35.4953, 1.7811 ], [ 35.4972, 1.7804 ], [ 35.4948, 1.774 ], [ 35.4985, 1.7733 ], [ 35.498, 1.7709 ], [ 35.5, 1.7729 ], [ 35.5036, 1.7708 ], [ 35.5159, 1.7744 ], [ 35.528, 1.7682 ], [ 35.5327, 1.7677 ], [ 35.5373, 1.7699 ], [ 35.5453, 1.7684 ], [ 35.5493, 1.7705 ], [ 35.5596, 1.7662 ], [ 35.5621, 1.7672 ], [ 35.5676, 1.764 ], [ 35.5695, 1.7664 ], [ 35.5744, 1.7668 ], [ 35.5771, 1.765 ], [ 35.5858, 1.7643 ], [ 35.5938, 1.7685 ], [ 35.5956, 1.7666 ], [ 35.5984, 1.7666 ], [ 35.6037, 1.7586 ], [ 35.6076, 1.7574 ], [ 35.6084, 1.7554 ], [ 35.6135, 1.7559 ], [ 35.6185, 1.7538 ], [ 35.6203, 1.7547 ], [ 35.6289, 1.751 ], [ 35.6384, 1.7493 ], [ 35.6407, 1.7466 ], [ 35.6485, 1.7461 ], [ 35.6577, 1.7378 ], [ 35.6694, 1.7352 ], [ 35.6736, 1.7272 ], [ 35.679, 1.7255 ], [ 35.6851, 1.72 ], [ 35.7021, 1.711 ], [ 35.7188, 1.6973 ], [ 35.7198, 1.6944 ], [ 35.7254, 1.6929 ], [ 35.7386, 1.683 ], [ 35.7414, 1.6833 ], [ 35.7509, 1.6804 ], [ 35.7532, 1.6784 ], [ 35.7588, 1.6779 ], [ 35.762, 1.6746 ], [ 35.771, 1.6705 ], [ 35.7817, 1.6683 ], [ 35.786, 1.6615 ], [ 35.785, 1.6595 ], [ 35.7811, 1.6607 ], [ 35.7865, 1.6583 ], [ 35.7855, 1.6559 ], [ 36.0961, 1.171 ], [ 36.0973, 1.1732 ], [ 36.1732, 1.1752 ], [ 36.3173, 0.9955 ], [ 36.3422, 0.9983 ], [ 36.3426, 0.9937 ], [ 36.3469, 0.9913 ], [ 36.3477, 0.9752 ], [ 36.3515, 0.9667 ], [ 36.3638, 0.9642 ], [ 36.3654, 0.959 ], [ 36.3699, 0.9559 ], [ 36.3753, 0.9572 ], [ 36.3787, 0.9554 ], [ 36.3842, 0.9551 ], [ 36.3843, 0.9515 ], [ 36.3889, 0.9494 ], [ 36.3906, 0.9462 ], [ 36.388, 0.9451 ], [ 36.388, 0.931 ], [ 36.3939, 0.9248 ], [ 36.3929, 0.9172 ], [ 36.3952, 0.9156 ], [ 36.3939, 0.914 ], [ 36.3961, 0.913 ], [ 36.3955, 0.9102 ], [ 36.4035, 0.9048 ], [ 36.4065, 0.9056 ], [ 36.4109, 0.9041 ], [ 36.4162, 0.9055 ], [ 36.4174, 0.9073 ], [ 36.4191, 0.9065 ], [ 36.4246, 0.9023 ], [ 36.4235, 0.8977 ], [ 36.4297, 0.889 ], [ 36.4457, 0.8759 ], [ 36.4563, 0.8765 ], [ 36.4625, 0.8735 ], [ 36.4645, 0.8697 ], [ 36.4706, 0.868 ], [ 36.4716, 0.8649 ], [ 36.4789, 0.8611 ], [ 36.4817, 0.8573 ], [ 36.4883, 0.855 ], [ 36.4901, 0.8523 ], [ 36.4754, 0.8431 ], [ 36.469, 0.8264 ], [ 36.4047, 0.7229 ], [ 36.3474, 0.666 ], [ 36.2891, 0.6507 ], [ 36.2779, 0.637 ], [ 36.2941, 0.5704 ], [ 36.2295, 0.4258 ], [ 36.2274, 0.4026 ], [ 36.2576, 0.3833 ], [ 36.2581, 0.3804 ], [ 36.2598, 0.3802 ], [ 36.2588, 0.3776 ], [ 36.2607, 0.3683 ], [ 36.2601, 0.3497 ], [ 36.2614, 0.3471 ], [ 36.2492, 0.3354 ], [ 36.2445, 0.3331 ], [ 36.2477, 0.347 ], [ 36.231, 0.34 ], [ 36.2257, 0.3249 ], [ 36.24, 0.3194 ], [ 36.2499, 0.3038 ], [ 36.2598, 0.2954 ], [ 36.265, 0.282 ], [ 36.2796, 0.2784 ], [ 36.2818, 0.2714 ], [ 36.279, 0.2608 ], [ 36.2918, 0.2585 ], [ 36.2964, 0.2423 ], [ 36.2964, 0.234 ], [ 36.2912, 0.2215 ], [ 36.2923, 0.2176 ], [ 36.2886, 0.2118 ], [ 36.2838, 0.207 ], [ 36.2674, 0.1964 ], [ 36.265, 0.1908 ], [ 36.2545, 0.1879 ], [ 36.2361, 0.215 ], [ 36.254, 0.1876 ], [ 36.2603, 0.1813 ], [ 36.2773, 0.1539 ], [ 36.2857, 0.1324 ], [ 36.289, 0.1175 ], [ 36.2711, 0.0938 ], [ 36.2616, 0.0696 ], [ 36.2564, 0.0623 ], [ 36.2624, 0.0399 ], [ 36.269, 0.0259 ], [ 36.2654, 0.0252 ], [ 36.2571, -0.0127 ], [ 36.2573, -0.0174 ], [ 36.2526, -0.0275 ], [ 36.2551, -0.0288 ], [ 36.2527, -0.0408 ], [ 36.2481, -0.0455 ], [ 36.2466, -0.0539 ], [ 36.2506, -0.0538 ], [ 36.2515, -0.078 ], [ 36.2467, -0.1117 ], [ 36.2277, -0.1084 ], [ 36.2285, -0.1005 ], [ 36.2207, -0.0992 ], [ 36.2194, -0.1069 ], [ 36.2008, -0.1302 ], [ 36.2115, -0.1815 ], [ 36.2118, -0.1972 ], [ 36.2202, -0.2052 ], [ 36.2242, -0.2045 ], [ 36.2371, -0.2235 ], [ 36.2461, -0.2486 ], [ 36.2128, -0.2635 ], [ 36.2138, -0.288 ], [ 36.2249, -0.3401 ], [ 36.2286, -0.3475 ], [ 36.2317, -0.3374 ], [ 36.2411, -0.3384 ], [ 36.246, -0.3407 ], [ 36.249, -0.3399 ], [ 36.2524, -0.3363 ], [ 36.2629, -0.3364 ], [ 36.2758, -0.3864 ], [ 36.293, -0.3673 ], [ 36.3116, -0.3627 ], [ 36.3139, -0.3798 ], [ 36.3343, -0.3827 ], [ 36.3601, -0.372 ], [ 36.3648, -0.3893 ], [ 36.378, -0.398 ], [ 36.3808, -0.405 ], [ 36.3792, -0.4164 ], [ 36.3812, -0.4201 ], [ 36.3862, -0.4213 ], [ 36.3852, -0.4225 ], [ 36.3874, -0.43 ], [ 36.3868, -0.4336 ], [ 36.3896, -0.4405 ], [ 36.3878, -0.4466 ], [ 36.389, -0.4484 ], [ 36.3856, -0.4504 ], [ 36.387, -0.4513 ], [ 36.3873, -0.4579 ], [ 36.3887, -0.459 ], [ 36.3886, -0.4572 ], [ 36.391, -0.4594 ], [ 36.3922, -0.4655 ], [ 36.3953, -0.4684 ], [ 36.3925, -0.4704 ], [ 36.3961, -0.4807 ], [ 36.3981, -0.4829 ], [ 36.3981, -0.4869 ], [ 36.3964, -0.4881 ], [ 36.3976, -0.4892 ], [ 36.3969, -0.4956 ], [ 36.4027, -0.4999 ], [ 36.4035, -0.5057 ], [ 36.4004, -0.5099 ], [ 36.4056, -0.518 ], [ 36.4013, -0.5227 ], [ 36.4003, -0.5301 ], [ 36.4045, -0.5329 ], [ 36.4027, -0.5415 ], [ 36.407, -0.5467 ], [ 36.4039, -0.5498 ], [ 36.4032, -0.5549 ], [ 36.4049, -0.5598 ], [ 36.4032, -0.5599 ], [ 36.4043, -0.563 ], [ 36.403, -0.5665 ], [ 36.4062, -0.569 ], [ 36.4312, -0.5659 ], [ 36.443, -0.5641 ], [ 36.4514, -0.5596 ], [ 36.456, -0.6058 ], [ 36.4679, -0.6205 ], [ 36.5061, -0.6169 ], [ 36.5119, -0.6045 ], [ 36.5123, -0.6149 ], [ 36.5163, -0.6197 ], [ 36.5194, -0.6187 ], [ 36.5203, -0.6199 ], [ 36.5182, -0.6228 ], [ 36.5159, -0.6227 ], [ 36.5162, -0.6262 ], [ 36.5247, -0.6317 ], [ 36.5248, -0.6363 ], [ 36.5266, -0.6388 ], [ 36.5263, -0.6432 ], [ 36.5212, -0.647 ], [ 36.5441, -0.6907 ], [ 36.5207, -0.7046 ], [ 36.5303, -0.7226 ], [ 36.5589, -0.8317 ], [ 36.5616, -0.8358 ], [ 36.5523, -0.849 ], [ 36.5545, -0.8666 ], [ 36.5442, -0.9018 ], [ 36.5543, -0.9146 ], [ 36.5542, -0.9202 ], [ 36.5676, -0.922 ], [ 36.5726, -0.9257 ], [ 36.5615, -0.9329 ], [ 36.5687, -0.9392 ], [ 36.5749, -0.938 ], [ 36.5788, -0.9406 ], [ 36.5877, -0.9587 ], [ 36.5873, -0.9721 ], [ 36.5914, -0.9793 ], [ 36.5964, -0.9786 ], [ 36.5962, -0.9857 ], [ 36.6001, -0.9872 ], [ 36.5966, -0.9913 ], [ 36.5951, -1.0059 ], [ 36.5878, -1.0365 ], [ 36.5902, -1.0435 ], [ 36.5912, -1.0579 ], [ 36.5699, -1.0965 ], [ 36.5672, -1.0944 ], [ 36.5445, -1.1207 ], [ 36.537, -1.1488 ], [ 36.5349, -1.1612 ], [ 36.5136, -1.236 ], [ 36.4908, -1.264 ], [ 36.6597, -1.2965 ], [ 36.6658, -1.3078 ], [ 36.6702, -1.2996 ], [ 36.6747, -1.3008 ], [ 36.6785, -1.2936 ], [ 36.6807, -1.2925 ], [ 36.6863, -1.2783 ], [ 36.6884, -1.2763 ], [ 36.6894, -1.2789 ], [ 36.6863, -1.2824 ], [ 36.6807, -1.2965 ], [ 36.6785, -1.2976 ], [ 36.6747, -1.3048 ], [ 36.6702, -1.3036 ], [ 36.6635, -1.3173 ], [ 36.6728, -1.3219 ], [ 36.6691, -1.3236 ], [ 36.6749, -1.3278 ], [ 36.6789, -1.326 ], [ 36.6826, -1.3349 ], [ 36.6849, -1.3348 ], [ 36.6894, -1.3471 ], [ 36.6928, -1.3506 ], [ 36.7022, -1.3495 ], [ 36.728, -1.3725 ], [ 36.7415, -1.3794 ], [ 36.7442, -1.3785 ], [ 36.7489, -1.3824 ], [ 36.7602, -1.3822 ], [ 36.7681, -1.3865 ], [ 36.7801, -1.3839 ], [ 36.7829, -1.3868 ], [ 36.7868, -1.3848 ], [ 36.7896, -1.3858 ], [ 36.7937, -1.3829 ], [ 36.7954, -1.3834 ], [ 36.796, -1.3859 ], [ 36.8002, -1.385 ], [ 36.8026, -1.3864 ], [ 36.8051, -1.3844 ], [ 36.8057, -1.387 ], [ 36.8088, -1.3857 ], [ 36.8094, -1.383 ], [ 36.8116, -1.3843 ], [ 36.8148, -1.3797 ], [ 36.8197, -1.379 ], [ 36.8221, -1.383 ], [ 36.8282, -1.3855 ], [ 36.8363, -1.3864 ], [ 36.837, -1.3846 ], [ 36.8395, -1.386 ], [ 36.8419, -1.3843 ], [ 36.8443, -1.3848 ], [ 36.8449, -1.3892 ], [ 36.8497, -1.3943 ], [ 36.8573, -1.3966 ], [ 36.8638, -1.4017 ], [ 36.8695, -1.4011 ], [ 36.8708, -1.4052 ], [ 36.8755, -1.4035 ], [ 36.8785, -1.4048 ], [ 36.8819, -1.4037 ], [ 36.8949, -1.4092 ], [ 36.8944, -1.411 ], [ 36.8902, -1.4105 ], [ 36.8783, -1.4752 ], [ 36.8841, -1.4847 ], [ 36.8887, -1.4838 ], [ 36.9004, -1.4723 ], [ 36.9119, -1.4651 ], [ 36.9206, -1.4617 ], [ 36.9224, -1.4569 ], [ 36.9273, -1.4556 ], [ 36.9309, -1.4571 ], [ 36.9366, -1.4531 ], [ 36.943, -1.4527 ], [ 36.9496, -1.4554 ], [ 36.9474, -1.4592 ], [ 36.9776, -1.4748 ], [ 36.9708, -1.4893 ], [ 36.9743, -1.4987 ], [ 36.9627, -1.5108 ], [ 36.963, -1.5258 ], [ 36.9613, -1.53 ], [ 36.9589, -1.5296 ], [ 36.9573, -1.5327 ], [ 36.9572, -1.5423 ], [ 36.9662, -1.5533 ], [ 36.9737, -1.5549 ], [ 36.9752, -1.552 ], [ 36.9776, -1.5531 ], [ 36.996, -1.581 ], [ 36.9908, -1.5849 ], [ 37.0004, -1.5973 ], [ 37.0065, -1.5927 ], [ 37.0814, -1.6929 ], [ 37.0803, -1.6937 ], [ 37.0843, -1.699 ], [ 37.0854, -1.6983 ], [ 37.1114, -1.733 ], [ 37.118, -1.7371 ], [ 37.1241, -1.7383 ], [ 37.1241, -1.741 ], [ 37.1322, -1.7425 ], [ 37.1328, -1.74 ], [ 37.141, -1.7357 ], [ 37.145, -1.7359 ], [ 37.1479, -1.7382 ], [ 37.1489, -1.7429 ], [ 37.147, -1.751 ], [ 37.1488, -1.7592 ], [ 37.1585, -1.764 ], [ 37.152, -1.7763 ], [ 37.1536, -1.7778 ], [ 37.1593, -1.7769 ], [ 37.1604, -1.7794 ], [ 37.1512, -1.7942 ], [ 37.1525, -1.801 ], [ 37.1413, -1.8116 ], [ 37.1457, -1.8186 ], [ 37.143, -1.8222 ], [ 37.1436, -1.8276 ], [ 37.1488, -1.8311 ], [ 37.1475, -1.8335 ], [ 37.1434, -1.8349 ], [ 37.1418, -1.8382 ], [ 37.1431, -1.8397 ], [ 37.1477, -1.8397 ], [ 37.1556, -1.8447 ], [ 37.1569, -1.8504 ], [ 37.1624, -1.8567 ], [ 37.1621, -1.8669 ], [ 37.1637, -1.871 ], [ 37.1603, -1.8745 ], [ 37.1604, -1.8827 ], [ 37.1587, -1.8846 ], [ 37.1543, -1.8835 ], [ 37.1531, -1.8862 ], [ 37.159, -1.8918 ], [ 37.1574, -1.8959 ], [ 37.17, -1.9119 ], [ 37.1703, -1.9161 ], [ 37.183, -1.9228 ], [ 37.1823, -1.9285 ], [ 37.1867, -1.9332 ], [ 37.1922, -1.9345 ], [ 37.2001, -1.9318 ], [ 37.2059, -1.9337 ], [ 37.2111, -1.9314 ], [ 37.2234, -1.9321 ], [ 37.2363, -1.9353 ], [ 37.2442, -1.942 ], [ 37.2473, -1.9493 ], [ 37.253, -1.952 ], [ 37.2556, -1.9568 ], [ 37.2593, -1.9585 ], [ 37.2657, -1.9581 ], [ 37.2678, -1.9642 ], [ 37.2758, -1.9753 ], [ 37.2806, -1.994 ], [ 37.2836, -1.9943 ], [ 37.2991, -2.0034 ], [ 37.303, -2.0016 ], [ 37.308, -2.0018 ], [ 37.3141, -2.007 ], [ 37.3589, -2.0113 ], [ 37.3645, -2.0138 ], [ 37.3646, -2.0221 ], [ 37.3818, -2.0223 ], [ 37.4518, -2.0728 ], [ 37.4651, -2.0788 ], [ 37.4624, -2.0854 ], [ 37.4759, -2.0908 ], [ 37.4786, -2.0839 ], [ 37.5336, -2.1058 ], [ 37.5372, -2.1111 ], [ 37.5412, -2.1123 ], [ 37.5438, -2.1151 ], [ 37.5431, -2.122 ], [ 37.5452, -2.1252 ], [ 37.5505, -2.1271 ], [ 37.5646, -2.1268 ], [ 37.5731, -2.1376 ], [ 37.5925, -2.1528 ], [ 37.6213, -2.161 ], [ 37.665, -2.1554 ], [ 37.6924, -2.1647 ], [ 37.6991, -2.1643 ], [ 37.7058, -2.1725 ], [ 37.7076, -2.1816 ], [ 37.7239, -2.1885 ], [ 37.7243, -2.1915 ], [ 37.7155, -2.1903 ], [ 37.7059, -2.1947 ], [ 37.6947, -2.2099 ], [ 37.688, -2.2155 ], [ 37.6837, -2.2241 ], [ 37.6802, -2.2256 ], [ 37.6793, -2.2278 ], [ 37.6749, -2.228 ], [ 37.6763, -2.2325 ], [ 37.6756, -2.2392 ], [ 37.6787, -2.2432 ], [ 37.6783, -2.2535 ], [ 37.6761, -2.2595 ], [ 37.6785, -2.2643 ], [ 37.6733, -2.2675 ], [ 37.6722, -2.2793 ], [ 37.667, -2.2809 ], [ 37.6679, -2.2839 ], [ 37.6701, -2.2851 ], [ 37.6699, -2.288 ], [ 37.6645, -2.29 ], [ 37.6602, -2.2889 ], [ 37.658, -2.2865 ], [ 37.6552, -2.2875 ], [ 37.6483, -2.2915 ], [ 37.6461, -2.2993 ], [ 37.6425, -2.2971 ], [ 37.637, -2.2977 ], [ 37.6318, -2.294 ], [ 37.6323, -2.2988 ], [ 37.6309, -2.3014 ], [ 37.6259, -2.3012 ], [ 37.6218, -2.3044 ], [ 37.6184, -2.2978 ], [ 37.6124, -2.2976 ], [ 37.6099, -2.3022 ], [ 37.6066, -2.3034 ], [ 37.6075, -2.3079 ], [ 37.6042, -2.3114 ], [ 37.6015, -2.3092 ], [ 37.5999, -2.3112 ], [ 37.5983, -2.3095 ], [ 37.5962, -2.312 ], [ 37.8497, -2.6039 ], [ 37.8605, -2.6223 ], [ 37.8691, -2.6432 ], [ 37.8789, -2.6609 ], [ 37.8926, -2.6747 ], [ 37.9011, -2.7015 ], [ 37.9072, -2.7037 ], [ 37.9208, -2.7042 ], [ 37.93, -2.721 ], [ 37.9291, -2.738 ], [ 37.9261, -2.7407 ], [ 37.9263, -2.7496 ], [ 37.9298, -2.7629 ], [ 37.9375, -2.7708 ], [ 37.9179, -2.8684 ], [ 37.8945, -2.8857 ], [ 37.8725, -3.0622 ], [ 37.8707, -3.0775 ], [ 37.8663, -3.0792 ], [ 37.8543, -3.0801 ], [ 37.8539, -3.168 ], [ 37.8527, -3.1799 ], [ 37.8475, -3.1838 ], [ 37.8381, -3.187 ], [ 37.8327, -3.1859 ], [ 37.8281, -3.1795 ], [ 37.8197, -3.1746 ], [ 37.8159, -3.1703 ], [ 37.8105, -3.1682 ], [ 37.8007, -3.1688 ], [ 37.7955, -3.1729 ], [ 37.7917, -3.1711 ], [ 37.6904, -3.1751 ], [ 37.6726, -3.0677 ], [ 37.6161, -3.0268 ], [ 37.6207, -3.0256 ], [ 37.5489, -2.9775 ], [ 37.4855, -2.9396 ], [ 37.4864, -2.9386 ], [ 37.4095, -2.8973 ], [ 36.8304, -2.5717 ], [ 36.4981, -2.3879 ], [ 36.2513, -2.2659 ], [ 36.2035, -2.2275 ], [ 36.1046, -2.1654 ], [ 35.9962, -2.1027 ], [ 35.9962, -2.1026 ], [ 35.869, -2.0307 ], [ 35.8464, -2.0182 ], [ 35.8458, -2.0191 ], [ 35.4393, -1.7882 ], [ 35.4109, -1.7731 ], [ 35.3177, -1.7288 ], [ 34.7325, -1.3902 ], [ 34.6956, -1.2462 ], [ 34.6867, -1.2053 ], [ 34.6799, -1.2079 ], [ 34.6724, -1.2056 ], [ 34.6712, -1.1931 ], [ 34.6634, -1.1878 ], [ 34.661, -1.1836 ], [ 34.6529, -1.1814 ], [ 34.6531, -1.1738 ], [ 34.6546, -1.1717 ], [ 34.6492, -1.1686 ], [ 34.6463, -1.1642 ], [ 34.6429, -1.1643 ], [ 34.6432, -1.1615 ], [ 34.6378, -1.1571 ], [ 34.6316, -1.1574 ], [ 34.6312, -1.1548 ], [ 34.6282, -1.1534 ], [ 34.6256, -1.1488 ], [ 34.633, -1.1322 ], [ 34.6293, -1.1207 ], [ 34.6297, -1.1175 ], [ 34.622, -1.1074 ], [ 34.6226, -1.102 ], [ 34.6197, -1.091 ], [ 34.6142, -1.0835 ], [ 34.6151, -1.077 ], [ 34.6181, -1.0705 ], [ 34.6006, -1.0522 ], [ 34.5929, -1.0378 ], [ 34.5902, -1.0125 ], [ 34.6418, -0.963 ], [ 34.6474, -0.9604 ], [ 34.6518, -0.9606 ], [ 34.6642, -0.9671 ], [ 34.6705, -0.9658 ], [ 34.6786, -0.9671 ], [ 35.0127, -0.8839 ], [ 35.0136, -0.881 ] ], [ [ 35.7798, 1.6594 ], [ 35.779498947368424, 1.656163684210537 ], [ 35.7811, 1.6607 ], [ 35.7798, 1.6594 ] ], [ [ 36.5265, -1.1405 ], [ 36.4935, -1.1151 ], [ 36.537, -1.1488 ], [ 36.5265, -1.1405 ] ], [ [ 36.335609909395927, -1.04080466287598 ], [ 36.335609909395927, -1.040804662875981 ], [ 36.4935, -1.1151 ], [ 36.335609909395927, -1.04080466287598 ] ], [ [ 35.248338173302109, -1.028518266978923 ], [ 35.2492, -1.0279 ], [ 35.248440875912408, -1.027491240875912 ], [ 35.248338173302109, -1.028518266978923 ] ], [ [ 35.2428, -1.029 ], [ 35.240775464684013, -1.030831722428747 ], [ 35.2411, -1.031 ], [ 35.242975182481757, -1.029214111922141 ], [ 35.2428, -1.029 ] ], [ [ 35.0826, -0.9005 ], [ 35.2384, -1.0296 ], [ 35.240349311610821, -1.030610754168572 ], [ 35.0826, -0.9005 ] ], [ [ 35.7794, 1.6551 ], [ 35.7817, 1.6531 ], [ 35.779433568904594, 1.655460865724379 ], [ 35.7794, 1.6551 ] ], [ [ 35.7773, 1.6462 ], [ 35.7775, 1.645993103448269 ], [ 35.7775, 1.649 ], [ 35.7773, 1.6462 ] ], [ [ 35.786015797487629, 1.636591358964598 ], [ 35.7855, 1.6372 ], [ 35.7812, 1.6375 ], [ 35.786015797487629, 1.636591358964598 ] ], [ [ 35.790232634338139, 1.631087680209698 ], [ 35.7905, 1.6313 ], [ 35.788277777777772, 1.633922222222232 ], [ 35.790232634338139, 1.631087680209698 ] ], [ [ 35.769062472077444, 1.538522189128816 ], [ 35.7693, 1.5386 ], [ 35.7683, 1.5471 ], [ 35.769062472077444, 1.538522189128816 ] ], [ [ 35.7561, 1.5211 ], [ 35.7613, 1.5228 ], [ 35.7612525, 1.523161 ], [ 35.7561, 1.5211 ] ], [ [ 35.752290391459077, 1.510697508896797 ], [ 35.7526, 1.5111 ], [ 35.751, 1.5142 ], [ 35.752290391459077, 1.510697508896797 ] ], [ [ 35.7425, 1.5088 ], [ 35.7516, 1.5098 ], [ 35.752013487133986, 1.510337533274179 ], [ 35.7425, 1.5088 ] ], [ [ 35.7207, 1.4782 ], [ 35.719957861635223, 1.4768641509434 ], [ 35.7247, 1.4796 ], [ 35.7207, 1.4782 ] ], [ [ 35.7192, 1.4755 ], [ 35.719415909090905, 1.474960227272736 ], [ 35.719468361581917, 1.475983050847449 ], [ 35.7192, 1.4755 ] ], [ [ 35.723224657534246, 1.46543835616438 ], [ 35.7232, 1.4664 ], [ 35.722182608695654, 1.468043478260866 ], [ 35.723224657534246, 1.46543835616438 ] ], [ [ 35.72313238866397, 1.462413090418354 ], [ 35.7233, 1.4625 ], [ 35.723268493150684, 1.463728767123294 ], [ 35.72313238866397, 1.462413090418354 ] ], [ [ 35.7128, 1.4519 ], [ 35.7203, 1.4555 ], [ 35.720331288343559, 1.456084049079755 ], [ 35.7128, 1.4519 ] ], [ [ 35.7065, 1.4425 ], [ 35.706619465574413, 1.442170275014626 ], [ 35.7122, 1.4465 ], [ 35.7065, 1.4425 ] ], [ [ 35.709, 1.4356 ], [ 35.7086, 1.4397 ], [ 35.706852598091196, 1.441526829268296 ], [ 35.709, 1.4356 ] ], [ [ 35.699751764705887, 1.332847058823529 ], [ 35.6993, 1.3336 ], [ 35.6964, 1.3333 ], [ 35.699751764705887, 1.332847058823529 ] ], [ [ 35.700057937806875, 1.331916693944351 ], [ 35.7002, 1.3321 ], [ 35.700076470588236, 1.332305882352945 ], [ 35.700057937806875, 1.331916693944351 ] ], [ [ 35.6971, 1.3286 ], [ 35.697200867678959, 1.328230151843818 ], [ 35.69798310412574, 1.329239489194499 ], [ 35.6971, 1.3286 ] ], [ [ 35.697954545454543, 1.325466666666669 ], [ 35.6981, 1.3256 ], [ 35.697528571428577, 1.327028571428558 ], [ 35.697954545454543, 1.325466666666669 ] ], [ [ 35.6725, 1.3201 ], [ 35.6969, 1.3241 ], [ 35.6982, 1.318 ], [ 35.6969, 1.3245 ], [ 35.697707702888579, 1.325240394314534 ], [ 35.6725, 1.3201 ] ], [ [ 35.696559016393437, 1.310726229508194 ], [ 35.6974, 1.3111 ], [ 35.697452900232022, 1.311556264501164 ], [ 35.696559016393437, 1.310726229508194 ] ], [ [ 35.6947, 1.309 ], [ 35.694958992805752, 1.308993525179856 ], [ 35.694903225806449, 1.309188709677419 ], [ 35.6947, 1.309 ] ], [ [ 35.6987, 1.3089 ], [ 35.6977, 1.3099 ], [ 35.695969624573372, 1.308968259385666 ], [ 35.6987, 1.3089 ] ], [ [ 35.6974, 1.2826 ], [ 35.7014, 1.2817 ], [ 35.697422516556294, 1.28283642384106 ], [ 35.6974, 1.2826 ] ], [ [ 35.7027, 1.2758 ], [ 35.706482701062214, 1.277091654021244 ], [ 35.7062, 1.2775 ], [ 35.702635453426346, 1.276092942141979 ], [ 35.7027, 1.2758 ] ], [ [ 35.706984239130435, 1.275495788043491 ], [ 35.7071, 1.2762 ], [ 35.706872597864773, 1.276528469750885 ], [ 35.706984239130435, 1.275495788043491 ] ], [ [ 35.6061, 0.6448 ], [ 35.606157142857143, 0.6446 ], [ 35.6081, 0.6446 ], [ 35.6061, 0.6448 ] ], [ [ 35.596, 0.6238 ], [ 35.597743396226413, 0.620603773584906 ], [ 35.5978, 0.6207 ], [ 35.596070222929932, 0.624351751592357 ], [ 35.596, 0.6238 ] ], [ [ 35.5958, 0.6168 ], [ 35.5986, 0.6115 ], [ 35.595927504553728, 0.617035883424408 ], [ 35.5958, 0.6168 ] ], [ [ 35.612751152073734, 0.596193548387095 ], [ 35.6129, 0.5965 ], [ 35.598534146341528, 0.607251219512146 ], [ 35.612751152073734, 0.596193548387095 ] ], [ [ 35.6112, 0.5933 ], [ 35.611256892430276, 0.593117131474103 ], [ 35.611736842105266, 0.594105263157902 ], [ 35.6112, 0.5933 ] ], [ [ 35.609709523809528, 0.573249689440996 ], [ 35.6104, 0.5737 ], [ 35.610305639913236, 0.574454880694141 ], [ 35.609709523809528, 0.573249689440996 ] ], [ [ 35.5878, 0.1762 ], [ 35.5907, 0.1532 ], [ 35.5881, 0.1745 ], [ 35.5878, 0.1762 ] ], [ [ 35.5741, 0.069 ], [ 35.5866, 0.0378 ], [ 35.574104003625273, 0.069183074864774 ], [ 35.5741, 0.069 ] ], [ [ 35.523044597024317, 0.019741086438621 ], [ 35.5431, -0.0023 ], [ 35.523044597024317, 0.019741086438621 ], [ 35.523044597024317, 0.019741086438621 ] ], [ [ 35.632916448068066, -0.02964246721021 ], [ 35.6328, -0.0294 ], [ 35.6113, -0.0264 ], [ 35.632916448068066, -0.02964246721021 ] ], [ [ 35.640720389926884, -0.054715840779854 ], [ 35.6476, -0.0528 ], [ 35.6412, -0.0544 ], [ 35.640720389926884, -0.054715840779854 ] ], [ [ 35.6371, -0.0571 ], [ 35.6281, -0.0673 ], [ 35.638734850863422, -0.056023390894818 ], [ 35.6371, -0.0571 ] ], [ [ 35.624308196721309, -0.073935655737706 ], [ 35.6248, -0.0737 ], [ 35.6281, -0.0673 ], [ 35.624308196721309, -0.073935655737706 ] ], [ [ 35.585, -0.2867 ], [ 35.5918, -0.28 ], [ 35.59183810178817, -0.279580880330126 ], [ 35.585, -0.2867 ] ], [ [ 35.4738, -0.3951 ], [ 35.5872, -0.5833 ], [ 35.5984, -0.6491 ], [ 35.5872, -0.5831 ], [ 35.5372, -0.4985 ], [ 35.4139, -0.2969 ], [ 35.4738, -0.3951 ] ], [ [ 35.266912336719884, -1.016838896952104 ], [ 35.2684, -1.018 ], [ 35.2711, -1.0178 ], [ 35.266912336719884, -1.016838896952104 ] ], [ [ 35.2647, -1.0148 ], [ 35.264417218973357, -1.014891487979207 ], [ 35.264768571428569, -1.015165714285714 ], [ 35.2647, -1.0148 ] ], [ [ 35.4664, 0.0319 ], [ 35.431646102062977, 0.03139016286645 ], [ 35.4349, 0.0312 ], [ 35.4664, 0.0319 ] ], [ [ 35.0696, -0.5949 ], [ 35.067, -0.5992 ], [ 35.0695, -0.5951 ], [ 35.0726, -0.5931 ], [ 35.0696, -0.5949 ] ], [ [ 35.122498448519039, -0.657879971791256 ], [ 35.1226, -0.6581 ], [ 35.1314, -0.6557 ], [ 35.122498448519039, -0.657879971791256 ] ], [ [ 35.146401030927834, -0.653183505154639 ], [ 35.149131818181814, -0.653638636363636 ], [ 35.1472, -0.6529 ], [ 35.146401030927834, -0.653183505154639 ] ], [ [ 35.151336734693878, -0.65400612244898 ], [ 35.1519, -0.6541 ], [ 35.162, -0.6512 ], [ 35.151336734693878, -0.65400612244898 ] ], [ [ 35.2295, -0.4203 ], [ 35.23257899159664, -0.417028571428571 ], [ 35.2325, -0.417 ], [ 35.2295, -0.4203 ] ], [ [ 35.2372, -0.4187 ], [ 35.2421, -0.4182 ], [ 35.244943902439026, -0.417770731707317 ], [ 35.2372, -0.4187 ] ], [ [ 35.24730664531625, -0.417414091273018 ], [ 35.2474, -0.4174 ], [ 35.2508, -0.4146 ], [ 35.24730664531625, -0.417414091273018 ] ], [ [ 35.4382, 0.024 ], [ 35.4369, 0.0233 ], [ 35.4136, 0.0093 ], [ 35.4382, 0.024 ] ], [ [ 35.114496202531647, 0.888363291139241 ], [ 35.116, 0.8885 ], [ 35.117542857142858, 0.891071428571428 ], [ 35.114496202531647, 0.888363291139241 ] ], [ [ 35.117714772727275, 0.891357954545455 ], [ 35.1178, 0.8915 ], [ 35.1153, 0.893 ], [ 35.117714772727275, 0.891357954545455 ] ], [ [ 35.1155, 0.8958 ], [ 35.113343941411451, 0.897564047936085 ], [ 35.1133, 0.8974 ], [ 35.1155, 0.8958 ] ], [ [ 35.12818286112401, 0.925370506270321 ], [ 35.1342, 0.9244 ], [ 35.1282, 0.9255 ], [ 35.12818286112401, 0.925370506270321 ] ], [ [ 35.2465, 0.9438 ], [ 35.252583783016185, 0.946253138312979 ], [ 35.2525, 0.9463 ], [ 35.2465, 0.9438 ] ], [ [ 35.3438, 0.953 ], [ 35.3593, 0.95 ], [ 35.3772, 0.9419 ], [ 35.36, 0.9499 ], [ 35.3438, 0.953 ] ], [ [ 35.1254, 1.1887 ], [ 35.1517, 1.2045 ], [ 35.2484, 1.1583 ], [ 35.1515, 1.2046 ], [ 35.1254, 1.1887 ] ], [ [ 35.4755, 1.0234 ], [ 35.4746, 1.0307 ], [ 35.474163987138262, 1.030881672025726 ], [ 35.4755, 1.0234 ] ], [ [ 35.472402409638555, 1.031615662650603 ], [ 35.4692, 1.03295 ], [ 35.4714, 1.0315 ], [ 35.472402409638555, 1.031615662650603 ] ], [ [ 35.467199303135885, 1.034268641114983 ], [ 35.467018181818183, 1.034781818181818 ], [ 35.467, 1.0344 ], [ 35.467199303135885, 1.034268641114983 ] ], [ [ 35.4673, 1.0407 ], [ 35.4635, 1.0435 ], [ 35.463215817223201, 1.043502870533099 ], [ 35.4673, 1.0407 ] ], [ [ 35.4492, 1.0613 ], [ 35.447919602106495, 1.077122059684034 ], [ 35.4477, 1.0709 ], [ 35.4492, 1.0613 ] ], [ [ 35.447981532816961, 1.078876763147166 ], [ 35.4539, 1.0879 ], [ 35.448, 1.0794 ], [ 35.447981532816961, 1.078876763147166 ] ], [ [ 35.447640185471407, 1.126527975270481 ], [ 35.449345360824744, 1.128673195876288 ], [ 35.4474, 1.1273 ], [ 35.447640185471407, 1.126527975270481 ] ], [ [ 35.450567578125003, 1.1295359375 ], [ 35.453, 1.1228 ], [ 35.4508, 1.1297 ], [ 35.450567578125003, 1.1295359375 ] ], [ [ 35.4578, 1.1247 ], [ 35.4681, 1.1242 ], [ 35.468205089617854, 1.124408268515387 ], [ 35.4578, 1.1247 ] ], [ [ 35.47357563976378, 1.135051722440945 ], [ 35.4736, 1.1351 ], [ 35.4727, 1.1441 ], [ 35.47357563976378, 1.135051722440945 ] ], [ [ 35.422230934479053, 1.189047368421042 ], [ 35.4232, 1.1927 ], [ 35.4222, 1.1893 ], [ 35.422230934479053, 1.189047368421042 ] ], [ [ 35.489708776978404, 0.353847625899294 ], [ 35.4882, 0.3553 ], [ 35.488011208406306, 0.355317162872154 ], [ 35.489708776978404, 0.353847625899294 ] ], [ [ 35.499292, 0.3444288 ], [ 35.4989, 0.345 ], [ 35.49788095238096, 0.345980952380942 ], [ 35.499292, 0.3444288 ] ], [ [ 35.507, 0.3305 ], [ 35.5059, 0.3348 ], [ 35.503841635687728, 0.337799330855018 ], [ 35.507, 0.3305 ] ], [ [ 35.511905154639173, 0.329682474226804 ], [ 35.5118, 0.3298 ], [ 35.507, 0.3305 ], [ 35.511905154639173, 0.329682474226804 ] ], [ [ 35.513436790123457, 0.327765679012345 ], [ 35.5135, 0.3279 ], [ 35.513122222222222, 0.328322222222225 ], [ 35.513436790123457, 0.327765679012345 ] ], [ [ 35.539914605647517, 0.230322492697176 ], [ 35.5399, 0.2306 ], [ 35.5345, 0.2339 ], [ 35.539914605647517, 0.230322492697176 ] ], [ [ 35.537, 0.2267 ], [ 35.54, 0.2287 ], [ 35.53993108974359, 0.230009294871794 ], [ 35.537, 0.2267 ] ], [ [ 35.67306, 1.07404 ], [ 35.6727, 1.0735 ], [ 35.6731, 1.074 ], [ 35.67306, 1.07404 ] ], [ [ 35.6728, 1.0743 ], [ 35.672728571428571, 1.074285714285714 ], [ 35.6729, 1.0742 ], [ 35.6728, 1.0743 ] ], [ [ 35.6723, 1.0742 ], [ 35.6723, 1.073 ], [ 35.672476470588236, 1.074235294117647 ], [ 35.6723, 1.0742 ] ], [ [ 35.4677, 1.0078 ], [ 35.468366666666668, 1.008333333333333 ], [ 35.4669, 1.0076 ], [ 35.4677, 1.0078 ] ], [ [ 35.4675, 1.0081 ], [ 35.4682, 1.0085 ], [ 35.4688, 1.0093 ], [ 35.4669, 1.0076 ], [ 35.4675, 1.0081 ] ], [ [ 35.468518181818183, 1.008454545454546 ], [ 35.4687, 1.0086 ], [ 35.4688, 1.0093 ], [ 35.468518181818183, 1.008454545454546 ] ], [ [ 35.46034576271186, 1.015472881355932 ], [ 35.460390520231215, 1.016815606936417 ], [ 35.4603, 1.0168 ], [ 35.46034576271186, 1.015472881355932 ] ], [ [ 35.4604, 1.0139 ], [ 35.462, 1.0139 ], [ 35.460393482688389, 1.01408900203666 ], [ 35.4604, 1.0139 ] ], [ [ 35.4603, 1.0124 ], [ 35.460561224489794, 1.0122693877551 ], [ 35.462, 1.0139 ], [ 35.4603, 1.0124 ] ], [ [ 35.4688, 1.0128 ], [ 35.466, 1.0138 ], [ 35.468526395939087, 1.012677157360405 ], [ 35.4688, 1.0128 ] ], [ [ 35.4661, 1.0201 ], [ 35.46574, 1.02006 ], [ 35.4663, 1.0191 ], [ 35.4684, 1.0177 ], [ 35.4661, 1.0201 ] ], [ [ 35.7616, -0.1904 ], [ 35.7243, -0.1989 ], [ 35.772, -0.1882 ], [ 35.7616, -0.1904 ] ], [ [ 35.9281, -0.0645 ], [ 35.928119910044977, -0.06466176911544 ], [ 35.9325, -0.0614 ], [ 35.9281, -0.0645 ] ], [ [ 35.970753931252474, -0.008321256420378 ], [ 35.9638, -0.0174 ], [ 35.9707, -0.0085 ], [ 35.970753931252474, -0.008321256420378 ] ], [ [ 35.978436363636362, 0.020109090909104 ], [ 35.978, 0.014 ], [ 35.9786, 0.0191 ], [ 35.978436363636362, 0.020109090909104 ] ], [ [ 35.976, 0.0241 ], [ 35.978239512855211, 0.021323004059534 ], [ 35.978, 0.0228 ], [ 35.976, 0.0241 ] ], [ [ 36.1797, 0.2341 ], [ 36.179746862483306, 0.234020160213616 ], [ 36.179910835694052, 0.234154320113316 ], [ 36.1797, 0.2341 ] ], [ [ 36.0166, -1.802 ], [ 36.0161, -1.7985 ], [ 36.0159, -1.7989 ], [ 36.0166, -1.802 ] ], [ [ 36.017725, -1.79525 ], [ 36.018160323886647, -1.794606477732791 ], [ 36.018, -1.7947 ], [ 36.017725, -1.79525 ] ], [ [ 36.0358, -1.7606 ], [ 36.0355, -1.7571 ], [ 36.033195800933129, -1.753859720062218 ], [ 36.0358, -1.7606 ] ], [ [ 36.032561121856865, -1.752217021276593 ], [ 36.0353, -1.7482 ], [ 36.0324, -1.7518 ], [ 36.032561121856865, -1.752217021276593 ] ], [ [ 36.0411, -1.7332 ], [ 36.0429, -1.7239 ], [ 36.0413, -1.7291 ], [ 36.0411, -1.7332 ] ], [ [ 35.6452, -0.6958 ], [ 35.645412371134022, -0.695269072164948 ], [ 35.6422, -0.6951 ], [ 35.6452, -0.6958 ] ], [ [ 35.672036001850998, -0.652509254974549 ], [ 35.6718, -0.6525 ], [ 35.671395660749504, -0.653259368836296 ], [ 35.672036001850998, -0.652509254974549 ] ] ] } }
]
}
