{
"type": "FeatureCollection",
"name": "northeast_dry_pastoral_boundary",
"crs": { "type": "name", "properties": { "name": "urn:ogc:def:crs:OGC:1.3:CRS84" } },
"features": [
{ "type": "Feature", "properties": { "GID_1": "SOM.4_1", "GID_0": "SOM", "COUNTRY": "Somalia", "NAME_1": "Bari", "VARNAME_1": "NA", "NL_NAME_1": "NA", "TYPE_1": "Gobolka", "ENGTYPE_1": "Region", "CC_1": "NA", "HASC_1": "SO.BR", "ISO_1": "SO-BR" }, "geometry": { "type": "MultiPolygon", "coordinates": [ [ [ [ 47.9366, 8.012 ], [ 47.25, 7.9923 ], [ 47.0088, 7.9854 ], [ 47.0124, 8.0 ], [ 47.1, 8.56 ], [ 47.0, 8.75 ], [ 46.92, 8.76 ], [ 46.15, 8.8 ], [ 46.19, 8.99 ], [ 46.01, 10.08 ], [ 46.0362, 10.771 ], [ 46.0696, 10.7646 ], [ 46.1179, 10.7649 ], [ 46.1565, 10.7712 ], [ 46.1657, 10.7751 ], [ 46.1951, 10.7787 ], [ 46.2021, 10.7818 ], [ 46.2221, 10.7801 ], [ 46.2282, 10.781 ], [ 46.231, 10.7835 ], [ 46.2343, 10.7832 ], [ 46.2579, 10.7712 ], [ 46.2743, 10.7585 ], [ 46.2879, 10.746 ], [ 46.331, 10.699 ], [ 46.3429, 10.6921 ], [ 46.3568, 10.6865 ], [ 46.376, 10.6868 ], [ 46.409, 10.681 ], [ 46.4193, 10.6815 ], [ 46.4207, 10.6801 ], [ 46.4229, 10.6815 ], [ 46.4412, 10.6824 ], [ 46.4607, 10.6865 ], [ 46.4882, 10.6965 ], [ 46.4957, 10.7018 ], [ 46.5004, 10.7026 ], [ 46.5201, 10.7124 ], [ 46.5363, 10.7174 ], [ 46.589, 10.7288 ], [ 46.6126, 10.7282 ], [ 46.621, 10.7312 ], [ 46.6268, 10.7315 ], [ 46.6526, 10.7401 ], [ 46.6707, 10.7487 ], [ 46.6893, 10.7624 ], [ 46.6993, 10.766 ], [ 46.7007, 10.7682 ], [ 46.709, 10.7699 ], [ 46.7179, 10.7749 ], [ 46.7196, 10.7782 ], [ 46.7246, 10.7821 ], [ 46.7446, 10.7893 ], [ 46.7562, 10.7968 ], [ 46.7687, 10.8001 ], [ 46.7774, 10.8051 ], [ 46.7829, 10.8113 ], [ 46.8124, 10.8243 ], [ 46.8204, 10.8349 ], [ 46.8249, 10.8357 ], [ 46.8338, 10.8407 ], [ 46.841, 10.8468 ], [ 46.8446, 10.8529 ], [ 46.8582, 10.8549 ], [ 46.869, 10.8604 ], [ 46.8737, 10.8671 ], [ 46.8774, 10.8685 ], [ 46.886, 10.876 ], [ 46.8896, 10.8837 ], [ 46.8988, 10.8935 ], [ 46.9212, 10.8976 ], [ 46.9263, 10.9018 ], [ 46.931, 10.9163 ], [ 46.9404, 10.9143 ], [ 46.9557, 10.9163 ], [ 46.9651, 10.9188 ], [ 46.9688, 10.9249 ], [ 46.9829, 10.9257 ], [ 46.9868, 10.9288 ], [ 46.9904, 10.9293 ], [ 47.0074, 10.9551 ], [ 47.0076, 10.9599 ], [ 47.0113, 10.9624 ], [ 47.021, 10.9643 ], [ 47.0293, 10.9624 ], [ 47.0438, 10.9635 ], [ 47.0599, 10.974 ], [ 47.0776, 10.9768 ], [ 47.0826, 10.9793 ], [ 47.0854, 10.9832 ], [ 47.0926, 10.9843 ], [ 47.0993, 10.9876 ], [ 47.1029, 10.991 ], [ 47.1085, 11.0013 ], [ 47.1096, 11.0118 ], [ 47.1137, 11.0213 ], [ 47.1196, 11.0265 ], [ 47.1332, 11.0324 ], [ 47.144, 11.0449 ], [ 47.1468, 11.0607 ], [ 47.149, 11.064 ], [ 47.1851, 11.0763 ], [ 47.2021, 11.0804 ], [ 47.2124, 11.0868 ], [ 47.2307, 11.094 ], [ 47.2432, 11.1054 ], [ 47.2621, 11.1171 ], [ 47.2718, 11.1196 ], [ 47.2915, 11.1304 ], [ 47.3001, 11.1304 ], [ 47.3088, 11.1329 ], [ 47.3207, 11.1401 ], [ 47.3249, 11.1446 ], [ 47.3374, 11.1482 ], [ 47.3415, 11.1512 ], [ 47.3735, 11.1599 ], [ 47.3924, 11.1707 ], [ 47.4096, 11.1746 ], [ 47.4113, 11.1779 ], [ 47.4179, 11.1782 ], [ 47.4329, 11.1743 ], [ 47.444, 11.1743 ], [ 47.451, 11.1751 ], [ 47.4512, 11.1774 ], [ 47.4535, 11.1785 ], [ 47.4637, 11.1787 ], [ 47.4749, 11.1815 ], [ 47.4912, 11.1818 ], [ 47.5065, 11.184 ], [ 47.531, 11.1835 ], [ 47.5385, 11.1818 ], [ 47.5485, 11.1774 ], [ 47.5601, 11.1696 ], [ 47.5793, 11.1524 ], [ 47.616, 11.1265 ], [ 47.6296, 11.1151 ], [ 47.6357, 11.1151 ], [ 47.6413, 11.1124 ], [ 47.6682, 11.0954 ], [ 47.6985, 11.0899 ], [ 47.7174, 11.0957 ], [ 47.7238, 11.0999 ], [ 47.7301, 11.1001 ], [ 47.744, 11.1074 ], [ 47.7538, 11.1093 ], [ 47.7643, 11.1151 ], [ 47.7924, 11.1193 ], [ 47.7957, 11.1229 ], [ 47.8051, 11.1182 ], [ 47.8146, 11.1185 ], [ 47.8385, 11.1154 ], [ 47.8587, 11.1154 ], [ 47.8707, 11.1132 ], [ 47.8901, 11.1146 ], [ 47.8979, 11.1171 ], [ 47.9051, 11.1224 ], [ 47.9121, 11.1237 ], [ 47.9171, 11.1274 ], [ 47.9482, 11.116 ], [ 47.961, 11.1149 ], [ 47.984, 11.1182 ], [ 48.0187, 11.1174 ], [ 48.0276, 11.1196 ], [ 48.0351, 11.119 ], [ 48.0526, 11.1279 ], [ 48.0793, 11.1257 ], [ 48.0946, 11.131 ], [ 48.114, 11.1274 ], [ 48.1393, 11.1257 ], [ 48.1565, 11.1324 ], [ 48.1679, 11.1407 ], [ 48.1907, 11.1615 ], [ 48.1932, 11.1621 ], [ 48.1999, 11.1699 ], [ 48.2001, 11.1721 ], [ 48.2113, 11.1829 ], [ 48.2287, 11.1929 ], [ 48.2335, 11.2013 ], [ 48.2388, 11.2057 ], [ 48.2524, 11.2096 ], [ 48.2738, 11.2118 ], [ 48.3054, 11.2226 ], [ 48.3204, 11.2337 ], [ 48.3224, 11.2393 ], [ 48.3285, 11.2421 ], [ 48.3329, 11.2463 ], [ 48.3449, 11.261 ], [ 48.3493, 11.2638 ], [ 48.3546, 11.2701 ], [ 48.3838, 11.2743 ], [ 48.3949, 11.2832 ], [ 48.4001, 11.2843 ], [ 48.4124, 11.2849 ], [ 48.4435, 11.2818 ], [ 48.4757, 11.2851 ], [ 48.4876, 11.2907 ], [ 48.4924, 11.2951 ], [ 48.4999, 11.2979 ], [ 48.5132, 11.3071 ], [ 48.526, 11.3104 ], [ 48.5643, 11.3104 ], [ 48.5788, 11.3088 ], [ 48.5799, 11.3065 ], [ 48.5815, 11.309 ], [ 48.5974, 11.3085 ], [ 48.6154, 11.3124 ], [ 48.6332, 11.3201 ], [ 48.6451, 11.3204 ], [ 48.6493, 11.3235 ], [ 48.6546, 11.3237 ], [ 48.6582, 11.3257 ], [ 48.6649, 11.3221 ], [ 48.674, 11.321 ], [ 48.6951, 11.314 ], [ 48.7001, 11.311 ], [ 48.7762, 11.2915 ], [ 48.7999, 11.281 ], [ 48.8157, 11.276 ], [ 48.8312, 11.2671 ], [ 48.8632, 11.2568 ], [ 48.8688, 11.2537 ], [ 48.8688, 11.2504 ], [ 48.8796, 11.2465 ], [ 48.8696, 11.2515 ], [ 48.8729, 11.2521 ], [ 48.9065, 11.2415 ], [ 48.9229, 11.2401 ], [ 48.9351, 11.2413 ], [ 48.9551, 11.2404 ], [ 48.9793, 11.244 ], [ 48.9951, 11.2485 ], [ 49.0088, 11.2551 ], [ 49.0318, 11.2587 ], [ 49.034, 11.2521 ], [ 49.0404, 11.2476 ], [ 49.0351, 11.2546 ], [ 49.0349, 11.2593 ], [ 49.0621, 11.2679 ], [ 49.0971, 11.274 ], [ 49.1079, 11.2774 ], [ 49.1338, 11.2796 ], [ 49.1471, 11.2835 ], [ 49.1635, 11.2857 ], [ 49.1707, 11.2896 ], [ 49.1776, 11.2874 ], [ 49.1807, 11.2893 ], [ 49.1776, 11.2924 ], [ 49.1813, 11.2921 ], [ 49.1838, 11.2899 ], [ 49.189, 11.2904 ], [ 49.1893, 11.2915 ], [ 49.2104, 11.2943 ], [ 49.2126, 11.2976 ], [ 49.2285, 11.2985 ], [ 49.2596, 11.3057 ], [ 49.2732, 11.3118 ], [ 49.2868, 11.3229 ], [ 49.2924, 11.3254 ], [ 49.3024, 11.3371 ], [ 49.3099, 11.3343 ], [ 49.3288, 11.3315 ], [ 49.3568, 11.3326 ], [ 49.386, 11.331 ], [ 49.4215, 11.336 ], [ 49.4343, 11.3401 ], [ 49.4454, 11.3468 ], [ 49.4468, 11.3499 ], [ 49.4463, 11.3538 ], [ 49.449, 11.3582 ], [ 49.4629, 11.3593 ], [ 49.4718, 11.3638 ], [ 49.4738, 11.366 ], [ 49.4757, 11.3754 ], [ 49.4893, 11.3754 ], [ 49.5085, 11.3818 ], [ 49.5271, 11.4024 ], [ 49.5385, 11.421 ], [ 49.5471, 11.4393 ], [ 49.5551, 11.449 ], [ 49.5612, 11.4493 ], [ 49.5715, 11.454 ], [ 49.5785, 11.4537 ], [ 49.581, 11.4563 ], [ 49.5843, 11.4549 ], [ 49.596, 11.4557 ], [ 49.6018, 11.4543 ], [ 49.6037, 11.4576 ], [ 49.6079, 11.459 ], [ 49.6199, 11.4557 ], [ 49.6276, 11.4571 ], [ 49.6343, 11.4604 ], [ 49.6457, 11.4587 ], [ 49.6535, 11.4596 ], [ 49.6613, 11.4621 ], [ 49.671, 11.469 ], [ 49.6754, 11.4704 ], [ 49.679, 11.4765 ], [ 49.6832, 11.479 ], [ 49.6929, 11.4785 ], [ 49.6957, 11.4801 ], [ 49.7051, 11.4754 ], [ 49.7068, 11.4732 ], [ 49.7204, 11.4676 ], [ 49.729, 11.4674 ], [ 49.7401, 11.4621 ], [ 49.7537, 11.4587 ], [ 49.774, 11.4585 ], [ 49.8004, 11.4607 ], [ 49.8276, 11.4601 ], [ 49.8593, 11.4685 ], [ 49.8699, 11.4746 ], [ 49.8796, 11.4774 ], [ 49.9179, 11.5043 ], [ 49.9299, 11.4957 ], [ 49.936, 11.496 ], [ 49.9379, 11.4943 ], [ 49.939, 11.4851 ], [ 49.9424, 11.4835 ], [ 49.9393, 11.4876 ], [ 49.939, 11.4954 ], [ 49.9265, 11.4993 ], [ 49.9251, 11.5051 ], [ 49.9265, 11.5079 ], [ 49.9343, 11.5096 ], [ 49.936, 11.5124 ], [ 49.9407, 11.5126 ], [ 49.9463, 11.5157 ], [ 49.9626, 11.5104 ], [ 50.0026, 11.5024 ], [ 50.0093, 11.5021 ], [ 50.0154, 11.5046 ], [ 50.0285, 11.5037 ], [ 50.0462, 11.5071 ], [ 50.0485, 11.5043 ], [ 50.0574, 11.5043 ], [ 50.0624, 11.5074 ], [ 50.0713, 11.5054 ], [ 50.0799, 11.5118 ], [ 50.0896, 11.5168 ], [ 50.0938, 11.5174 ], [ 50.0946, 11.5199 ], [ 50.0971, 11.5201 ], [ 50.099, 11.5226 ], [ 50.1049, 11.5229 ], [ 50.1063, 11.5257 ], [ 50.1074, 11.5249 ], [ 50.1076, 11.5276 ], [ 50.1207, 11.5343 ], [ 50.1213, 11.5371 ], [ 50.1246, 11.5404 ], [ 50.136, 11.5404 ], [ 50.1396, 11.5432 ], [ 50.1435, 11.5432 ], [ 50.146, 11.5457 ], [ 50.1465, 11.5493 ], [ 50.1512, 11.5518 ], [ 50.1935, 11.5629 ], [ 50.2099, 11.5649 ], [ 50.2163, 11.5679 ], [ 50.2188, 11.5665 ], [ 50.2268, 11.5743 ], [ 50.2271, 11.5771 ], [ 50.2318, 11.5768 ], [ 50.2346, 11.5799 ], [ 50.2365, 11.5782 ], [ 50.2479, 11.579 ], [ 50.2521, 11.5824 ], [ 50.264, 11.5846 ], [ 50.2796, 11.5962 ], [ 50.286, 11.6026 ], [ 50.2871, 11.6065 ], [ 50.2918, 11.6071 ], [ 50.294, 11.6124 ], [ 50.2962, 11.6126 ], [ 50.2979, 11.6157 ], [ 50.3024, 11.6179 ], [ 50.3051, 11.6168 ], [ 50.311, 11.6176 ], [ 50.3215, 11.6224 ], [ 50.3235, 11.6218 ], [ 50.351, 11.6365 ], [ 50.3646, 11.6415 ], [ 50.3688, 11.6457 ], [ 50.3787, 11.6496 ], [ 50.3868, 11.6557 ], [ 50.4157, 11.664 ], [ 50.4446, 11.6818 ], [ 50.4854, 11.7215 ], [ 50.4982, 11.7382 ], [ 50.5035, 11.749 ], [ 50.5096, 11.7571 ], [ 50.5229, 11.7863 ], [ 50.5221, 11.7876 ], [ 50.5199, 11.7871 ], [ 50.5207, 11.7918 ], [ 50.5224, 11.7935 ], [ 50.5251, 11.7924 ], [ 50.5262, 11.7963 ], [ 50.5293, 11.7974 ], [ 50.5299, 11.8038 ], [ 50.5351, 11.8104 ], [ 50.5349, 11.819 ], [ 50.5376, 11.821 ], [ 50.5396, 11.8282 ], [ 50.5387, 11.8346 ], [ 50.5268, 11.7996 ], [ 50.5249, 11.7985 ], [ 50.5365, 11.8346 ], [ 50.539, 11.8496 ], [ 50.5451, 11.8701 ], [ 50.5515, 11.8835 ], [ 50.569, 11.9029 ], [ 50.5921, 11.921 ], [ 50.6015, 11.9265 ], [ 50.6065, 11.9285 ], [ 50.6193, 11.929 ], [ 50.6263, 11.9324 ], [ 50.6274, 11.9365 ], [ 50.6257, 11.9396 ], [ 50.6263, 11.9407 ], [ 50.6276, 11.9399 ], [ 50.6271, 11.9415 ], [ 50.6301, 11.9435 ], [ 50.6429, 11.9429 ], [ 50.6782, 11.9357 ], [ 50.6912, 11.9399 ], [ 50.7032, 11.9479 ], [ 50.7246, 11.9582 ], [ 50.7526, 11.9646 ], [ 50.7657, 11.9715 ], [ 50.7732, 11.9779 ], [ 50.7749, 11.9757 ], [ 50.7779, 11.9757 ], [ 50.7801, 11.9768 ], [ 50.7804, 11.979 ], [ 50.7865, 11.9801 ], [ 50.7854, 11.9829 ], [ 50.7824, 11.9815 ], [ 50.7815, 11.9843 ], [ 50.781, 11.9807 ], [ 50.7782, 11.9776 ], [ 50.7746, 11.9785 ], [ 50.7721, 11.9807 ], [ 50.7751, 11.9812 ], [ 50.7754, 11.9849 ], [ 50.7871, 11.9854 ], [ 50.7876, 11.9865 ], [ 50.7751, 11.986 ], [ 50.7632, 11.9735 ], [ 50.774, 11.9885 ], [ 50.7951, 11.9882 ], [ 50.8021, 11.9846 ], [ 50.8176, 11.9721 ], [ 50.8149, 11.9646 ], [ 50.8068, 11.9612 ], [ 50.8124, 11.9618 ], [ 50.8162, 11.9646 ], [ 50.8193, 11.9701 ], [ 50.8213, 11.9699 ], [ 50.8493, 11.9496 ], [ 50.8457, 11.9404 ], [ 50.8512, 11.9488 ], [ 50.8618, 11.946 ], [ 50.8799, 11.9446 ], [ 50.8971, 11.941 ], [ 50.9224, 11.9321 ], [ 50.9532, 11.9265 ], [ 50.9657, 11.9215 ], [ 50.9751, 11.9199 ], [ 50.9971, 11.9051 ], [ 51.0179, 11.8946 ], [ 51.0488, 11.8749 ], [ 51.0529, 11.8751 ], [ 51.0579, 11.8718 ], [ 51.0685, 11.8704 ], [ 51.0726, 11.8743 ], [ 51.0899, 11.8707 ], [ 51.1032, 11.8707 ], [ 51.1068, 11.8726 ], [ 51.1196, 11.8709 ], [ 51.1329, 11.8737 ], [ 51.1435, 11.8732 ], [ 51.1526, 11.8699 ], [ 51.1624, 11.8629 ], [ 51.1862, 11.8504 ], [ 51.2149, 11.8462 ], [ 51.2257, 11.839 ], [ 51.2282, 11.8393 ], [ 51.2385, 11.8349 ], [ 51.2526, 11.8379 ], [ 51.2607, 11.8421 ], [ 51.2735, 11.8426 ], [ 51.279, 11.8413 ], [ 51.286, 11.8365 ], [ 51.289, 11.8304 ], [ 51.2887, 11.8215 ], [ 51.286, 11.8146 ], [ 51.2857, 11.809 ], [ 51.2765, 11.7896 ], [ 51.2743, 11.7885 ], [ 51.2676, 11.7751 ], [ 51.261, 11.7674 ], [ 51.2582, 11.7543 ], [ 51.2588, 11.749 ], [ 51.2607, 11.7474 ], [ 51.2588, 11.744 ], [ 51.2596, 11.7351 ], [ 51.2543, 11.7276 ], [ 51.2546, 11.7257 ], [ 51.2504, 11.7229 ], [ 51.2471, 11.7163 ], [ 51.2496, 11.7051 ], [ 51.2562, 11.6918 ], [ 51.2568, 11.679 ], [ 51.2537, 11.6746 ], [ 51.2537, 11.6715 ], [ 51.249, 11.6682 ], [ 51.2485, 11.6635 ], [ 51.2446, 11.6601 ], [ 51.2415, 11.6512 ], [ 51.2396, 11.649 ], [ 51.2349, 11.6476 ], [ 51.2276, 11.6401 ], [ 51.2246, 11.6285 ], [ 51.2179, 11.6257 ], [ 51.204, 11.6143 ], [ 51.2015, 11.6099 ], [ 51.1957, 11.6057 ], [ 51.1946, 11.6038 ], [ 51.1954, 11.5993 ], [ 51.1926, 11.5946 ], [ 51.1821, 11.5871 ], [ 51.1782, 11.5804 ], [ 51.1721, 11.5751 ], [ 51.1712, 11.5715 ], [ 51.1643, 11.5668 ], [ 51.1637, 11.5621 ], [ 51.139, 11.5226 ], [ 51.1357, 11.5143 ], [ 51.1246, 11.5004 ], [ 51.1221, 11.4899 ], [ 51.1249, 11.4846 ], [ 51.1246, 11.4796 ], [ 51.1279, 11.4679 ], [ 51.1279, 11.4543 ], [ 51.1257, 11.4487 ], [ 51.126, 11.4446 ], [ 51.1185, 11.4157 ], [ 51.1157, 11.4104 ], [ 51.1146, 11.4015 ], [ 51.1099, 11.3949 ], [ 51.1035, 11.3776 ], [ 51.0962, 11.3657 ], [ 51.094, 11.3546 ], [ 51.0832, 11.3274 ], [ 51.0815, 11.3179 ], [ 51.0821, 11.2921 ], [ 51.0779, 11.2718 ], [ 51.0774, 11.2399 ], [ 51.0804, 11.2168 ], [ 51.0868, 11.1965 ], [ 51.0946, 11.1804 ], [ 51.1107, 11.1607 ], [ 51.1232, 11.1571 ], [ 51.1599, 11.1515 ], [ 51.1413, 11.1512 ], [ 51.1371, 11.1532 ], [ 51.1188, 11.154 ], [ 51.1071, 11.1613 ], [ 51.104, 11.1613 ], [ 51.1037, 11.1599 ], [ 51.1143, 11.1537 ], [ 51.1146, 11.1504 ], [ 51.1193, 11.1468 ], [ 51.1399, 11.1382 ], [ 51.1479, 11.1385 ], [ 51.1504, 11.1426 ], [ 51.1546, 11.1451 ], [ 51.1649, 11.146 ], [ 51.1704, 11.1488 ], [ 51.1757, 11.1546 ], [ 51.1835, 11.1443 ], [ 51.1815, 11.1365 ], [ 51.1782, 11.1329 ], [ 51.1754, 11.1243 ], [ 51.164, 11.1076 ], [ 51.1538, 11.0843 ], [ 51.1499, 11.079 ], [ 51.1437, 11.0599 ], [ 51.1332, 11.0346 ], [ 51.1274, 11.0107 ], [ 51.1213, 10.9701 ], [ 51.1196, 10.9315 ], [ 51.1207, 10.9307 ], [ 51.1215, 10.8976 ], [ 51.1257, 10.876 ], [ 51.1288, 10.8071 ], [ 51.1321, 10.7787 ], [ 51.1318, 10.7376 ], [ 51.1304, 10.7346 ], [ 51.129, 10.7132 ], [ 51.131, 10.6857 ], [ 51.1346, 10.6729 ], [ 51.1368, 10.6721 ], [ 51.1393, 10.6676 ], [ 51.144, 10.6665 ], [ 51.1482, 10.6624 ], [ 51.1479, 10.6588 ], [ 51.1465, 10.6593 ], [ 51.146, 10.6629 ], [ 51.1421, 10.666 ], [ 51.1399, 10.666 ], [ 51.1443, 10.6629 ], [ 51.1426, 10.6596 ], [ 51.1479, 10.6574 ], [ 51.146, 10.6543 ], [ 51.1476, 10.6538 ], [ 51.1476, 10.6446 ], [ 51.1512, 10.6232 ], [ 51.1613, 10.5954 ], [ 51.1704, 10.5821 ], [ 51.1707, 10.5713 ], [ 51.1696, 10.5679 ], [ 51.1587, 10.5638 ], [ 51.124, 10.5607 ], [ 51.1235, 10.5585 ], [ 51.1146, 10.5568 ], [ 51.109, 10.5532 ], [ 51.1051, 10.5482 ], [ 51.106, 10.5424 ], [ 51.1121, 10.5401 ], [ 51.1096, 10.5357 ], [ 51.1068, 10.5354 ], [ 51.1054, 10.5293 ], [ 51.1035, 10.5282 ], [ 51.0876, 10.5285 ], [ 51.084, 10.526 ], [ 51.0788, 10.5182 ], [ 51.0751, 10.5163 ], [ 51.0743, 10.5113 ], [ 51.0768, 10.5093 ], [ 51.0793, 10.4949 ], [ 51.0768, 10.4935 ], [ 51.0713, 10.484 ], [ 51.069, 10.484 ], [ 51.0563, 10.4749 ], [ 51.0576, 10.4729 ], [ 51.0521, 10.469 ], [ 51.0518, 10.4671 ], [ 51.0485, 10.466 ], [ 51.0438, 10.4674 ], [ 51.0354, 10.461 ], [ 51.0329, 10.461 ], [ 51.0324, 10.4524 ], [ 51.0246, 10.4424 ], [ 51.0221, 10.4332 ], [ 51.0226, 10.431 ], [ 51.0321, 10.424 ], [ 51.0238, 10.4215 ], [ 51.0285, 10.4179 ], [ 51.0343, 10.4171 ], [ 51.0246, 10.4154 ], [ 51.0293, 10.4099 ], [ 51.0376, 10.4049 ], [ 51.0443, 10.4049 ], [ 51.0482, 10.4065 ], [ 51.0501, 10.4085 ], [ 51.0501, 10.4115 ], [ 51.0565, 10.4157 ], [ 51.0762, 10.4188 ], [ 51.0765, 10.421 ], [ 51.0788, 10.4201 ], [ 51.0799, 10.4215 ], [ 51.0854, 10.4215 ], [ 51.0915, 10.4237 ], [ 51.1007, 10.424 ], [ 51.1101, 10.4282 ], [ 51.126, 10.429 ], [ 51.1396, 10.4321 ], [ 51.1524, 10.4315 ], [ 51.1668, 10.4332 ], [ 51.1937, 10.434 ], [ 51.2349, 10.4324 ], [ 51.2368, 10.4368 ], [ 51.2357, 10.4454 ], [ 51.231, 10.4465 ], [ 51.2301, 10.4487 ], [ 51.2254, 10.4504 ], [ 51.2218, 10.4565 ], [ 51.2132, 10.4632 ], [ 51.2107, 10.4671 ], [ 51.2004, 10.4729 ], [ 51.1988, 10.4793 ], [ 51.1971, 10.4799 ], [ 51.1965, 10.4974 ], [ 51.2018, 10.499 ], [ 51.201, 10.5054 ], [ 51.2032, 10.5074 ], [ 51.2046, 10.5124 ], [ 51.204, 10.5151 ], [ 51.2001, 10.5163 ], [ 51.2015, 10.5243 ], [ 51.2004, 10.5243 ], [ 51.2001, 10.5285 ], [ 51.1935, 10.5335 ], [ 51.1949, 10.5343 ], [ 51.2115, 10.5271 ], [ 51.2188, 10.5274 ], [ 51.2238, 10.5235 ], [ 51.2246, 10.5199 ], [ 51.2293, 10.5154 ], [ 51.2329, 10.5143 ], [ 51.2382, 10.5085 ], [ 51.2499, 10.504 ], [ 51.2615, 10.4957 ], [ 51.2713, 10.4951 ], [ 51.2879, 10.486 ], [ 51.2921, 10.4826 ], [ 51.2924, 10.4801 ], [ 51.2954, 10.4787 ], [ 51.3035, 10.4765 ], [ 51.3082, 10.4771 ], [ 51.3099, 10.4757 ], [ 51.314, 10.4765 ], [ 51.3268, 10.4715 ], [ 51.3335, 10.4729 ], [ 51.3387, 10.4765 ], [ 51.3427, 10.4765 ], [ 51.3462, 10.4812 ], [ 51.3507, 10.4826 ], [ 51.3654, 10.4832 ], [ 51.3926, 10.4782 ], [ 51.3943, 10.4682 ], [ 51.3988, 10.4626 ], [ 51.3982, 10.4613 ], [ 51.4012, 10.4563 ], [ 51.4157, 10.4446 ], [ 51.4154, 10.4413 ], [ 51.4113, 10.436 ], [ 51.4115, 10.4304 ], [ 51.4065, 10.4204 ], [ 51.4065, 10.4154 ], [ 51.3993, 10.4085 ], [ 51.3951, 10.396 ], [ 51.3926, 10.3915 ], [ 51.3887, 10.3896 ], [ 51.3865, 10.3815 ], [ 51.3846, 10.3804 ], [ 51.3849, 10.384 ], [ 51.3815, 10.3854 ], [ 51.3749, 10.3826 ], [ 51.3743, 10.376 ], [ 51.3765, 10.3746 ], [ 51.376, 10.3712 ], [ 51.3779, 10.3687 ], [ 51.3776, 10.3657 ], [ 51.3751, 10.3632 ], [ 51.3715, 10.3696 ], [ 51.3626, 10.3704 ], [ 51.3615, 10.3679 ], [ 51.3607, 10.3701 ], [ 51.359, 10.3701 ], [ 51.3574, 10.3668 ], [ 51.3549, 10.3671 ], [ 51.3532, 10.3699 ], [ 51.3515, 10.3699 ], [ 51.3499, 10.374 ], [ 51.3407, 10.3776 ], [ 51.3246, 10.3743 ], [ 51.3182, 10.376 ], [ 51.2929, 10.3721 ], [ 51.2851, 10.3749 ], [ 51.2832, 10.3776 ], [ 51.2729, 10.3763 ], [ 51.2718, 10.3746 ], [ 51.2657, 10.3846 ], [ 51.2682, 10.3876 ], [ 51.2668, 10.3938 ], [ 51.269, 10.4032 ], [ 51.271, 10.4029 ], [ 51.2724, 10.4051 ], [ 51.271, 10.4065 ], [ 51.2724, 10.4088 ], [ 51.2721, 10.4132 ], [ 51.2682, 10.4174 ], [ 51.2657, 10.4146 ], [ 51.2654, 10.4204 ], [ 51.2618, 10.4196 ], [ 51.2479, 10.4243 ], [ 51.2113, 10.4243 ], [ 51.1829, 10.4218 ], [ 51.1124, 10.4115 ], [ 51.0601, 10.3996 ], [ 51.0243, 10.3874 ], [ 50.9324, 10.3407 ], [ 50.9132, 10.3271 ], [ 50.901, 10.316 ], [ 50.8985, 10.3115 ], [ 50.8976, 10.3038 ], [ 50.8976, 10.2851 ], [ 50.8968, 10.2746 ], [ 50.8951, 10.2713 ], [ 50.8949, 10.2551 ], [ 50.8965, 10.2465 ], [ 50.8963, 10.2326 ], [ 50.8993, 10.216 ], [ 50.9035, 10.2043 ], [ 50.9032, 10.176 ], [ 50.9024, 10.1743 ], [ 50.899, 10.1754 ], [ 50.9004, 10.1738 ], [ 50.8999, 10.1685 ], [ 50.9015, 10.1615 ], [ 50.8963, 10.144 ], [ 50.8965, 10.1368 ], [ 50.8876, 10.1146 ], [ 50.8857, 10.0957 ], [ 50.8882, 10.0876 ], [ 50.8874, 10.0768 ], [ 50.8899, 10.066 ], [ 50.8896, 10.0588 ], [ 50.8932, 10.0538 ], [ 50.8926, 10.0435 ], [ 50.8982, 10.0357 ], [ 50.8965, 10.0343 ], [ 50.899, 10.0254 ], [ 50.8959, 10.0154 ], [ 50.8996, 10.0068 ], [ 50.8982, 10.0021 ], [ 50.8946, 9.9999 ], [ 50.8954, 9.9982 ], [ 50.9007, 9.9982 ], [ 50.9021, 9.9954 ], [ 50.9007, 9.9921 ], [ 50.8954, 9.9896 ], [ 50.8951, 9.9843 ], [ 50.8937, 9.9843 ], [ 50.8885, 9.9749 ], [ 50.8868, 9.9668 ], [ 50.8843, 9.9635 ], [ 50.8843, 9.9496 ], [ 50.8857, 9.9479 ], [ 50.8799, 9.9393 ], [ 50.881, 9.9357 ], [ 50.8801, 9.931 ], [ 50.8785, 9.9296 ], [ 50.8796, 9.926 ], [ 50.8785, 9.9174 ], [ 50.8737, 9.9018 ], [ 50.8693, 9.8954 ], [ 50.8685, 9.8862 ], [ 50.8704, 9.8813 ], [ 50.8674, 9.8804 ], [ 50.8671, 9.8768 ], [ 50.8621, 9.8699 ], [ 50.8624, 9.8682 ], [ 50.8551, 9.8612 ], [ 50.8457, 9.8588 ], [ 50.8512, 9.8574 ], [ 50.8535, 9.8493 ], [ 50.8521, 9.8382 ], [ 50.8465, 9.8251 ], [ 50.8468, 9.8057 ], [ 50.8429, 9.7988 ], [ 50.8429, 9.7796 ], [ 50.8399, 9.7757 ], [ 50.8385, 9.7654 ], [ 50.8329, 9.756 ], [ 50.8343, 9.7438 ], [ 50.8376, 9.741 ], [ 50.8354, 9.7318 ], [ 50.8329, 9.7285 ], [ 50.834, 9.726 ], [ 50.8332, 9.7168 ], [ 50.8299, 9.7107 ], [ 50.8315, 9.7054 ], [ 50.8293, 9.7001 ], [ 50.8312, 9.6974 ], [ 50.8312, 9.6935 ], [ 50.829, 9.6824 ], [ 50.8251, 9.6768 ], [ 50.8229, 9.6765 ], [ 50.8221, 9.6674 ], [ 50.8237, 9.6687 ], [ 50.8257, 9.6632 ], [ 50.8243, 9.6585 ], [ 50.8251, 9.6538 ], [ 50.8237, 9.6535 ], [ 50.8176, 9.6376 ], [ 50.8154, 9.6343 ], [ 50.8129, 9.634 ], [ 50.8138, 9.6299 ], [ 50.8107, 9.6251 ], [ 50.8074, 9.6121 ], [ 50.8085, 9.6018 ], [ 50.8043, 9.594 ], [ 50.8026, 9.5851 ], [ 50.8007, 9.556 ], [ 50.8029, 9.554 ], [ 50.8026, 9.5499 ], [ 50.8046, 9.5471 ], [ 50.804, 9.5365 ], [ 50.806, 9.5324 ], [ 50.8054, 9.526 ], [ 50.8024, 9.5188 ], [ 50.8051, 9.5162 ], [ 50.8104, 9.5032 ], [ 50.8126, 9.5026 ], [ 50.8154, 9.494 ], [ 50.8213, 9.4854 ], [ 50.829, 9.4807 ], [ 50.8321, 9.4812 ], [ 50.8376, 9.479 ], [ 50.8379, 9.4776 ], [ 50.844, 9.4763 ], [ 50.8471, 9.4685 ], [ 50.8446, 9.4526 ], [ 50.8326, 9.4307 ], [ 50.8282, 9.4174 ], [ 50.8007, 9.371 ], [ 50.7935, 9.3629 ], [ 50.7863, 9.3512 ], [ 50.7782, 9.3446 ], [ 50.7785, 9.3407 ], [ 50.776, 9.3399 ], [ 50.7643, 9.3174 ], [ 50.7546, 9.3079 ], [ 50.7549, 9.3043 ], [ 50.7482, 9.2949 ], [ 50.7329, 9.2857 ], [ 50.7196, 9.281 ], [ 50.7132, 9.2751 ], [ 50.7101, 9.2751 ], [ 50.7082, 9.2718 ], [ 50.7062, 9.2718 ], [ 50.7038, 9.2624 ], [ 50.6993, 9.2601 ], [ 50.6915, 9.2476 ], [ 50.681, 9.2363 ], [ 50.6757, 9.2335 ], [ 50.6749, 9.2307 ], [ 50.6718, 9.2288 ], [ 50.6712, 9.2257 ], [ 50.6593, 9.2124 ], [ 50.6549, 9.204 ], [ 50.6529, 9.1962 ], [ 50.6504, 9.196 ], [ 50.6493, 9.194 ], [ 50.6446, 9.1793 ], [ 50.6449, 9.1618 ], [ 50.6493, 9.146 ], [ 50.6532, 9.1407 ], [ 50.6518, 9.1351 ], [ 50.6515, 9.1254 ], [ 50.6526, 9.124 ], [ 50.649, 9.1076 ], [ 50.6476, 9.0915 ], [ 50.636, 9.0705 ], [ 50.6193, 9.0518 ], [ 50.6118, 9.0476 ], [ 50.6085, 9.0474 ], [ 50.6024, 9.0413 ], [ 50.5879, 9.0337 ], [ 50.5851, 9.0251 ], [ 50.5776, 9.0138 ], [ 50.5718, 9.0076 ], [ 50.5651, 9.0035 ], [ 50.5635, 8.999 ], [ 50.554, 8.991 ], [ 50.5488, 8.9888 ], [ 50.5426, 8.9812 ], [ 50.5262, 8.9721 ], [ 50.5157, 8.9607 ], [ 50.5137, 8.9618 ], [ 50.5088, 8.9587 ], [ 50.496, 8.9429 ], [ 50.4912, 8.9412 ], [ 50.484, 8.9329 ], [ 50.476, 8.9271 ], [ 50.4715, 8.9193 ], [ 50.4665, 8.9154 ], [ 50.4654, 8.9118 ], [ 50.4588, 8.9071 ], [ 50.4557, 8.9024 ], [ 50.4535, 8.9029 ], [ 50.4463, 8.8988 ], [ 50.4474, 8.8932 ], [ 50.4451, 8.8865 ], [ 50.4332, 8.8726 ], [ 50.4268, 8.8607 ], [ 50.4199, 8.8549 ], [ 50.4118, 8.8296 ], [ 50.4099, 8.8099 ], [ 50.4113, 8.7993 ], [ 50.4063, 8.7768 ], [ 50.394, 8.7546 ], [ 50.3882, 8.7362 ], [ 50.3879, 8.7207 ], [ 50.3854, 8.7037 ], [ 50.3776, 8.6901 ], [ 50.3743, 8.6893 ], [ 50.3743, 8.6874 ], [ 50.3715, 8.6851 ], [ 50.3682, 8.6849 ], [ 50.3629, 8.6815 ], [ 50.3574, 8.6721 ], [ 50.3504, 8.6651 ], [ 50.3504, 8.6621 ], [ 50.3451, 8.6568 ], [ 50.3418, 8.6488 ], [ 50.3363, 8.6413 ], [ 50.3321, 8.6279 ], [ 50.331, 8.6199 ], [ 50.3293, 8.6185 ], [ 50.3299, 8.6126 ], [ 50.3274, 8.5985 ], [ 50.3296, 8.5868 ], [ 50.3274, 8.5837 ], [ 50.3321, 8.5837 ], [ 50.3338, 8.5804 ], [ 50.3354, 8.5707 ], [ 50.334, 8.5676 ], [ 50.3349, 8.5588 ], [ 50.3335, 8.5521 ], [ 50.3226, 8.5268 ], [ 50.321, 8.5262 ], [ 50.3204, 8.5221 ], [ 50.3157, 8.5132 ], [ 50.3093, 8.5074 ], [ 50.2999, 8.4926 ], [ 50.2935, 8.4888 ], [ 50.2843, 8.4776 ], [ 50.2707, 8.4649 ], [ 50.2588, 8.4568 ], [ 50.2385, 8.4349 ], [ 50.2318, 8.4229 ], [ 50.231, 8.4129 ], [ 50.2274, 8.406 ], [ 50.2082, 8.3899 ], [ 50.2065, 8.3862 ], [ 50.1993, 8.379 ], [ 50.191, 8.3646 ], [ 50.1854, 8.3521 ], [ 50.186, 8.3482 ], [ 50.1835, 8.3468 ], [ 50.1851, 8.3429 ], [ 50.1821, 8.3413 ], [ 50.1851, 8.3401 ], [ 50.186, 8.3371 ], [ 50.1838, 8.3324 ], [ 50.1724, 8.3276 ], [ 50.1782, 8.3299 ], [ 50.1685, 8.3235 ], [ 50.1632, 8.3157 ], [ 50.1576, 8.306 ], [ 50.1565, 8.2968 ], [ 50.1532, 8.2893 ], [ 50.1493, 8.2851 ], [ 50.1493, 8.2818 ], [ 50.1465, 8.2788 ], [ 50.1488, 8.2746 ], [ 50.1454, 8.2482 ], [ 50.1407, 8.2413 ], [ 50.1365, 8.229 ], [ 50.1335, 8.2043 ], [ 50.1301, 8.1965 ], [ 50.1265, 8.1924 ], [ 50.1132, 8.1793 ], [ 50.1051, 8.1746 ], [ 50.0965, 8.166 ], [ 50.0915, 8.1637 ], [ 50.0785, 8.1488 ], [ 50.0662, 8.1382 ], [ 50.0424, 8.1288 ], [ 50.0387, 8.126 ], [ 50.0315, 8.1249 ], [ 50.0104, 8.109 ], [ 49.9996, 8.1046 ], [ 49.9987, 8.1015 ], [ 49.9951, 8.1007 ], [ 49.9871, 8.0951 ], [ 49.9707, 8.0821 ], [ 49.9599, 8.0685 ], [ 49.9518, 8.0643 ], [ 49.9518, 8.0618 ], [ 49.9476, 8.0568 ], [ 49.9362, 8.0501 ], [ 49.9371, 8.0474 ], [ 49.9329, 8.0413 ], [ 49.919, 8.0315 ], [ 49.9176, 8.0268 ], [ 49.914, 8.0246 ], [ 49.8985, 8.004 ], [ 49.8926, 8.0015 ], [ 49.8832, 7.991 ], [ 49.8776, 7.9893 ], [ 49.8679, 7.9787 ], [ 49.8626, 7.9751 ], [ 49.8557, 7.9732 ], [ 49.8532, 7.969 ], [ 49.8501, 7.9679 ], [ 49.8182, 7.9201 ], [ 49.8185, 7.9151 ], [ 49.8129, 7.9062 ], [ 49.8115, 7.8915 ], [ 49.8093, 7.8899 ], [ 49.8099, 7.8863 ], [ 49.8079, 7.8821 ], [ 49.8088, 7.8765 ], [ 49.8054, 7.8574 ], [ 49.806, 7.846 ], [ 49.8043, 7.8421 ], [ 49.8046, 7.8263 ], [ 49.806, 7.8201 ], [ 49.8096, 7.8157 ], [ 49.8129, 7.8146 ], [ 49.8126, 7.8082 ], [ 49.8171, 7.7974 ], [ 49.8293, 7.7965 ], [ 49.8351, 7.7946 ], [ 49.826, 7.7863 ], [ 49.8276, 7.781 ], [ 49.8257, 7.7785 ], [ 49.826, 7.7743 ], [ 49.8279, 7.7721 ], [ 49.8307, 7.7724 ], [ 49.8312, 7.7693 ], [ 49.8193, 7.7557 ], [ 49.8207, 7.7488 ], [ 49.826, 7.7454 ], [ 49.824, 7.7385 ], [ 49.8182, 7.7299 ], [ 49.8057, 7.7168 ], [ 49.8013, 7.7082 ], [ 49.7912, 7.6965 ], [ 49.7885, 7.6899 ], [ 49.7796, 7.6846 ], [ 49.7749, 7.674 ], [ 49.7693, 7.6676 ], [ 49.7668, 7.6604 ], [ 49.7646, 7.6346 ], [ 49.7607, 7.6196 ], [ 49.7479, 7.591 ], [ 49.7457, 7.5887 ], [ 49.7426, 7.579 ], [ 49.6801, 7.4563 ], [ 49.6782, 7.4554 ], [ 49.6685, 7.4365 ], [ 49.6668, 7.436 ], [ 49.6668, 7.4338 ], [ 49.6626, 7.4296 ], [ 49.6587, 7.4215 ], [ 49.6521, 7.4129 ], [ 49.6524, 7.4112 ], [ 49.6496, 7.4099 ], [ 49.6465, 7.4029 ], [ 49.5, 7.57 ], [ 49.44, 7.58 ], [ 49.19, 7.7 ], [ 49.03, 7.71 ], [ 48.5, 7.41 ], [ 47.5657, 7.5595 ], [ 47.5285, 7.5625 ], [ 47.9462, 8.0 ], [ 47.9582, 8.0126 ], [ 47.9366, 8.012 ] ] ], [ [ [ 51.1882, 10.5404 ], [ 51.1824, 10.5576 ], [ 51.1821, 10.5599 ], [ 51.1832, 10.5596 ], [ 51.1907, 10.5421 ], [ 51.1913, 10.5371 ], [ 51.1882, 10.5404 ] ] ], [ [ [ 46.9287, 10.919 ], [ 46.929, 10.9174 ], [ 46.9274, 10.9168 ], [ 46.9265, 10.9179 ], [ 46.9287, 10.919 ] ] ], [ [ [ 47.2396, 11.2238 ], [ 47.2493, 11.2293 ], [ 47.241, 11.2196 ], [ 47.234, 11.2165 ], [ 47.2396, 11.2238 ] ] ] ] } }
]
}
