{
"type": "FeatureCollection",
"name": "northwest_agropastoral_boundary",
"crs": { "type": "name", "properties": { "name": "urn:ogc:def:crs:OGC:1.3:CRS84" } },
"features": [
{ "type": "Feature", "properties": { "GID_1": "SOM.1_1", "GID_0": "SOM", "COUNTRY": "Somalia", "NAME_1": "Awdal", "VARNAME_1": "Adal|Adel", "NL_NAME_1": "NA", "TYPE_1": "Gobolka", "ENGTYPE_1": "Region", "CC_1": "NA", "HASC_1": "SO.AW", "ISO_1": "SO-AW" }, "geometry": { "type": "MultiPolygon", "coordinates": [ [ [ [ 43.3788, 11.4426 ], [ 43.3812, 11.441 ], [ 43.3812, 11.4357 ], [ 43.3768, 11.4374 ], [ 43.3749, 11.434 ], [ 43.3688, 11.434 ], [ 43.3685, 11.4421 ], [ 43.3721, 11.4432 ], [ 43.3726, 11.4418 ], [ 43.3713, 11.4357 ], [ 43.3751, 11.4365 ], [ 43.3768, 11.4421 ], [ 43.3788, 11.4426 ] ] ], [ [ [ 43.3365, 11.4477 ], [ 43.3354, 11.4443 ], [ 43.3343, 11.4438 ], [ 43.3329, 11.4485 ], [ 43.3365, 11.4477 ] ] ], [ [ [ 43.2576, 11.4611 ], [ 43.2574, 11.4612 ], [ 43.2579, 11.4613 ], [ 43.2579, 11.461 ], [ 43.2576, 11.4611 ] ] ], [ [ [ 43.2574, 11.4615 ], [ 43.2574, 11.4612 ], [ 43.2564, 11.4615 ], [ 43.2574, 11.4615 ] ] ], [ [ [ 43.2557, 11.4618 ], [ 43.256, 11.4618 ], [ 43.256, 11.4617 ], [ 43.2557, 11.4618 ] ] ], [ [ [ 43.2554, 11.4621 ], [ 43.2554, 11.4619 ], [ 43.2548, 11.462 ], [ 43.2554, 11.4621 ] ] ], [ [ [ 43.2513, 11.464 ], [ 43.2526, 11.4629 ], [ 43.2548, 11.462 ], [ 43.2515, 11.4631 ], [ 43.2513, 11.464 ] ] ], [ [ [ 43.3649, 11.4651 ], [ 43.3646, 11.4621 ], [ 43.3593, 11.4635 ], [ 43.361, 11.4654 ], [ 43.3649, 11.4651 ] ] ], [ [ [ 43.281, 11.4849 ], [ 43.2857, 11.4882 ], [ 43.2918, 11.4876 ], [ 43.294, 11.486 ], [ 43.284, 11.4865 ], [ 43.2824, 11.4826 ], [ 43.281, 11.4849 ] ] ], [ [ [ 44.1215, 8.9619 ], [ 44.0612, 8.9859 ], [ 44.0531, 8.9982 ], [ 44.0353, 9.0068 ], [ 44.0184, 9.0245 ], [ 44.0028, 9.0305 ], [ 43.9755, 9.037 ], [ 43.9585, 9.065 ], [ 43.9123, 9.1027 ], [ 43.8841, 9.123 ], [ 43.8663, 9.1422 ], [ 43.8429, 9.1567 ], [ 43.804, 9.1973 ], [ 43.7705, 9.2181 ], [ 43.7611, 9.2313 ], [ 43.7358, 9.2459 ], [ 43.7246, 9.2593 ], [ 43.7096, 9.2695 ], [ 43.6822, 9.2791 ], [ 43.6668, 9.3052 ], [ 43.6537, 9.317 ], [ 43.6288, 9.3351 ], [ 43.6245, 9.3461 ], [ 43.5975, 9.3609 ], [ 43.5814, 9.3783 ], [ 43.5696, 9.3847 ], [ 43.5541, 9.3896 ], [ 43.5463, 9.4009 ], [ 43.5343, 9.4055 ], [ 43.4968, 9.4081 ], [ 43.4924, 9.4214 ], [ 43.4825, 9.4353 ], [ 43.4662, 9.4405 ], [ 43.4557, 9.4471 ], [ 43.4473, 9.4571 ], [ 43.4155, 9.4769 ], [ 43.4054, 9.5108 ], [ 43.388, 9.5254 ], [ 43.3793, 9.542 ], [ 43.3677, 9.5574 ], [ 43.3553, 9.5643 ], [ 43.3564, 9.5771 ], [ 43.3451, 9.5954 ], [ 43.3358, 9.6049 ], [ 43.3178, 9.6296 ], [ 43.307, 9.6377 ], [ 43.3016, 9.6513 ], [ 43.298, 9.6673 ], [ 43.2889, 9.6782 ], [ 43.2872, 9.6927 ], [ 43.275, 9.701 ], [ 43.2721, 9.7171 ], [ 43.2742, 9.7255 ], [ 43.2741, 9.7414 ], [ 43.265, 9.7523 ], [ 43.2636, 9.7696 ], [ 43.2561, 9.7832 ], [ 43.2496, 9.791 ], [ 43.2514, 9.8282 ], [ 43.2379, 9.8395 ], [ 43.2315, 9.8487 ], [ 43.2223, 9.8582 ], [ 43.2134, 9.872 ], [ 43.1997, 9.8804 ], [ 43.1673, 9.8877 ], [ 43.1583, 9.9001 ], [ 43.1428, 9.9044 ], [ 43.1364, 9.9136 ], [ 43.0983, 9.9214 ], [ 43.0922, 9.9349 ], [ 43.081, 9.9388 ], [ 43.0781, 9.9549 ], [ 43.0657, 9.9776 ], [ 43.063, 9.9965 ], [ 43.052, 10.0033 ], [ 43.0407, 10.0216 ], [ 43.0262, 10.0373 ], [ 43.0213, 10.0478 ], [ 43.0121, 10.0573 ], [ 43.0045, 10.0694 ], [ 42.9939, 10.0805 ], [ 42.9703, 10.0898 ], [ 42.9667, 10.0988 ], [ 42.8837, 10.1864 ], [ 42.856, 10.2256 ], [ 42.8398, 10.2665 ], [ 42.8194, 10.2909 ], [ 42.8045, 10.3148 ], [ 42.7857, 10.3587 ], [ 42.7756, 10.4047 ], [ 42.7497, 10.4496 ], [ 42.7364, 10.4986 ], [ 42.716, 10.5312 ], [ 42.7047, 10.5746 ], [ 42.7069, 10.619 ], [ 42.7216, 10.6605 ], [ 42.7408, 10.6859 ], [ 42.7677, 10.7342 ], [ 42.7965, 10.792 ], [ 42.897, 10.9242 ], [ 42.933, 10.9583 ], [ 42.9361, 10.9663 ], [ 42.939, 10.9665 ], [ 42.9616, 10.9844 ], [ 42.9859, 11.0219 ], [ 43.0013, 11.0515 ], [ 43.0161, 11.0733 ], [ 43.0362, 11.1077 ], [ 43.082, 11.1781 ], [ 43.0884, 11.1904 ], [ 43.1253, 11.2473 ], [ 43.1417, 11.276 ], [ 43.1562, 11.2967 ], [ 43.1583, 11.3026 ], [ 43.17, 11.319 ], [ 43.2508, 11.4496 ], [ 43.2567, 11.4568 ], [ 43.2581, 11.461 ], [ 43.2693, 11.4601 ], [ 43.2732, 11.4613 ], [ 43.2754, 11.464 ], [ 43.279, 11.4626 ], [ 43.2793, 11.464 ], [ 43.2837, 11.4649 ], [ 43.2782, 11.464 ], [ 43.2776, 11.466 ], [ 43.2918, 11.4682 ], [ 43.2963, 11.4649 ], [ 43.2974, 11.4607 ], [ 43.2996, 11.4593 ], [ 43.3093, 11.4599 ], [ 43.3121, 11.4649 ], [ 43.3129, 11.4607 ], [ 43.3157, 11.4582 ], [ 43.3168, 11.4485 ], [ 43.3213, 11.4368 ], [ 43.3315, 11.4243 ], [ 43.3368, 11.4249 ], [ 43.3393, 11.429 ], [ 43.3385, 11.431 ], [ 43.341, 11.4329 ], [ 43.349, 11.4329 ], [ 43.3493, 11.4168 ], [ 43.3513, 11.4096 ], [ 43.3604, 11.4051 ], [ 43.3721, 11.394 ], [ 43.3779, 11.3929 ], [ 43.3926, 11.3838 ], [ 43.4085, 11.3843 ], [ 43.4113, 11.3824 ], [ 43.4168, 11.3838 ], [ 43.4251, 11.3793 ], [ 43.4282, 11.3768 ], [ 43.4293, 11.371 ], [ 43.4335, 11.3671 ], [ 43.4362, 11.3668 ], [ 43.4488, 11.3582 ], [ 43.4471, 11.356 ], [ 43.4518, 11.3538 ], [ 43.4521, 11.3507 ], [ 43.4557, 11.3513 ], [ 43.4599, 11.3485 ], [ 43.4707, 11.3501 ], [ 43.4688, 11.3551 ], [ 43.469, 11.3593 ], [ 43.4707, 11.356 ], [ 43.4793, 11.3579 ], [ 43.479, 11.3543 ], [ 43.481, 11.3524 ], [ 43.4904, 11.3671 ], [ 43.4821, 11.3635 ], [ 43.4813, 11.3613 ], [ 43.4796, 11.3626 ], [ 43.4699, 11.3604 ], [ 43.4685, 11.361 ], [ 43.4801, 11.3635 ], [ 43.4888, 11.3687 ], [ 43.4996, 11.3704 ], [ 43.4993, 11.3682 ], [ 43.5051, 11.3685 ], [ 43.4932, 11.3657 ], [ 43.4879, 11.3607 ], [ 43.4829, 11.3515 ], [ 43.4787, 11.331 ], [ 43.481, 11.3168 ], [ 43.4874, 11.3074 ], [ 43.4885, 11.299 ], [ 43.4921, 11.2915 ], [ 43.4907, 11.279 ], [ 43.4915, 11.2735 ], [ 43.4899, 11.2668 ], [ 43.4912, 11.2671 ], [ 43.4918, 11.2699 ], [ 43.4951, 11.2438 ], [ 43.5032, 11.2199 ], [ 43.5026, 11.2168 ], [ 43.4971, 11.2121 ], [ 43.4982, 11.2115 ], [ 43.5024, 11.2151 ], [ 43.506, 11.214 ], [ 43.519, 11.1946 ], [ 43.5176, 11.1901 ], [ 43.5204, 11.189 ], [ 43.5179, 11.1876 ], [ 43.5229, 11.186 ], [ 43.5243, 11.1835 ], [ 43.5257, 11.1849 ], [ 43.5321, 11.1818 ], [ 43.5315, 11.1835 ], [ 43.5229, 11.1874 ], [ 43.5213, 11.1915 ], [ 43.531, 11.1838 ], [ 43.5368, 11.1815 ], [ 43.5496, 11.1812 ], [ 43.5557, 11.1762 ], [ 43.5588, 11.1696 ], [ 43.561, 11.1563 ], [ 43.5746, 11.1257 ], [ 43.5849, 11.1113 ], [ 43.5921, 11.0932 ], [ 43.5999, 11.0793 ], [ 43.6051, 11.074 ], [ 43.6121, 11.0615 ], [ 43.6147, 11.0602 ], [ 43.6301, 11.0407 ], [ 43.6493, 11.0038 ], [ 43.6485, 10.9988 ], [ 43.6529, 10.9893 ], [ 43.6526, 10.9868 ], [ 43.654, 10.9937 ], [ 43.6726, 10.9657 ], [ 43.7168, 10.9135 ], [ 43.7279, 10.9026 ], [ 43.746, 10.8793 ], [ 43.8218, 10.799 ], [ 43.826, 10.7968 ], [ 43.8418, 10.7799 ], [ 43.8466, 10.7771 ], [ 43.8599, 10.7624 ], [ 43.8932, 10.7315 ], [ 43.9193, 10.7115 ], [ 43.9204, 10.7093 ], [ 43.924, 10.7082 ], [ 43.9287, 10.7026 ], [ 43.9451, 10.6918 ], [ 43.9732, 10.6696 ], [ 44.0146, 10.6449 ], [ 44.0404, 10.6232 ], [ 44.0621, 10.6135 ], [ 44.0685, 10.6079 ], [ 44.0732, 10.601 ], [ 44.0768, 10.5901 ], [ 44.0832, 10.5815 ], [ 44.0976, 10.5679 ], [ 44.1037, 10.5654 ], [ 44.1185, 10.5546 ], [ 44.1379, 10.5504 ], [ 44.1521, 10.5424 ], [ 44.1865, 10.5146 ], [ 44.2035, 10.5051 ], [ 44.2351, 10.4726 ], [ 44.2535, 10.456 ], [ 44.2768, 10.4385 ], [ 44.2918, 10.4293 ], [ 44.3171, 10.4171 ], [ 44.3224, 10.416 ], [ 44.3282, 10.4124 ], [ 44.3387, 10.4104 ], [ 44.3607, 10.4004 ], [ 44.3754, 10.3968 ], [ 44.3851, 10.3974 ], [ 44.4021, 10.3918 ], [ 44.4137, 10.3899 ], [ 44.4487, 10.4007 ], [ 44.4693, 10.3985 ], [ 44.486, 10.3935 ], [ 44.4996, 10.3929 ], [ 44.5082, 10.3899 ], [ 44.5196, 10.3893 ], [ 44.5268, 10.3865 ], [ 44.5365, 10.3888 ], [ 44.5488, 10.3824 ], [ 44.5601, 10.3793 ], [ 44.5915, 10.3787 ], [ 44.6001, 10.381 ], [ 44.6099, 10.3804 ], [ 44.6215, 10.384 ], [ 44.6429, 10.3871 ], [ 44.6499, 10.3901 ], [ 44.6479, 10.3924 ], [ 44.6538, 10.396 ], [ 44.6693, 10.4018 ], [ 44.6949, 10.4076 ], [ 44.7224, 10.4101 ], [ 44.7482, 10.4182 ], [ 44.7882, 10.4129 ], [ 44.7968, 10.4132 ], [ 44.801, 10.416 ], [ 44.8082, 10.414 ], [ 44.8182, 10.4157 ], [ 44.8468, 10.4085 ], [ 44.8843, 10.4035 ], [ 44.9021, 10.4038 ], [ 44.9087, 10.4065 ], [ 44.9313, 10.4063 ], [ 44.9354, 10.4079 ], [ 44.946, 10.4085 ], [ 44.9776, 10.4221 ], [ 44.9815, 10.4262 ], [ 44.9868, 10.4271 ], [ 44.9915, 10.4307 ], [ 44.9896, 10.4362 ], [ 44.9929, 10.4318 ], [ 44.9982, 10.4326 ], [ 44.9974, 10.4362 ], [ 44.9943, 10.4351 ], [ 44.9932, 10.4365 ], [ 44.9976, 10.4401 ], [ 45.0018, 10.439 ], [ 44.9985, 10.4371 ], [ 44.9999, 10.434 ], [ 45.0035, 10.4346 ], [ 45.0049, 10.4374 ], [ 45.0032, 10.4407 ], [ 45.006, 10.439 ], [ 45.0079, 10.4432 ], [ 45.006, 10.4449 ], [ 45.006, 10.4507 ], [ 45.0032, 10.4524 ], [ 44.996, 10.4504 ], [ 44.9949, 10.4479 ], [ 44.9921, 10.4501 ], [ 44.9907, 10.4476 ], [ 44.9818, 10.4435 ], [ 44.9821, 10.441 ], [ 44.9801, 10.4418 ], [ 44.9796, 10.4443 ], [ 44.9829, 10.4476 ], [ 45.0107, 10.4582 ], [ 45.0179, 10.4626 ], [ 45.039, 10.4688 ], [ 45.0537, 10.4765 ], [ 45.0626, 10.4829 ], [ 45.0732, 10.4963 ], [ 45.086, 10.5076 ], [ 45.1026, 10.5104 ], [ 45.1065, 10.5129 ], [ 45.1174, 10.5126 ], [ 45.1207, 10.5143 ], [ 45.1413, 10.5165 ], [ 45.1512, 10.5212 ], [ 45.1676, 10.5329 ], [ 45.1818, 10.539 ], [ 45.1838, 10.5415 ], [ 45.1915, 10.5413 ], [ 45.1965, 10.544 ], [ 45.201, 10.5435 ], [ 45.2096, 10.5485 ], [ 45.2115, 10.5479 ], [ 45.2188, 10.5515 ], [ 45.2238, 10.5557 ], [ 45.2293, 10.5568 ], [ 45.229, 10.5582 ], [ 45.2363, 10.5624 ], [ 45.2399, 10.5685 ], [ 45.2537, 10.581 ], [ 45.2618, 10.5915 ], [ 45.2679, 10.604 ], [ 45.2707, 10.6057 ], [ 45.2743, 10.6115 ], [ 45.2957, 10.6285 ], [ 45.3051, 10.6396 ], [ 45.316, 10.6568 ], [ 45.324, 10.6624 ], [ 45.3343, 10.664 ], [ 45.3518, 10.6604 ], [ 45.3701, 10.6618 ], [ 45.3976, 10.6582 ], [ 45.4182, 10.6593 ], [ 45.4287, 10.6621 ], [ 45.4476, 10.6618 ], [ 45.4657, 10.6657 ], [ 45.4732, 10.6718 ], [ 45.4749, 10.6776 ], [ 45.4787, 10.6815 ], [ 45.4899, 10.686 ], [ 45.5024, 10.6882 ], [ 45.511, 10.6876 ], [ 45.5226, 10.6951 ], [ 45.524, 10.7024 ], [ 45.5296, 10.7074 ], [ 45.5379, 10.7074 ], [ 45.5515, 10.7115 ], [ 45.574, 10.7224 ], [ 45.5774, 10.7288 ], [ 45.5749, 10.7351 ], [ 45.5868, 10.7468 ], [ 45.5929, 10.7563 ], [ 45.5923, 10.7602 ], [ 45.594, 10.7621 ], [ 45.6018, 10.7654 ], [ 45.6135, 10.764 ], [ 45.6263, 10.7663 ], [ 45.6499, 10.7768 ], [ 45.6596, 10.7779 ], [ 45.6721, 10.7829 ], [ 45.6796, 10.7868 ], [ 45.6874, 10.7954 ], [ 45.6893, 10.7954 ], [ 45.6924, 10.8021 ], [ 45.6963, 10.8026 ], [ 45.7007, 10.8074 ], [ 45.7043, 10.8065 ], [ 45.7059, 10.8099 ], [ 45.7187, 10.8182 ], [ 45.7535, 10.8296 ], [ 45.7576, 10.8326 ], [ 45.761, 10.8385 ], [ 45.7618, 10.8518 ], [ 45.7701, 10.8582 ], [ 45.7765, 10.8604 ], [ 45.801, 10.8629 ], [ 45.8015, 10.8665 ], [ 45.8051, 10.8687 ], [ 45.8124, 10.861 ], [ 45.8168, 10.8596 ], [ 45.8262, 10.8504 ], [ 45.8471, 10.8404 ], [ 45.8571, 10.8324 ], [ 45.8582, 10.8301 ], [ 45.8546, 10.8213 ], [ 45.8557, 10.8196 ], [ 45.8576, 10.8204 ], [ 45.8596, 10.8165 ], [ 45.8632, 10.8165 ], [ 45.8643, 10.8196 ], [ 45.8662, 10.8204 ], [ 45.876, 10.8146 ], [ 45.8782, 10.8149 ], [ 45.8751, 10.8201 ], [ 45.8721, 10.8204 ], [ 45.8701, 10.8235 ], [ 45.8626, 10.8235 ], [ 45.8621, 10.831 ], [ 45.8649, 10.8301 ], [ 45.8699, 10.8315 ], [ 45.8735, 10.8346 ], [ 45.8887, 10.8274 ], [ 45.9051, 10.8226 ], [ 45.9235, 10.8135 ], [ 45.944, 10.799 ], [ 45.946, 10.7963 ], [ 45.9554, 10.7918 ], [ 45.9746, 10.7787 ], [ 45.9779, 10.7776 ], [ 45.9971, 10.7787 ], [ 46.0362, 10.771 ], [ 46.01, 10.08 ], [ 46.19, 8.99 ], [ 46.15, 8.8 ], [ 46.92, 8.76 ], [ 47.0, 8.75 ], [ 47.1, 8.56 ], [ 47.0124, 8.0 ], [ 47.0088, 7.9854 ], [ 46.9993, 7.9851 ], [ 46.7358, 8.0703 ], [ 45.6208, 8.4429 ], [ 44.6895, 8.7577 ], [ 44.1564, 8.938 ], [ 44.1215, 8.9619 ] ] ], [ [ [ 43.4604, 11.3521 ], [ 43.461, 11.354 ], [ 43.4626, 11.3535 ], [ 43.4676, 11.3529 ], [ 43.4676, 11.3521 ], [ 43.4643, 11.3501 ], [ 43.4604, 11.3521 ] ] ], [ [ [ 43.5015, 11.3743 ], [ 43.4999, 11.3732 ], [ 43.4993, 11.3746 ], [ 43.4935, 11.3726 ], [ 43.4954, 11.3754 ], [ 43.5029, 11.3751 ], [ 43.506, 11.3746 ], [ 43.5043, 11.3726 ], [ 43.5013, 11.3732 ], [ 43.5015, 11.3743 ] ] ], [ [ [ 43.4546, 11.4435 ], [ 43.4565, 11.4479 ], [ 43.4599, 11.4496 ], [ 43.4707, 11.4493 ], [ 43.4751, 11.4451 ], [ 43.476, 11.4396 ], [ 43.4738, 11.4332 ], [ 43.471, 11.4271 ], [ 43.4663, 11.4249 ], [ 43.4649, 11.4165 ], [ 43.4593, 11.4179 ], [ 43.459, 11.4199 ], [ 43.4538, 11.4185 ], [ 43.4546, 11.4304 ], [ 43.4512, 11.4338 ], [ 43.4496, 11.4338 ], [ 43.4479, 11.4354 ], [ 43.4529, 11.4413 ], [ 43.4524, 11.4426 ], [ 43.4546, 11.4435 ] ] ], [ [ [ 43.4468, 11.4329 ], [ 43.4468, 11.4343 ], [ 43.4515, 11.4329 ], [ 43.449, 11.4326 ], [ 43.4468, 11.4329 ] ] ], [ [ [ 43.4524, 11.4957 ], [ 43.4532, 11.5026 ], [ 43.4599, 11.5088 ], [ 43.4629, 11.5151 ], [ 43.4657, 11.5149 ], [ 43.4685, 11.5113 ], [ 43.4629, 11.5063 ], [ 43.4562, 11.494 ], [ 43.449, 11.4896 ], [ 43.4524, 11.4957 ] ] ] ] } }
]
}
