{
"type": "FeatureCollection",
"name": "shabelle_riverine_boundary",
"crs": { "type": "name", "properties": { "name": "urn:ogc:def:crs:OGC:1.3:CRS84" } },
"features": [
{ "type": "Feature", "properties": { "GID_1": "SOM.3_1", "GID_0": "SOM", "COUNTRY": "Somalia", "NAME_1": "Banaadir", "VARNAME_1": "Benadir", "NL_NAME_1": "NA", "TYPE_1": "Gobolka", "ENGTYPE_1": "Region", "CC_1": "NA", "HASC_1": "SO.BN", "ISO_1": "SO-BN" }, "geometry": { "type": "MultiPolygon", "coordinates": [ [ [ [ 44.0351, 1.1015 ], [ 44.0379, 1.1071 ], [ 44.0404, 1.1074 ], [ 44.0407, 1.106 ], [ 44.0388, 1.1037 ], [ 44.0351, 1.1015 ] ] ], [ [ [ 45.091, 1.9079 ], [ 45.0893, 1.906 ], [ 45.0887, 1.9071 ], [ 45.0901, 1.9079 ], [ 45.091, 1.9079 ] ] ], [ [ [ 43.58, 1.76 ], [ 43.88, 1.88 ], [ 44.65, 2.22 ], [ 44.62, 2.48 ], [ 44.66, 2.75 ], [ 44.64, 2.81 ], [ 44.69, 3.05 ], [ 44.66, 3.25 ], [ 44.78, 3.27 ], [ 45.07, 3.25 ], [ 45.15, 3.21 ], [ 45.27, 3.2 ], [ 45.94, 3.25 ], [ 46.03, 3.52 ], [ 46.0317, 3.5194 ], [ 46.0789, 3.5666 ], [ 46.08, 3.57 ], [ 46.39, 3.89 ], [ 47.0357, 3.4718 ], [ 46.9993, 3.4371 ], [ 46.9957, 3.4315 ], [ 46.9762, 3.4124 ], [ 46.9735, 3.4071 ], [ 46.9626, 3.3985 ], [ 46.959, 3.3932 ], [ 46.9282, 3.3624 ], [ 46.9024, 3.3324 ], [ 46.8932, 3.3179 ], [ 46.8729, 3.2949 ], [ 46.8557, 3.269 ], [ 46.8349, 3.2446 ], [ 46.7954, 3.1999 ], [ 46.7329, 3.1371 ], [ 46.7065, 3.1051 ], [ 46.6749, 3.0707 ], [ 46.6568, 3.0535 ], [ 46.6188, 3.0218 ], [ 46.6146, 3.0157 ], [ 46.6101, 3.014 ], [ 46.5724, 2.9757 ], [ 46.4499, 2.8785 ], [ 46.4293, 2.8576 ], [ 46.4215, 2.8465 ], [ 46.4118, 2.8365 ], [ 46.3926, 2.8201 ], [ 46.364, 2.8026 ], [ 46.3451, 2.7874 ], [ 46.3329, 2.7729 ], [ 46.3296, 2.7582 ], [ 46.3276, 2.7593 ], [ 46.3201, 2.7568 ], [ 46.3095, 2.7471 ], [ 46.3049, 2.7374 ], [ 46.3035, 2.7221 ], [ 46.2976, 2.7121 ], [ 46.2896, 2.7051 ], [ 46.2704, 2.6954 ], [ 46.2449, 2.6774 ], [ 46.2385, 2.6699 ], [ 46.2224, 2.6596 ], [ 46.194, 2.629 ], [ 46.1904, 2.6171 ], [ 46.1826, 2.6107 ], [ 46.1815, 2.604 ], [ 46.1754, 2.6029 ], [ 46.1715, 2.5999 ], [ 46.169, 2.5951 ], [ 46.1693, 2.5868 ], [ 46.1665, 2.5849 ], [ 46.1599, 2.5851 ], [ 46.156, 2.5804 ], [ 46.1485, 2.5765 ], [ 46.129, 2.556 ], [ 46.119, 2.5407 ], [ 46.1185, 2.5354 ], [ 46.1207, 2.5343 ], [ 46.1065, 2.5176 ], [ 46.0687, 2.4887 ], [ 46.0543, 2.4743 ], [ 46.0476, 2.471 ], [ 46.0313, 2.4529 ], [ 46.0299, 2.4488 ], [ 46.0251, 2.4468 ], [ 46.0238, 2.4415 ], [ 46.0154, 2.4357 ], [ 46.0126, 2.431 ], [ 46.0065, 2.4271 ], [ 46.0054, 2.4246 ], [ 45.999, 2.4215 ], [ 45.9926, 2.416 ], [ 45.9882, 2.4176 ], [ 45.979, 2.4118 ], [ 45.9771, 2.4082 ], [ 45.9715, 2.4051 ], [ 45.9626, 2.3963 ], [ 45.941, 2.3812 ], [ 45.9371, 2.376 ], [ 45.9276, 2.3715 ], [ 45.9018, 2.3521 ], [ 45.8965, 2.351 ], [ 45.894, 2.3476 ], [ 45.889, 2.3476 ], [ 45.8824, 2.344 ], [ 45.874, 2.3363 ], [ 45.8671, 2.3351 ], [ 45.8596, 2.3293 ], [ 45.8512, 2.3279 ], [ 45.8437, 2.324 ], [ 45.8335, 2.3165 ], [ 45.8299, 2.3118 ], [ 45.8165, 2.3085 ], [ 45.8093, 2.304 ], [ 45.8046, 2.2982 ], [ 45.799, 2.2971 ], [ 45.7999, 2.2949 ], [ 45.7979, 2.2938 ], [ 45.7962, 2.2938 ], [ 45.7974, 2.296 ], [ 45.7935, 2.2974 ], [ 45.7768, 2.2829 ], [ 45.766, 2.2779 ], [ 45.754, 2.269 ], [ 45.7432, 2.2635 ], [ 45.7426, 2.2615 ], [ 45.7318, 2.259 ], [ 45.7287, 2.2543 ], [ 45.7238, 2.2535 ], [ 45.7057, 2.2407 ], [ 45.6979, 2.2379 ], [ 45.6838, 2.2282 ], [ 45.6746, 2.2251 ], [ 45.6729, 2.2204 ], [ 45.6646, 2.2174 ], [ 45.6574, 2.2121 ], [ 45.6501, 2.211 ], [ 45.644, 2.2026 ], [ 45.6415, 2.2043 ], [ 45.6362, 2.2037 ], [ 45.604, 2.1832 ], [ 45.46, 2.17 ], [ 45.6035, 2.183 ], [ 45.5896, 2.1754 ], [ 45.5865, 2.1751 ], [ 45.5799, 2.169 ], [ 45.5713, 2.1657 ], [ 45.5687, 2.1626 ], [ 45.5585, 2.1576 ], [ 45.5554, 2.154 ], [ 45.5507, 2.1524 ], [ 45.5246, 2.1346 ], [ 45.5229, 2.1318 ], [ 45.509, 2.1246 ], [ 45.5018, 2.1176 ], [ 45.4904, 2.1126 ], [ 45.4826, 2.1054 ], [ 45.4776, 2.1065 ], [ 45.4735, 2.1051 ], [ 45.4721, 2.1029 ], [ 45.4349, 2.0829 ], [ 45.4282, 2.0763 ], [ 45.4249, 2.0765 ], [ 45.4224, 2.0729 ], [ 45.4076, 2.0621 ], [ 45.4018, 2.0601 ], [ 45.4012, 2.0576 ], [ 45.3971, 2.0565 ], [ 45.3926, 2.0521 ], [ 45.3862, 2.0524 ], [ 45.3832, 2.0499 ], [ 45.379, 2.0496 ], [ 45.3638, 2.0418 ], [ 45.361, 2.0374 ], [ 45.3568, 2.0365 ], [ 45.3557, 2.0349 ], [ 45.3476, 2.0357 ], [ 45.3449, 2.0346 ], [ 45.3438, 2.0335 ], [ 45.3449, 2.0318 ], [ 45.3363, 2.0268 ], [ 45.3379, 2.0235 ], [ 45.3265, 2.0204 ], [ 45.3024, 2.0099 ], [ 45.294, 2.0026 ], [ 45.2832, 2.0004 ], [ 45.2776, 1.9963 ], [ 45.2754, 1.9921 ], [ 45.266542500251333, 1.988517191112898 ], [ 45.2663, 1.9882 ], [ 45.2368, 1.9771 ], [ 45.2329, 1.974 ], [ 45.2301, 1.9679 ], [ 45.224, 1.9643 ], [ 45.2196, 1.9626 ], [ 45.2171, 1.964 ], [ 45.2107, 1.9635 ], [ 45.204, 1.9601 ], [ 45.2049, 1.9576 ], [ 45.2026, 1.956 ], [ 45.2001, 1.9563 ], [ 45.201, 1.9582 ], [ 45.1974, 1.9599 ], [ 45.189, 1.9557 ], [ 45.1799, 1.9471 ], [ 45.1787, 1.9493 ], [ 45.1701, 1.9479 ], [ 45.166, 1.9429 ], [ 45.1599, 1.9426 ], [ 45.1546, 1.9354 ], [ 45.149, 1.9343 ], [ 45.1471, 1.9363 ], [ 45.1424, 1.9365 ], [ 45.1326, 1.9335 ], [ 45.1288, 1.931 ], [ 45.1263, 1.9251 ], [ 45.1126, 1.9207 ], [ 45.1093, 1.9168 ], [ 45.1013, 1.9124 ], [ 45.0985, 1.9124 ], [ 45.0965, 1.9104 ], [ 45.0915, 1.9107 ], [ 45.0904, 1.9085 ], [ 45.0851, 1.9071 ], [ 45.084, 1.9029 ], [ 45.0788, 1.899 ], [ 45.0724, 1.8999 ], [ 45.0551, 1.8888 ], [ 45.046, 1.8854 ], [ 45.0432, 1.8813 ], [ 45.0304, 1.874 ], [ 45.0288, 1.871 ], [ 45.024, 1.8682 ], [ 45.0235, 1.8657 ], [ 45.0196, 1.8643 ], [ 45.0185, 1.8607 ], [ 45.0099, 1.8551 ], [ 45.0057, 1.8546 ], [ 45.0046, 1.8568 ], [ 45.0001, 1.8549 ], [ 44.9926, 1.8496 ], [ 44.9924, 1.8474 ], [ 44.9815, 1.8421 ], [ 44.9799, 1.839 ], [ 44.9726, 1.836 ], [ 44.9682, 1.8321 ], [ 44.9596, 1.829 ], [ 44.9588, 1.8262 ], [ 44.9501, 1.8226 ], [ 44.9487, 1.8204 ], [ 44.9376, 1.814 ], [ 44.9238, 1.8068 ], [ 44.914, 1.8054 ], [ 44.9099, 1.8012 ], [ 44.911, 1.7979 ], [ 44.9099, 1.7968 ], [ 44.9032, 1.7932 ], [ 44.9029, 1.7957 ], [ 44.8985, 1.7949 ], [ 44.8971, 1.7926 ], [ 44.8829, 1.7846 ], [ 44.8537, 1.764 ], [ 44.844, 1.759 ], [ 44.8399, 1.7546 ], [ 44.8079, 1.7365 ], [ 44.7815, 1.7179 ], [ 44.7768, 1.7176 ], [ 44.7746, 1.7132 ], [ 44.7707, 1.7118 ], [ 44.766, 1.7126 ], [ 44.7615, 1.7104 ], [ 44.7499, 1.696 ], [ 44.7499, 1.6912 ], [ 44.7482, 1.6893 ], [ 44.7432, 1.6896 ], [ 44.7363, 1.6832 ], [ 44.731, 1.6815 ], [ 44.7304, 1.6774 ], [ 44.7232, 1.6765 ], [ 44.7199, 1.6729 ], [ 44.7176, 1.6729 ], [ 44.7176, 1.6754 ], [ 44.7126, 1.6738 ], [ 44.7085, 1.6679 ], [ 44.7004, 1.6624 ], [ 44.6957, 1.6549 ], [ 44.6707, 1.6393 ], [ 44.6685, 1.6396 ], [ 44.6499, 1.626 ], [ 44.6457, 1.6246 ], [ 44.6446, 1.6221 ], [ 44.6415, 1.6213 ], [ 44.6393, 1.6176 ], [ 44.6365, 1.6165 ], [ 44.6329, 1.6101 ], [ 44.6249, 1.6049 ], [ 44.6224, 1.6012 ], [ 44.6132, 1.5974 ], [ 44.6074, 1.5993 ], [ 44.5993, 1.5987 ], [ 44.5971, 1.5965 ], [ 44.5938, 1.5868 ], [ 44.5865, 1.5799 ], [ 44.5812, 1.5757 ], [ 44.576, 1.5743 ], [ 44.5429, 1.5476 ], [ 44.5371, 1.5465 ], [ 44.5337, 1.5424 ], [ 44.5354, 1.5379 ], [ 44.5268, 1.5324 ], [ 44.5199, 1.5251 ], [ 44.5179, 1.5251 ], [ 44.5124, 1.5201 ], [ 44.5121, 1.5229 ], [ 44.5071, 1.5221 ], [ 44.4987, 1.516 ], [ 44.4951, 1.5101 ], [ 44.4901, 1.5068 ], [ 44.4863, 1.4987 ], [ 44.4815, 1.4976 ], [ 44.486, 1.5021 ], [ 44.4854, 1.5024 ], [ 44.4624, 1.486 ], [ 44.446, 1.4704 ], [ 44.3765, 1.4199 ], [ 44.3643, 1.4082 ], [ 44.3632, 1.4051 ], [ 44.354, 1.4021 ], [ 44.3335, 1.3843 ], [ 44.3299, 1.3832 ], [ 44.3088, 1.3635 ], [ 44.3068, 1.3576 ], [ 44.3015, 1.3504 ], [ 44.2957, 1.3507 ], [ 44.2779, 1.3365 ], [ 44.2715, 1.3288 ], [ 44.2643, 1.3249 ], [ 44.2371, 1.3012 ], [ 44.2246, 1.289 ], [ 44.2165, 1.2771 ], [ 44.2176, 1.2749 ], [ 44.216, 1.2718 ], [ 44.2168, 1.2704 ], [ 44.2143, 1.2676 ], [ 44.2088, 1.2663 ], [ 44.2051, 1.2618 ], [ 44.201, 1.2632 ], [ 44.1882, 1.2549 ], [ 44.1682, 1.2399 ], [ 44.1413, 1.2129 ], [ 44.1293, 1.1987 ], [ 44.1276, 1.191 ], [ 44.1332, 1.1904 ], [ 44.1301, 1.1835 ], [ 44.1235, 1.1868 ], [ 44.096, 1.1712 ], [ 44.0682, 1.1471 ], [ 44.0532, 1.136 ], [ 44.0471, 1.1332 ], [ 44.0462, 1.129 ], [ 44.034, 1.1176 ], [ 44.0318, 1.1096 ], [ 44.0285, 1.1082 ], [ 44.0232, 1.0951 ], [ 44.0238, 1.0915 ], [ 44.0221, 1.0874 ], [ 44.0193, 1.0882 ], [ 44.0207, 1.0904 ], [ 44.019, 1.0924 ], [ 44.0132, 1.091 ], [ 44.0021, 1.0854 ], [ 44.0018, 1.0835 ], [ 43.9793, 1.0693 ], [ 43.9607, 1.0549 ], [ 43.9413, 1.0354 ], [ 43.9385, 1.0285 ], [ 43.9404, 1.0254 ], [ 43.9429, 1.0251 ], [ 43.9382, 1.0207 ], [ 43.9371, 1.0218 ], [ 43.939, 1.0238 ], [ 43.9357, 1.0235 ], [ 43.9149, 1.0121 ], [ 43.8963, 0.9976 ], [ 43.8926, 0.9924 ], [ 43.8893, 0.9915 ], [ 43.8885, 0.9885 ], [ 43.8835, 0.9882 ], [ 43.8521, 0.9668 ], [ 43.8246, 0.9454 ], [ 43.8079, 0.9293 ], [ 43.7976, 0.924 ], [ 43.7785, 0.9107 ], [ 43.7738, 0.9026 ], [ 43.7621, 0.894 ], [ 43.7557, 0.8793 ], [ 43.7415, 0.8679 ], [ 43.7324, 0.8626 ], [ 43.7318, 0.8601 ], [ 43.729, 0.8596 ], [ 43.7296, 0.8585 ], [ 43.7265, 0.8579 ], [ 43.7174, 0.8515 ], [ 43.7124, 0.8457 ], [ 43.694, 0.8338 ], [ 43.6482, 0.7954 ], [ 43.6296, 0.7785 ], [ 43.6196, 0.7665 ], [ 43.5621, 0.7171 ], [ 43.5185, 0.6757 ], [ 43.35, 0.92 ], [ 43.27, 1.03 ], [ 42.98, 1.46 ], [ 43.58, 1.76 ] ] ] ] } }
]
}
