{
"type": "FeatureCollection",
"name": "flood_plains_boundary",
"crs": { "type": "name", "properties": { "name": "urn:ogc:def:crs:OGC:1.3:CRS84" } },
"features": [
{ "type": "Feature", "properties": { "GID_1": "SSD.3_1", "GID_0": "SSD", "COUNTRY": "SouthSudan", "NAME_1": "Jungoli", "VARNAME_1": "Jonglei|Jonglie|Jonqley|Jungl", "NL_NAME_1": "NA", "TYPE_1": "Wilayat", "ENGTYPE_1": "State", "CC_1": "NA", "HASC_1": "SD.JG", "ISO_1": "NA" }, "geometry": { "type": "Polygon", "coordinates": [ [ [ 31.6842, 5.8183 ], [ 31.5747, 5.8798 ], [ 31.2149, 5.918 ], [ 31.0216, 5.9049 ], [ 30.6138, 6.2513 ], [ 30.5245, 6.0914 ], [ 30.2925, 6.0871 ], [ 30.1923, 6.0868 ], [ 30.2035, 6.1467 ], [ 30.1494, 6.2547 ], [ 30.1223, 6.3708 ], [ 29.9866, 6.3715 ], [ 29.7645, 6.3699 ], [ 29.7585, 6.3526 ], [ 29.7739, 6.3137 ], [ 29.7852, 6.2739 ], [ 29.7841, 6.2135 ], [ 29.7693, 6.161 ], [ 29.7811, 6.1418 ], [ 29.7869, 6.1052 ], [ 29.78, 6.0901 ], [ 29.7076, 6.0273 ], [ 29.6554, 5.9881 ], [ 29.6362, 5.9832 ], [ 29.6242, 5.9567 ], [ 29.626, 5.9379 ], [ 29.6177, 5.9124 ], [ 29.6075, 5.8886 ], [ 29.6043, 5.8667 ], [ 29.5918, 5.8219 ], [ 29.5642, 5.7658 ], [ 29.5604, 5.727 ], [ 29.5735, 5.6748 ], [ 28.9919, 5.7274 ], [ 28.9792, 5.7535 ], [ 28.9582, 5.7709 ], [ 28.929, 5.7912 ], [ 28.8852, 5.8087 ], [ 28.8163, 5.8281 ], [ 28.7844, 5.8584 ], [ 28.7061, 5.9496 ], [ 28.6907, 5.9953 ], [ 28.6707, 6.0338 ], [ 28.647, 6.059 ], [ 28.631, 6.0636 ], [ 28.6082, 6.0646 ], [ 28.5844, 6.0693 ], [ 28.5708, 6.0826 ], [ 28.5603, 6.1123 ], [ 28.5392, 6.2116 ], [ 28.521, 6.2514 ], [ 28.5138, 6.2619 ], [ 28.4827, 6.2789 ], [ 28.4732, 6.2858 ], [ 28.4686, 6.3018 ], [ 28.4687, 6.322 ], [ 28.4738, 6.3402 ], [ 28.4862, 6.3548 ], [ 28.5031, 6.3689 ], [ 28.5022, 6.3804 ], [ 28.4831, 6.406 ], [ 28.4668, 6.4317 ], [ 28.4638, 6.4897 ], [ 28.4958, 6.4924 ], [ 28.7847, 6.3895 ], [ 28.8921, 6.4038 ], [ 28.9504, 6.4685 ], [ 28.9899, 6.5342 ], [ 28.9934, 6.6407 ], [ 28.98, 6.7345 ], [ 28.9796, 6.7555 ], [ 28.8672, 7.0447 ], [ 29.0387, 7.3541 ], [ 29.4735, 7.8578 ], [ 29.698491885947448, 7.828739994453338 ], [ 29.691, 7.958 ], [ 29.688, 7.975 ], [ 29.6877, 7.9948 ], [ 29.6853, 8.0099 ], [ 29.6514, 8.4038 ], [ 29.2923, 8.6458 ], [ 29.095, 9.029 ], [ 28.7062, 9.0247 ], [ 28.702, 9.037 ], [ 28.7571, 9.0842 ], [ 28.7823, 9.0895 ], [ 28.7959, 9.1029 ], [ 28.7741, 9.1366 ], [ 28.7898, 9.1812 ], [ 28.8172, 9.1984 ], [ 28.8565, 9.2166 ], [ 28.8799, 9.2103 ], [ 28.9366, 9.2887 ], [ 28.8972, 9.3415 ], [ 28.8815, 9.346 ], [ 28.7815, 9.3918 ], [ 28.7481, 9.3897 ], [ 28.7933, 9.4693 ], [ 28.8292, 9.5031 ], [ 28.9267, 9.5878 ], [ 29.0098, 9.6902 ], [ 29.022, 9.7136 ], [ 29.0678, 9.7291 ], [ 29.522, 9.7381 ], [ 29.5204, 10.0696 ], [ 29.8783, 10.2547 ], [ 29.9138, 10.2943 ], [ 29.9419, 10.2876 ], [ 29.9968, 10.2888 ], [ 30.0637, 10.2489 ], [ 30.2736, 10.1172 ], [ 30.4357, 10.0188 ], [ 30.6024, 9.9239 ], [ 30.7663, 9.7695 ], [ 30.7929, 9.7485 ], [ 30.7788, 9.7486 ], [ 30.760706771054153, 9.50609075457111 ], [ 30.77, 9.505 ], [ 30.796, 9.507 ], [ 30.811, 9.501 ], [ 30.822, 9.499 ], [ 30.843, 9.507 ], [ 30.889, 9.497 ], [ 30.902, 9.5 ], [ 30.915, 9.508 ], [ 30.925, 9.512 ], [ 30.942, 9.516 ], [ 30.958, 9.514 ], [ 30.997, 9.498 ], [ 31.016, 9.488 ], [ 31.029, 9.488 ], [ 31.034, 9.486 ], [ 31.042, 9.48 ], [ 31.051, 9.468 ], [ 31.053, 9.463 ], [ 31.1213, 9.4158 ], [ 31.5587, 9.2509 ], [ 31.6422, 9.2601 ], [ 31.6791, 9.2623 ], [ 31.6866, 9.2478 ], [ 31.6889, 9.2164 ], [ 31.6879, 9.1858 ], [ 31.7033, 9.1677 ], [ 31.7204, 9.1351 ], [ 31.7312, 9.1183 ], [ 31.7465, 9.1112 ], [ 31.7512, 9.1007 ], [ 31.753, 9.0702 ], [ 31.7616, 9.0479 ], [ 31.7851, 9.0135 ], [ 31.7768, 8.9779 ], [ 31.7798, 8.9542 ], [ 31.8013, 8.938 ], [ 31.8141, 8.9071 ], [ 31.8199, 8.8889 ], [ 31.8311, 8.8799 ], [ 31.8381, 8.8673 ], [ 31.8398, 8.8422 ], [ 31.8647, 8.8083 ], [ 31.8983, 8.784 ], [ 31.9258, 8.7611 ], [ 31.9798, 8.7081 ], [ 32.0875, 8.8314 ], [ 32.2558, 8.9256 ], [ 32.2717, 8.9468 ], [ 32.2867, 8.9743 ], [ 32.2972, 8.9836 ], [ 32.4795, 8.9127 ], [ 32.5217, 8.8986 ], [ 32.6427, 8.4438 ], [ 32.925, 8.2834 ], [ 32.8312, 7.9843 ], [ 33.0328, 7.9841 ], [ 33.0363, 7.9743 ], [ 33.0284, 7.9609 ], [ 33.0091, 7.9485 ], [ 33.0021, 7.9401 ], [ 33.005, 7.9264 ], [ 33.0021, 7.9158 ], [ 33.0044, 7.906 ], [ 33.0137, 7.8886 ], [ 33.0039, 7.8851 ], [ 33.0015, 7.8793 ], [ 33.0102, 7.8579 ], [ 33.0368, 7.8197 ], [ 33.0443, 7.8117 ], [ 33.0452, 7.8018 ], [ 33.0501, 7.7873 ], [ 33.0565, 7.7911 ], [ 33.0622, 7.786 ], [ 33.0731, 7.7911 ], [ 33.0846, 7.7924 ], [ 33.0884, 7.8 ], [ 33.0953, 7.796 ], [ 33.105, 7.7873 ], [ 33.1018, 7.7803 ], [ 33.1088, 7.779 ], [ 33.115, 7.7844 ], [ 33.1231, 7.7833 ], [ 33.1335, 7.7879 ], [ 33.1376, 7.7841 ], [ 33.1452, 7.7899 ], [ 33.1561, 7.7918 ], [ 33.1572, 7.7971 ], [ 33.1654, 7.7954 ], [ 33.1839, 7.7838 ], [ 33.1995, 7.7792 ], [ 33.2169, 7.7711 ], [ 33.2244, 7.7694 ], [ 33.2383, 7.7734 ], [ 33.2476, 7.7636 ], [ 33.2813, 7.7415 ], [ 33.295, 7.7456 ], [ 33.2923, 7.7347 ], [ 33.2995, 7.7398 ], [ 33.3037, 7.7336 ], [ 33.3034, 7.7253 ], [ 33.3153, 7.7213 ], [ 33.3193, 7.7121 ], [ 33.3202, 7.7062 ], [ 33.3425, 7.7113 ], [ 33.3514, 7.7234 ], [ 33.3597, 7.7196 ], [ 33.3743, 7.73 ], [ 33.3905, 7.7277 ], [ 33.4073, 7.7346 ], [ 33.4166, 7.7404 ], [ 33.4242, 7.748 ], [ 33.4316, 7.7514 ], [ 33.4478, 7.7398 ], [ 33.4612, 7.7411 ], [ 33.4643, 7.7469 ], [ 33.4734, 7.7439 ], [ 33.4906, 7.7305 ], [ 33.5002, 7.7349 ], [ 33.5028, 7.7273 ], [ 33.5149, 7.7317 ], [ 33.5404, 7.7037 ], [ 33.55, 7.7017 ], [ 33.5623, 7.6937 ], [ 33.5802, 7.6866 ], [ 33.5859, 7.697 ], [ 33.5992, 7.7056 ], [ 33.6125, 7.7018 ], [ 33.6227, 7.7078 ], [ 33.6302, 7.7005 ], [ 33.6363, 7.6917 ], [ 33.6644, 7.6906 ], [ 33.6723, 7.6922 ], [ 33.6837, 7.682 ], [ 33.6817, 7.6735 ], [ 33.6902, 7.6692 ], [ 33.6943, 7.66 ], [ 33.7123, 7.6565 ], [ 33.7199, 7.6514 ], [ 33.733, 7.6398 ], [ 33.7369, 7.6276 ], [ 33.7525, 7.6165 ], [ 33.7693, 7.6114 ], [ 33.7778, 7.6038 ], [ 33.7931, 7.6046 ], [ 33.8339, 7.5681 ], [ 33.8404, 7.5585 ], [ 33.856, 7.5417 ], [ 33.8713, 7.5179 ], [ 33.8874, 7.512 ], [ 33.9036, 7.5179 ], [ 33.9265, 7.512 ], [ 33.9476, 7.5023 ], [ 33.9435, 7.4924 ], [ 33.943, 7.4812 ], [ 33.9452, 7.468 ], [ 33.9566, 7.4632 ], [ 33.9577, 7.4473 ], [ 33.9847, 7.4362 ], [ 33.9922, 7.424 ], [ 33.9981, 7.4184 ], [ 34.0125, 7.3925 ], [ 34.0288, 7.3696 ], [ 34.0332, 7.354 ], [ 34.0306, 7.3365 ], [ 34.0314, 7.3156 ], [ 34.0351, 7.2938 ], [ 34.0328, 7.2753 ], [ 34.0269, 7.266 ], [ 34.0103, 7.2697 ], [ 34.0118, 7.2597 ], [ 34.0191, 7.2494 ], [ 34.034, 7.2353 ], [ 34.0439, 7.2212 ], [ 34.0543, 7.2205 ], [ 34.0765, 7.2101 ], [ 34.092, 7.1965 ], [ 34.0991, 7.1857 ], [ 34.0991, 7.1794 ], [ 34.1285, 7.1752 ], [ 34.1449, 7.1562 ], [ 34.1656, 7.1565 ], [ 34.1924, 7.1376 ], [ 34.1932, 7.0549 ], [ 34.2155, 7.0463 ], [ 34.2321, 7.0155 ], [ 34.2556, 7.0216 ], [ 34.2869, 6.9968 ], [ 34.3226, 6.9736 ], [ 34.3596, 6.9636 ], [ 34.3833, 6.9638 ], [ 34.41, 6.9523 ], [ 34.4843, 6.9043 ], [ 34.5201, 6.8633 ], [ 34.5307, 6.8427 ], [ 34.5339, 6.8117 ], [ 34.5359, 6.7527 ], [ 34.5611, 6.7396 ], [ 34.6129, 6.7327 ], [ 34.629, 6.7491 ], [ 34.6498, 6.7331 ], [ 34.6811, 6.7023 ], [ 34.7078, 6.6966 ], [ 34.7154, 6.6642 ], [ 34.7303, 6.6481 ], [ 34.7468, 6.6246 ], [ 34.7721, 6.5968 ], [ 34.7885, 6.5836 ], [ 34.8061, 6.6 ], [ 34.8445, 6.5989 ], [ 34.8562, 6.6078 ], [ 34.8888, 6.5963 ], [ 34.8846, 6.577 ], [ 34.9053, 6.5713 ], [ 34.9202, 6.5567 ], [ 34.9395, 6.5465 ], [ 34.9545, 6.5185 ], [ 34.9561, 6.5038 ], [ 34.9842, 6.4892 ], [ 35.0066, 6.4643 ], [ 35.0138, 6.445 ], [ 35.0036, 6.4146 ], [ 35.0029, 6.4024 ], [ 34.9983, 6.3951 ], [ 34.9865, 6.3864 ], [ 34.9879, 6.3457 ], [ 34.985, 6.2988 ], [ 34.9511, 6.2678 ], [ 34.949, 6.252 ], [ 34.9523, 6.2376 ], [ 34.9641, 6.2122 ], [ 34.966, 6.2009 ], [ 34.9657, 6.184 ], [ 34.969, 6.1544 ], [ 34.9656, 6.1445 ], [ 34.9599, 6.1353 ], [ 34.9574, 6.1273 ], [ 34.958, 6.1199 ], [ 34.9654, 6.0902 ], [ 34.9721, 6.0847 ], [ 34.9872, 6.0675 ], [ 34.992, 6.0538 ], [ 34.9926, 6.0185 ], [ 35.002, 6.0026 ], [ 34.9998, 5.9936 ], [ 34.1385, 5.7228 ], [ 33.9378, 5.7399 ], [ 33.2416, 5.8473 ], [ 32.1137, 5.8535 ], [ 31.7446, 5.8597 ], [ 31.7086, 5.8587 ], [ 31.6885, 5.8581 ], [ 31.6902, 5.8338 ], [ 31.6842, 5.8183 ] ], [ [ 30.716, 7.22 ], [ 30.699, 7.231 ], [ 30.7123, 7.2217 ], [ 30.716, 7.22 ] ], [ [ 30.307, 8.157 ], [ 30.315, 8.143 ], [ 30.307, 8.159 ], [ 30.307, 8.157 ] ], [ [ 30.411, 9.464 ], [ 30.407, 9.454 ], [ 30.413, 9.466 ], [ 30.411, 9.464 ] ], [ [ 30.421, 9.474 ], [ 30.4172, 9.4702 ], [ 30.425820895522392, 9.476126865671645 ], [ 30.421, 9.474 ] ] ] } }
]
}
