{
"type": "FeatureCollection",
"name": "greenbelt_boundary",
"crs": { "type": "name", "properties": { "name": "urn:ogc:def:crs:OGC:1.3:CRS84" } },
"features": [
{ "type": "Feature", "properties": { "GID_1": "SSD.1_1", "GID_0": "SSD", "COUNTRY": "SouthSudan", "NAME_1": "CentralEquatoria", "VARNAME_1": "BahrelGabel|Bahr-al-Jabal", "NL_NAME_1": "NA", "TYPE_1": "Wilayat", "ENGTYPE_1": "State", "CC_1": "NA", "HASC_1": "SD.BG", "ISO_1": "SS-EC" }, "geometry": { "type": "Polygon", "coordinates": [ [ [ 31.7954, 3.8145 ], [ 31.8006, 3.8117 ], [ 31.8022, 3.8076 ], [ 31.8004, 3.801 ], [ 31.7821, 3.7889 ], [ 31.7426, 3.756 ], [ 31.7375, 3.7541 ], [ 31.7286, 3.7537 ], [ 31.7258, 3.7515 ], [ 31.7074, 3.7243 ], [ 31.6925, 3.7192 ], [ 31.6718, 3.7153 ], [ 31.5759, 3.6826 ], [ 31.5457, 3.6567 ], [ 31.5397, 3.6564 ], [ 31.5216, 3.6461 ], [ 31.5178, 3.6385 ], [ 31.5126, 3.641 ], [ 31.505, 3.6419 ], [ 31.5018, 3.6443 ], [ 31.5025, 3.653 ], [ 31.5081, 3.6704 ], [ 31.5079, 3.6767 ], [ 31.4914, 3.6822 ], [ 31.4551, 3.6993 ], [ 31.4151, 3.7227 ], [ 31.3525, 3.7532 ], [ 31.2901, 3.7965 ], [ 31.2125, 3.7979 ], [ 31.1835, 3.7964 ], [ 31.1651, 3.7971 ], [ 31.1522, 3.7804 ], [ 31.135, 3.7716 ], [ 31.1335, 3.768 ], [ 31.129, 3.7685 ], [ 31.1268, 3.7653 ], [ 31.1219, 3.7633 ], [ 31.122, 3.7604 ], [ 31.1196, 3.7605 ], [ 31.1173, 3.7564 ], [ 31.1137, 3.7576 ], [ 31.1095, 3.7559 ], [ 31.1074, 3.7521 ], [ 31.1043, 3.753 ], [ 31.1029, 3.7491 ], [ 31.0996, 3.7473 ], [ 31.1001, 3.7448 ], [ 31.1046, 3.7432 ], [ 31.1011, 3.7421 ], [ 31.0999, 3.7389 ], [ 31.0937, 3.7424 ], [ 31.0926, 3.7383 ], [ 31.0908, 3.7375 ], [ 31.0881, 3.7446 ], [ 31.084, 3.7425 ], [ 31.0803, 3.7457 ], [ 31.0754, 3.7465 ], [ 31.0689, 3.7456 ], [ 31.0652, 3.7431 ], [ 31.0624, 3.7385 ], [ 31.0604, 3.7389 ], [ 31.0582, 3.7362 ], [ 31.063, 3.7326 ], [ 31.06, 3.7281 ], [ 31.0611, 3.7257 ], [ 31.06, 3.7222 ], [ 31.0541, 3.7196 ], [ 31.0524, 3.7158 ], [ 31.0479, 3.7157 ], [ 31.0298, 3.6997 ], [ 31.0194, 3.6961 ], [ 31.0161, 3.7031 ], [ 31.009, 3.7063 ], [ 31.0077, 3.7092 ], [ 31.0, 3.7118 ], [ 30.9881, 3.709 ], [ 30.9767, 3.7009 ], [ 30.9729, 3.6965 ], [ 30.9678, 3.6848 ], [ 30.9667, 3.6761 ], [ 30.9551, 3.6716 ], [ 30.9547, 3.6672 ], [ 30.9514, 3.6645 ], [ 30.9488, 3.6568 ], [ 30.9472, 3.6564 ], [ 30.9459, 3.653 ], [ 30.9488, 3.6447 ], [ 30.9484, 3.6361 ], [ 30.9395, 3.6293 ], [ 30.9385, 3.6221 ], [ 30.9305, 3.6227 ], [ 30.926, 3.6189 ], [ 30.9262, 3.6147 ], [ 30.9204, 3.6024 ], [ 30.9166, 3.6024 ], [ 30.9088, 3.5977 ], [ 30.9075, 3.59 ], [ 30.9045, 3.5882 ], [ 30.9027, 3.5778 ], [ 30.8875, 3.558 ], [ 30.8861, 3.5504 ], [ 30.8811, 3.5416 ], [ 30.8785, 3.5289 ], [ 30.8743, 3.522 ], [ 30.8729, 3.5144 ], [ 30.8699, 3.51 ], [ 30.8694, 3.5052 ], [ 30.8615, 3.4871 ], [ 30.8614, 3.485 ], [ 30.863, 3.4839 ], [ 30.8702, 3.4827 ], [ 30.862, 3.481 ], [ 30.8536, 3.4864 ], [ 30.8474, 3.4975 ], [ 30.8461, 3.5083 ], [ 30.85, 3.5238 ], [ 30.8602, 3.5467 ], [ 30.8621, 3.554 ], [ 30.862, 3.5631 ], [ 30.857, 3.569 ], [ 30.8143, 3.5799 ], [ 30.8072, 3.5834 ], [ 30.7993, 3.5904 ], [ 30.7909, 3.6033 ], [ 30.786, 3.621 ], [ 30.786, 3.648 ], [ 30.784, 3.657 ], [ 30.778, 3.669 ], [ 30.7713, 3.6747 ], [ 30.761, 3.672 ], [ 30.755, 3.666 ], [ 30.746, 3.6378 ], [ 30.7346, 3.6243 ], [ 30.719, 3.6206 ], [ 30.6975, 3.6275 ], [ 30.6869, 3.634 ], [ 30.674, 3.637 ], [ 30.667, 3.636 ], [ 30.6226, 3.6069 ], [ 30.5919, 3.5943 ], [ 30.5733, 3.5921 ], [ 30.5586, 3.596 ], [ 30.5569, 3.5988 ], [ 30.5563, 3.6064 ], [ 30.5675, 3.6242 ], [ 30.5749, 3.6412 ], [ 30.5768, 3.6569 ], [ 30.5818, 3.6673 ], [ 30.5849, 3.6802 ], [ 30.5715, 3.765 ], [ 30.5557, 3.8274 ], [ 30.5261, 3.8486 ], [ 30.4989, 3.8413 ], [ 30.4716, 3.8269 ], [ 30.453, 3.8311 ], [ 30.4456, 3.8384 ], [ 30.4303, 3.871 ], [ 30.4155, 3.8706 ], [ 30.4038, 3.8662 ], [ 30.379, 3.8952 ], [ 30.3519, 3.9125 ], [ 30.3358, 3.9192 ], [ 30.3209, 3.9315 ], [ 30.2993, 3.931 ], [ 30.2848, 3.9501 ], [ 30.2736, 3.9564 ], [ 30.264, 3.9563 ], [ 30.2452, 3.945 ], [ 30.2226, 3.9374 ], [ 30.2091, 3.9495 ], [ 30.2045, 3.9555 ], [ 30.2015, 3.9674 ], [ 30.1975, 3.9714 ], [ 30.1909, 4.0155 ], [ 30.1733, 4.0304 ], [ 30.1739, 4.0431 ], [ 30.171, 4.0453 ], [ 30.1667, 4.0457 ], [ 30.1586, 4.055 ], [ 30.1574, 4.0707 ], [ 30.1588, 4.0801 ], [ 30.1577, 4.0927 ], [ 30.1557, 4.097 ], [ 30.1481, 4.1035 ], [ 30.1315, 4.111 ], [ 30.1085, 4.1178 ], [ 30.0924, 4.1278 ], [ 30.0572, 4.1394 ], [ 30.0387, 4.1571 ], [ 30.0299, 4.1925 ], [ 30.0267, 4.1968 ], [ 30.0, 4.2157 ], [ 29.9873, 4.2266 ], [ 29.9754, 4.2308 ], [ 29.9566, 4.2321 ], [ 29.9479, 4.2347 ], [ 29.9441, 4.2416 ], [ 29.9503, 4.2528 ], [ 29.9515, 4.26 ], [ 29.9636, 4.2774 ], [ 29.9611, 4.2896 ], [ 29.9502, 4.306 ], [ 29.9418, 4.3148 ], [ 29.9023, 4.3436 ], [ 29.8932, 4.3462 ], [ 29.8856, 4.344 ], [ 29.8768, 4.339 ], [ 29.8599, 4.3398 ], [ 29.8505, 4.3373 ], [ 29.8397, 4.3367 ], [ 29.8312, 4.3427 ], [ 29.8228, 4.3541 ], [ 29.8162, 4.3582 ], [ 29.8066, 4.3615 ], [ 29.7984, 4.3683 ], [ 29.7953, 4.3816 ], [ 29.7986, 4.3952 ], [ 29.7954, 4.4072 ], [ 29.7957, 4.4144 ], [ 29.7985, 4.424 ], [ 29.7956, 4.4371 ], [ 29.7989, 4.4458 ], [ 29.8004, 4.4654 ], [ 29.8032, 4.4688 ], [ 29.806, 4.4828 ], [ 29.8058, 4.4911 ], [ 29.7942, 4.5039 ], [ 29.7931, 4.5089 ], [ 29.7971, 4.5177 ], [ 29.8084, 4.5256 ], [ 29.8208, 4.5373 ], [ 29.8248, 4.549 ], [ 29.8244, 4.5522 ], [ 29.8203, 4.5587 ], [ 29.8116, 4.5622 ], [ 29.7912, 4.5617 ], [ 29.7841, 4.5633 ], [ 29.7757, 4.5754 ], [ 29.7684, 4.5828 ], [ 29.7626, 4.5833 ], [ 29.75, 4.5732 ], [ 29.7449, 4.5707 ], [ 29.7392, 4.5708 ], [ 29.7332, 4.5745 ], [ 29.7157, 4.6013 ], [ 29.7135, 4.6087 ], [ 29.708, 4.6163 ], [ 29.6998, 4.6205 ], [ 29.6927, 4.621 ], [ 29.6803, 4.6248 ], [ 29.6726, 4.6317 ], [ 29.6602, 4.6348 ], [ 29.6479, 4.6469 ], [ 29.6401, 4.6494 ], [ 29.6325, 4.6495 ], [ 29.6232, 4.6528 ], [ 29.6147, 4.6609 ], [ 29.611, 4.6609 ], [ 29.6016, 4.6511 ], [ 29.5954, 4.6481 ], [ 29.5901, 4.6488 ], [ 29.5837, 4.6562 ], [ 29.5737, 4.6623 ], [ 29.5686, 4.6625 ], [ 29.559, 4.6589 ], [ 29.556, 4.6596 ], [ 29.5533, 4.6661 ], [ 29.5494, 4.6664 ], [ 29.5309, 4.6531 ], [ 29.5245, 4.6545 ], [ 29.5209, 4.6665 ], [ 29.5026, 4.6853 ], [ 29.4945, 4.6849 ], [ 29.4845, 4.6714 ], [ 29.4755, 4.6674 ], [ 29.4685, 4.6385 ], [ 29.4752, 4.6079 ], [ 29.4716, 4.6013 ], [ 29.4717, 4.5956 ], [ 29.4691, 4.5966 ], [ 29.4401, 4.5484 ], [ 29.4408, 4.5416 ], [ 29.4379, 4.5239 ], [ 29.4087, 4.4833 ], [ 29.3993, 4.476 ], [ 29.3873, 4.4708 ], [ 29.375, 4.469 ], [ 29.3685, 4.4621 ], [ 29.3478, 4.4369 ], [ 29.3425, 4.411 ], [ 29.3383, 4.4013 ], [ 29.3214, 4.3846 ], [ 29.306, 4.3783 ], [ 29.2957, 4.379 ], [ 29.2911, 4.3841 ], [ 29.2863, 4.3867 ], [ 29.2776, 4.386 ], [ 29.2679, 4.3908 ], [ 29.2568, 4.3775 ], [ 29.2538, 4.3648 ], [ 29.2146, 4.3526 ], [ 29.199, 4.3562 ], [ 29.1805, 4.3711 ], [ 29.1506, 4.4017 ], [ 29.1392, 4.4275 ], [ 29.1249, 4.4304 ], [ 29.0953, 4.4267 ], [ 29.092, 4.4281 ], [ 29.0885, 4.4309 ], [ 29.0938, 4.4495 ], [ 29.0884, 4.4549 ], [ 29.0795, 4.4549 ], [ 29.0688, 4.4572 ], [ 29.0544, 4.465 ], [ 29.0347, 4.4889 ], [ 29.0281, 4.4907 ], [ 29.0002, 4.481 ], [ 28.9958, 4.4819 ], [ 28.9887, 4.4782 ], [ 28.9754, 4.4752 ], [ 28.947, 4.4789 ], [ 28.9323, 4.4736 ], [ 28.9249, 4.473 ], [ 28.9123, 4.4774 ], [ 28.9027, 4.471 ], [ 28.8953, 4.4738 ], [ 28.8825, 4.4827 ], [ 28.8688, 4.4878 ], [ 28.866, 4.4867 ], [ 28.8573, 4.4768 ], [ 28.8451, 4.4734 ], [ 28.83, 4.4737 ], [ 28.8219, 4.4779 ], [ 28.8064, 4.4904 ], [ 28.8035, 4.4967 ], [ 28.8095, 4.5086 ], [ 28.8055, 4.5317 ], [ 28.7977, 4.5386 ], [ 28.7866, 4.5582 ], [ 28.7781, 4.558 ], [ 28.7682, 4.551 ], [ 28.7673, 4.5482 ], [ 28.7599, 4.5432 ], [ 28.7576, 4.5393 ], [ 28.7516, 4.537 ], [ 28.7268, 4.5369 ], [ 28.7166, 4.534 ], [ 28.7043, 4.4998 ], [ 28.7026, 4.4718 ], [ 28.6902, 4.451 ], [ 28.6792, 4.4369 ], [ 28.6654, 4.4286 ], [ 28.6622, 4.4196 ], [ 28.6365, 4.4147 ], [ 28.6264, 4.4111 ], [ 28.6223, 4.4122 ], [ 28.6179, 4.4164 ], [ 28.6055, 4.4132 ], [ 28.6021, 4.4144 ], [ 28.5959, 4.4102 ], [ 28.5922, 4.4039 ], [ 28.5895, 4.3875 ], [ 28.5823, 4.3782 ], [ 28.54, 4.3753 ], [ 28.5239, 4.3716 ], [ 28.5117, 4.3613 ], [ 28.4949, 4.3219 ], [ 28.4881, 4.3114 ], [ 28.4804, 4.3032 ], [ 28.4649, 4.2986 ], [ 28.4536, 4.2878 ], [ 28.4379, 4.2838 ], [ 28.4145, 4.2828 ], [ 28.3854, 4.2995 ], [ 28.3676, 4.3165 ], [ 28.3661, 4.3244 ], [ 28.3634, 4.3286 ], [ 28.3519, 4.3381 ], [ 28.3379, 4.3388 ], [ 28.3315, 4.336 ], [ 28.3214, 4.3365 ], [ 28.3166, 4.3323 ], [ 28.309, 4.3316 ], [ 28.3012, 4.3335 ], [ 28.2893, 4.3328 ], [ 28.2726, 4.3275 ], [ 28.2652, 4.3289 ], [ 28.2554, 4.328 ], [ 28.2386, 4.3296 ], [ 28.2313, 4.334 ], [ 28.2189, 4.3374 ], [ 28.2001, 4.3462 ], [ 28.1834, 4.3674 ], [ 28.1753, 4.3753 ], [ 28.1675, 4.3797 ], [ 28.1366, 4.3895 ], [ 28.132, 4.3939 ], [ 28.1309, 4.4003 ], [ 28.1397, 4.413 ], [ 28.1427, 4.4208 ], [ 28.1425, 4.4256 ], [ 28.14, 4.4305 ], [ 28.1322, 4.436 ], [ 28.1221, 4.4315 ], [ 28.118, 4.4326 ], [ 28.1107, 4.4404 ], [ 28.1027, 4.4369 ], [ 28.0857, 4.435 ], [ 28.0768, 4.438 ], [ 28.0666, 4.4479 ], [ 28.0389, 4.467 ], [ 28.0339, 4.4769 ], [ 28.0324, 4.4854 ], [ 28.0272, 4.5282 ], [ 28.0283, 4.5347 ], [ 28.0263, 4.5381 ], [ 28.0146, 4.5462 ], [ 28.0084, 4.5478 ], [ 27.9935, 4.5466 ], [ 27.988, 4.5489 ], [ 27.9809, 4.5445 ], [ 27.9641, 4.548 ], [ 27.9535, 4.5516 ], [ 27.9442, 4.557 ], [ 27.9334, 4.5516 ], [ 27.9302, 4.544 ], [ 27.9267, 4.5437 ], [ 27.9194, 4.5477 ], [ 27.8683, 4.5479 ], [ 27.8628, 4.55 ], [ 27.8545, 4.5576 ], [ 27.844, 4.5731 ], [ 27.8331, 4.5748 ], [ 27.8322, 4.5849 ], [ 27.8173, 4.5872 ], [ 27.8141, 4.5909 ], [ 27.8109, 4.5999 ], [ 27.8063, 4.6009 ], [ 27.7934, 4.5931 ], [ 27.7838, 4.5971 ], [ 27.7809, 4.6012 ], [ 27.782, 4.6086 ], [ 27.7871, 4.6166 ], [ 27.786, 4.6286 ], [ 27.776, 4.6528 ], [ 27.7749, 4.6611 ], [ 27.7769, 4.6662 ], [ 27.791, 4.685 ], [ 27.791, 4.6934 ], [ 27.7892, 4.709 ], [ 27.789, 4.7541 ], [ 27.7818, 4.7697 ], [ 27.7752, 4.7757 ], [ 27.7717, 4.7756 ], [ 27.766, 4.7854 ], [ 27.7587, 4.7907 ], [ 27.7426, 4.791 ], [ 27.7282, 4.7856 ], [ 27.7137, 4.7859 ], [ 27.7054, 4.795 ], [ 27.7004, 4.8227 ], [ 27.7023, 4.8279 ], [ 27.6945, 4.8529 ], [ 27.6902, 4.8612 ], [ 27.684, 4.8684 ], [ 27.6575, 4.8913 ], [ 27.6446, 4.8934 ], [ 27.6015, 4.8933 ], [ 27.5941, 4.8924 ], [ 27.5803, 4.8854 ], [ 27.568, 4.8951 ], [ 27.5584, 4.9105 ], [ 27.5504, 4.9152 ], [ 27.5387, 4.9189 ], [ 27.5328, 4.9261 ], [ 27.5257, 4.942 ], [ 27.526, 4.9588 ], [ 27.5192, 4.9747 ], [ 27.5146, 4.9775 ], [ 27.5013, 4.981 ], [ 27.4972, 4.9849 ], [ 27.4913, 4.9948 ], [ 27.4842, 5.0006 ], [ 27.4702, 5.0082 ], [ 27.4615, 5.0184 ], [ 27.4567, 5.0278 ], [ 27.4547, 5.0359 ], [ 27.4566, 5.0647 ], [ 27.4553, 5.0718 ], [ 27.448, 5.0815 ], [ 27.4329, 5.0887 ], [ 27.4059, 5.1189 ], [ 27.4016, 5.1431 ], [ 27.3966, 5.1526 ], [ 27.36, 5.1769 ], [ 27.3566, 5.1879 ], [ 27.3501, 5.1935 ], [ 27.3238, 5.1993 ], [ 27.3009, 5.2282 ], [ 27.2978, 5.2507 ], [ 27.2928, 5.2637 ], [ 27.2825, 5.2706 ], [ 27.2752, 5.2784 ], [ 27.2612, 5.3084 ], [ 27.2489, 5.3269 ], [ 27.2458, 5.3471 ], [ 27.2571, 5.357 ], [ 27.2573, 5.3614 ], [ 27.2399, 5.381 ], [ 27.2341, 5.4102 ], [ 27.2332, 5.4268 ], [ 27.2383, 5.4493 ], [ 27.2518, 5.4792 ], [ 27.2585, 5.5068 ], [ 27.2765, 5.5302 ], [ 27.2788, 5.5378 ], [ 27.2773, 5.5502 ], [ 27.2718, 5.5663 ], [ 27.2748, 5.5719 ], [ 27.2838, 5.581 ], [ 27.2834, 5.587 ], [ 27.2689, 5.5972 ], [ 27.2596, 5.6004 ], [ 27.2552, 5.5998 ], [ 27.2455, 5.5922 ], [ 27.2416, 5.5862 ], [ 27.2379, 5.5888 ], [ 27.2364, 5.6044 ], [ 27.2304, 5.6107 ], [ 27.2353, 5.6192 ], [ 27.2376, 5.6272 ], [ 27.2372, 5.6433 ], [ 27.228, 5.6549 ], [ 27.2168, 5.6636 ], [ 27.2127, 5.6701 ], [ 27.2183, 5.682 ], [ 27.2176, 5.6878 ], [ 27.1883, 5.7275 ], [ 27.1507, 5.7439 ], [ 27.145, 5.7492 ], [ 27.1436, 5.7527 ], [ 27.1574, 5.7556 ], [ 27.1639, 5.7616 ], [ 27.1604, 5.7674 ], [ 27.1531, 5.7718 ], [ 27.1471, 5.7727 ], [ 27.1345, 5.7709 ], [ 27.1304, 5.7776 ], [ 27.12, 5.7753 ], [ 27.1192, 5.7928 ], [ 27.1077, 5.7866 ], [ 27.1059, 5.7998 ], [ 27.1038, 5.8007 ], [ 27.0914, 5.8003 ], [ 27.0801, 5.7971 ], [ 27.0721, 5.7863 ], [ 27.0617, 5.7944 ], [ 27.0569, 5.7944 ], [ 27.0509, 5.7903 ], [ 27.0466, 5.7949 ], [ 27.0478, 5.8085 ], [ 27.0278, 5.8131 ], [ 27.0228, 5.8205 ], [ 27.0256, 5.8375 ], [ 27.016, 5.8484 ], [ 27.0027, 5.8567 ], [ 26.9969, 5.8583 ], [ 26.9845, 5.8574 ], [ 26.9631, 5.8472 ], [ 26.9588, 5.8479 ], [ 26.9485, 5.8578 ], [ 26.9338, 5.8647 ], [ 26.9285, 5.87 ], [ 26.9269, 5.8818 ], [ 26.9224, 5.8901 ], [ 26.9159, 5.8935 ], [ 26.9047, 5.8947 ], [ 26.8913, 5.8922 ], [ 26.8732, 5.8824 ], [ 26.8514, 5.8887 ], [ 26.8422, 5.8928 ], [ 26.8351, 5.8988 ], [ 26.833, 5.9039 ], [ 26.8329, 5.9391 ], [ 26.8284, 5.9621 ], [ 26.8192, 5.9808 ], [ 26.8105, 5.9875 ], [ 26.8057, 5.9877 ], [ 26.8023, 5.9831 ], [ 26.7993, 5.9836 ], [ 26.7926, 5.9935 ], [ 26.7827, 5.997 ], [ 26.7694, 5.9987 ], [ 26.7518, 6.0132 ], [ 26.7433, 6.0144 ], [ 26.7364, 6.0112 ], [ 26.7313, 6.0066 ], [ 26.7198, 6.0059 ], [ 26.7042, 6.017 ], [ 26.6953, 6.0196 ], [ 26.6835, 6.0189 ], [ 26.6672, 6.0065 ], [ 26.6624, 6.0042 ], [ 26.655, 6.005 ], [ 26.635, 6.0163 ], [ 26.6201, 6.0168 ], [ 26.61, 6.0279 ], [ 26.6054, 6.0299 ], [ 26.5802, 6.0266 ], [ 26.5602, 6.0333 ], [ 26.5542, 6.0464 ], [ 26.5522, 6.0568 ], [ 26.5437, 6.0602 ], [ 26.5391, 6.0639 ], [ 26.5368, 6.0711 ], [ 26.538, 6.0819 ], [ 26.5325, 6.089 ], [ 26.5316, 6.1014 ], [ 26.5243, 6.1051 ], [ 26.519, 6.1155 ], [ 26.4974, 6.1087 ], [ 26.4866, 6.1027 ], [ 26.4661, 6.0811 ], [ 26.4603, 6.0777 ], [ 26.4557, 6.0793 ], [ 26.4512, 6.0858 ], [ 26.4505, 6.1028 ], [ 26.4591, 6.1237 ], [ 26.4662, 6.1301 ], [ 26.483, 6.1381 ], [ 26.4996, 6.1489 ], [ 26.5097, 6.1579 ], [ 26.524, 6.1769 ], [ 26.5337, 6.1946 ], [ 26.5354, 6.2151 ], [ 26.5326, 6.2201 ], [ 26.5271, 6.2247 ], [ 26.5177, 6.2264 ], [ 26.509, 6.2246 ], [ 26.4963, 6.2163 ], [ 26.4887, 6.2145 ], [ 26.4807, 6.2205 ], [ 26.4754, 6.2281 ], [ 26.4725, 6.2371 ], [ 26.4756, 6.2773 ], [ 26.4662, 6.2842 ], [ 26.4556, 6.2859 ], [ 26.4473, 6.2894 ], [ 26.4437, 6.2947 ], [ 26.4372, 6.2995 ], [ 26.3966, 6.3058 ], [ 26.3846, 6.3123 ], [ 26.3619, 6.3404 ], [ 26.3436, 6.357 ], [ 26.3344, 6.3616 ], [ 26.2979, 6.3877 ], [ 26.2936, 6.393 ], [ 26.294, 6.402 ], [ 26.2984, 6.4093 ], [ 26.3139, 6.4228 ], [ 26.3157, 6.4297 ], [ 26.3017, 6.4383 ], [ 26.3006, 6.441 ], [ 26.307, 6.4521 ], [ 26.3084, 6.4597 ], [ 26.3036, 6.4654 ], [ 26.2951, 6.4606 ], [ 26.29, 6.4599 ], [ 26.2866, 6.4625 ], [ 26.2931, 6.4864 ], [ 26.2972, 6.4939 ], [ 26.3232, 6.4937 ], [ 26.3269, 6.498 ], [ 26.3269, 6.5038 ], [ 26.3205, 6.5123 ], [ 26.3274, 6.5199 ], [ 26.3307, 6.5332 ], [ 26.336, 6.5401 ], [ 26.3461, 6.546 ], [ 26.3498, 6.5502 ], [ 26.3494, 6.5559 ], [ 26.3529, 6.5752 ], [ 26.3577, 6.5793 ], [ 26.377, 6.5765 ], [ 26.3818, 6.5788 ], [ 26.3805, 6.5876 ], [ 26.3817, 6.5949 ], [ 26.3874, 6.6014 ], [ 26.4038, 6.6117 ], [ 26.4102, 6.6238 ], [ 26.4151, 6.6374 ], [ 26.4144, 6.6438 ], [ 26.4123, 6.6462 ], [ 27.9364, 6.7968 ], [ 28.0455, 6.7429 ], [ 28.4925, 6.7484 ], [ 28.4984, 6.6135 ], [ 28.4958, 6.4924 ], [ 28.4638, 6.4897 ], [ 28.4668, 6.4317 ], [ 28.4831, 6.406 ], [ 28.5022, 6.3804 ], [ 28.5031, 6.3689 ], [ 28.4862, 6.3548 ], [ 28.4738, 6.3402 ], [ 28.4687, 6.322 ], [ 28.4686, 6.3018 ], [ 28.4732, 6.2858 ], [ 28.4827, 6.2789 ], [ 28.5138, 6.2619 ], [ 28.521, 6.2514 ], [ 28.5392, 6.2116 ], [ 28.5603, 6.1123 ], [ 28.5708, 6.0826 ], [ 28.5844, 6.0693 ], [ 28.6082, 6.0646 ], [ 28.631, 6.0636 ], [ 28.647, 6.059 ], [ 28.6707, 6.0338 ], [ 28.6907, 5.9953 ], [ 28.7061, 5.9496 ], [ 28.7844, 5.8584 ], [ 28.8163, 5.8281 ], [ 28.8852, 5.8087 ], [ 28.929, 5.7912 ], [ 28.9582, 5.7709 ], [ 28.9792, 5.7535 ], [ 28.9919, 5.7274 ], [ 29.5735, 5.6748 ], [ 29.5604, 5.727 ], [ 29.5642, 5.7658 ], [ 29.5918, 5.8219 ], [ 29.6043, 5.8667 ], [ 29.6075, 5.8886 ], [ 29.6177, 5.9124 ], [ 29.626, 5.9379 ], [ 29.6242, 5.9567 ], [ 29.6362, 5.9832 ], [ 29.6554, 5.9881 ], [ 29.7076, 6.0273 ], [ 29.78, 6.0901 ], [ 29.7869, 6.1052 ], [ 29.7811, 6.1418 ], [ 29.7693, 6.161 ], [ 29.7841, 6.2135 ], [ 29.7852, 6.2739 ], [ 29.7739, 6.3137 ], [ 29.7585, 6.3526 ], [ 29.7645, 6.3699 ], [ 29.9866, 6.3715 ], [ 30.1223, 6.3708 ], [ 30.1494, 6.2547 ], [ 30.2035, 6.1467 ], [ 30.1923, 6.0868 ], [ 30.2925, 6.0871 ], [ 30.5245, 6.0914 ], [ 30.6138, 6.2513 ], [ 31.0216, 5.9049 ], [ 31.2149, 5.918 ], [ 31.5747, 5.8798 ], [ 31.6842, 5.8183 ], [ 31.6902, 5.8338 ], [ 31.6885, 5.8581 ], [ 31.7446, 5.8597 ], [ 32.1137, 5.8535 ], [ 32.097, 5.2074 ], [ 32.1685, 4.9532 ], [ 32.1591, 4.8295 ], [ 32.1589, 4.7892 ], [ 32.2231, 4.6055 ], [ 32.1777, 4.5558 ], [ 32.1037, 4.5301 ], [ 32.0676, 4.4959 ], [ 32.07, 4.2686 ], [ 32.0001, 4.1668 ], [ 32.0031, 4.1164 ], [ 31.9925, 4.1086 ], [ 31.9855, 4.078 ], [ 31.9578, 4.0896 ], [ 31.9062, 4.0693 ], [ 31.8573, 4.042 ], [ 31.7643, 4.037 ], [ 31.7212, 3.9928 ], [ 31.759, 3.9136 ], [ 31.7768, 3.8845 ], [ 31.8011, 3.835 ], [ 31.8025, 3.8249 ], [ 31.7958, 3.8223 ], [ 31.7954, 3.8145 ] ] ] } }
]
}
