{
"type": "FeatureCollection",
"name": "hills_and_mountains_boundary",
"crs": { "type": "name", "properties": { "name": "urn:ogc:def:crs:OGC:1.3:CRS84" } },
"features": [
{ "type": "Feature", "properties": { "GID_1": "SSD.5_1", "GID_0": "SSD", "COUNTRY": "SouthSudan", "NAME_1": "NorthBahr-al-Ghazal", "VARNAME_1": "NorthBahr-al-Gazal|NorthBahr", "NL_NAME_1": "NA", "TYPE_1": "Wilayat", "ENGTYPE_1": "State", "CC_1": "NA", "HASC_1": "SD.NB", "ISO_1": "NA" }, "geometry": { "type": "Polygon", "coordinates": [ [ [ 28.9934, 6.6407 ], [ 28.9899, 6.5342 ], [ 28.9504, 6.4685 ], [ 28.8921, 6.4038 ], [ 28.7847, 6.3895 ], [ 28.4958, 6.4924 ], [ 28.4984, 6.6135 ], [ 28.4925, 6.7484 ], [ 28.4906, 7.157 ], [ 28.0953, 7.1711 ], [ 28.0958, 7.1903 ], [ 28.0927, 7.2081 ], [ 28.0791, 7.2356 ], [ 28.076, 7.248 ], [ 28.076, 7.255 ], [ 28.08, 7.272 ], [ 28.082, 7.29 ], [ 28.095, 7.305 ], [ 28.099, 7.316 ], [ 28.096, 7.333 ], [ 28.101, 7.356 ], [ 28.103, 7.376 ], [ 28.106, 7.38 ], [ 28.107, 7.413 ], [ 28.113, 7.429 ], [ 28.115, 7.442 ], [ 28.115, 7.468 ], [ 28.112, 7.49 ], [ 28.113, 7.51 ], [ 28.112, 7.516 ], [ 28.117, 7.54 ], [ 28.126, 7.561 ], [ 28.1281, 7.5735 ], [ 28.1259, 7.5785 ], [ 28.126, 7.585 ], [ 28.123, 7.596 ], [ 28.117, 7.609 ], [ 28.1, 7.633 ], [ 28.089, 7.643 ], [ 28.08, 7.648 ], [ 28.073, 7.655 ], [ 28.062, 7.671 ], [ 28.043, 7.681 ], [ 28.037, 7.682 ], [ 28.024, 7.69 ], [ 27.998, 7.7 ], [ 27.9859, 7.7097 ], [ 27.9654, 7.7168 ], [ 27.9435, 7.7311 ], [ 27.917, 7.7289 ], [ 27.9002, 7.7495 ], [ 27.881, 7.7614 ], [ 27.85, 7.7624 ], [ 27.8281, 7.7945 ], [ 27.7866, 7.8102 ], [ 27.7177, 7.8502 ], [ 27.6585, 7.9121 ], [ 27.6554, 7.9331 ], [ 27.6477, 7.9587 ], [ 27.6564, 7.9864 ], [ 27.5959, 8.2928 ], [ 27.5637, 8.3044 ], [ 27.5175, 8.2898 ], [ 27.5107, 8.2801 ], [ 26.9304, 7.987 ], [ 26.791, 7.8947 ], [ 26.303, 8.2016 ], [ 26.2859, 8.2152 ], [ 26.2254, 8.4199 ], [ 26.2007, 8.5672 ], [ 26.1974, 8.6317 ], [ 26.1951, 8.6318 ], [ 26.1929, 8.7358 ], [ 26.196, 8.744 ], [ 26.195, 8.751 ], [ 26.197, 8.777 ], [ 26.196, 8.782 ], [ 26.184, 8.791 ], [ 26.182, 8.796 ], [ 26.188, 8.826 ], [ 26.187, 8.833 ], [ 26.181, 8.847 ], [ 26.181, 8.853 ], [ 26.1853, 8.8597 ], [ 26.1443, 8.8855 ], [ 26.1354, 9.0632 ], [ 26.2145, 9.91 ], [ 26.2923, 9.6628 ], [ 26.3693, 9.5709 ], [ 26.6421, 9.4881 ], [ 26.7197, 9.4823 ], [ 27.0263, 9.5898 ], [ 27.1234, 9.609 ], [ 27.2885, 9.6177 ], [ 27.4001, 9.6109 ], [ 27.6526, 9.608 ], [ 27.789, 9.5922 ], [ 27.9, 9.6033 ], [ 28.034, 9.3346 ], [ 28.7591, 9.3371 ], [ 28.7481, 9.3897 ], [ 28.7815, 9.3918 ], [ 28.8815, 9.346 ], [ 28.8972, 9.3415 ], [ 28.9366, 9.2887 ], [ 28.8799, 9.2103 ], [ 28.8565, 9.2166 ], [ 28.8172, 9.1984 ], [ 28.7898, 9.1812 ], [ 28.7741, 9.1366 ], [ 28.7959, 9.1029 ], [ 28.7823, 9.0895 ], [ 28.7571, 9.0842 ], [ 28.702, 9.037 ], [ 28.7055, 9.0269 ], [ 28.7062, 9.0247 ], [ 29.095, 9.029 ], [ 29.2923, 8.6458 ], [ 29.6514, 8.4038 ], [ 29.6853, 8.0099 ], [ 29.6877, 7.9948 ], [ 29.688, 7.975 ], [ 29.691, 7.958 ], [ 29.6985, 7.8286 ], [ 29.4735, 7.8578 ], [ 29.0387, 7.3541 ], [ 28.8672, 7.0447 ], [ 28.9796, 6.7555 ], [ 28.98, 6.7345 ], [ 28.9934, 6.6407 ] ], [ [ 27.5906, 8.8525 ], [ 27.5892, 8.8422 ], [ 27.589541732283465, 8.837684251968504 ], [ 27.5906, 8.8525 ] ], [ [ 27.826411764705885, 8.962117647058831 ], [ 27.825, 8.96 ], [ 27.822, 8.948 ], [ 27.826411764705885, 8.962117647058831 ] ] ] } }
]
}
