{
"type": "FeatureCollection",
"name": "central_highlands_boundary",
"crs": { "type": "name", "properties": { "name": "urn:ogc:def:crs:OGC:1.3:CRS84" } },
"features": [
{ "type": "Feature", "properties": { "GID_1": "KEN.13_1", "GID_0": "KEN", "COUNTRY": "Kenya", "NAME_1": "Kiambu", "VARNAME_1": "NA", "NL_NAME_1": "NA", "TYPE_1": "County", "ENGTYPE_1": "County", "CC_1": "22", "HASC_1": "KE.KB", "ISO_1": "KE-13" }, "geometry": { "type": "MultiPolygon", "coordinates": [ [ [ [ 36.8755, -1.4035 ], [ 36.8708, -1.4052 ], [ 36.8695, -1.4011 ], [ 36.8638, -1.4017 ], [ 36.8573, -1.3966 ], [ 36.8498, -1.3943 ], [ 36.8449, -1.3892 ], [ 36.8447, -1.3851 ], [ 36.8432, -1.3843 ], [ 36.8395, -1.386 ], [ 36.837, -1.3846 ], [ 36.8363, -1.3864 ], [ 36.8282, -1.3855 ], [ 36.8221, -1.383 ], [ 36.8197, -1.379 ], [ 36.8148, -1.3797 ], [ 36.8116, -1.3843 ], [ 36.8094, -1.383 ], [ 36.8088, -1.3857 ], [ 36.8057, -1.387 ], [ 36.8051, -1.3844 ], [ 36.8026, -1.3864 ], [ 36.8002, -1.385 ], [ 36.796, -1.3859 ], [ 36.7954, -1.3834 ], [ 36.7937, -1.3829 ], [ 36.7896, -1.3858 ], [ 36.7868, -1.3848 ], [ 36.7829, -1.3868 ], [ 36.7801, -1.3839 ], [ 36.7681, -1.3865 ], [ 36.7602, -1.3822 ], [ 36.7489, -1.3824 ], [ 36.7442, -1.3785 ], [ 36.7415, -1.3794 ], [ 36.728, -1.3725 ], [ 36.7022, -1.3495 ], [ 36.6928, -1.3506 ], [ 36.6894, -1.3471 ], [ 36.6849, -1.3348 ], [ 36.6826, -1.3349 ], [ 36.6789, -1.326 ], [ 36.6749, -1.3278 ], [ 36.6691, -1.3236 ], [ 36.6728, -1.3219 ], [ 36.6635, -1.3173 ], [ 36.6702, -1.3036 ], [ 36.6747, -1.3048 ], [ 36.6785, -1.2976 ], [ 36.6807, -1.2965 ], [ 36.6863, -1.2824 ], [ 36.6891, -1.2796 ], [ 36.6893, -1.273 ], [ 36.6834, -1.2864 ], [ 36.6747, -1.3008 ], [ 36.6702, -1.2996 ], [ 36.6658, -1.3078 ], [ 36.6597, -1.2965 ], [ 36.4908, -1.264 ], [ 36.5136, -1.236 ], [ 36.5349, -1.1612 ], [ 36.5445, -1.1207 ], [ 36.5672, -1.0944 ], [ 36.5699, -1.0965 ], [ 36.5912, -1.0579 ], [ 36.5902, -1.0435 ], [ 36.5878, -1.0365 ], [ 36.5951, -1.0059 ], [ 36.5966, -0.9913 ], [ 36.6001, -0.9872 ], [ 36.5962, -0.9857 ], [ 36.5964, -0.9786 ], [ 36.5914, -0.9793 ], [ 36.5873, -0.9721 ], [ 36.5877, -0.9587 ], [ 36.5788, -0.9406 ], [ 36.5749, -0.938 ], [ 36.5687, -0.9392 ], [ 36.5615, -0.9329 ], [ 36.5726, -0.9257 ], [ 36.5676, -0.922 ], [ 36.5542, -0.9202 ], [ 36.5543, -0.9146 ], [ 36.5442, -0.9018 ], [ 36.5545, -0.8666 ], [ 36.5523, -0.849 ], [ 36.5616, -0.8358 ], [ 36.5589, -0.8317 ], [ 36.5303, -0.7226 ], [ 36.5207, -0.7046 ], [ 36.5441, -0.6907 ], [ 36.5212, -0.647 ], [ 36.5263, -0.6432 ], [ 36.5266, -0.6388 ], [ 36.5248, -0.6363 ], [ 36.5247, -0.6317 ], [ 36.5162, -0.6262 ], [ 36.5159, -0.6227 ], [ 36.5182, -0.6228 ], [ 36.5201, -0.6193 ], [ 36.5163, -0.6197 ], [ 36.5123, -0.6149 ], [ 36.5119, -0.6045 ], [ 36.5061, -0.6169 ], [ 36.4679, -0.6205 ], [ 36.456, -0.6058 ], [ 36.4514, -0.5596 ], [ 36.443, -0.5641 ], [ 36.4312, -0.5659 ], [ 36.4062, -0.569 ], [ 36.403, -0.5665 ], [ 36.4043, -0.563 ], [ 36.4032, -0.5599 ], [ 36.4049, -0.5598 ], [ 36.4032, -0.5549 ], [ 36.4039, -0.5498 ], [ 36.407, -0.5467 ], [ 36.4027, -0.5415 ], [ 36.4045, -0.5329 ], [ 36.4003, -0.5301 ], [ 36.4013, -0.5227 ], [ 36.4056, -0.518 ], [ 36.4004, -0.5099 ], [ 36.4035, -0.5057 ], [ 36.4027, -0.4999 ], [ 36.3969, -0.4956 ], [ 36.3976, -0.4892 ], [ 36.3964, -0.4881 ], [ 36.3981, -0.4869 ], [ 36.3981, -0.4829 ], [ 36.3961, -0.4807 ], [ 36.3925, -0.4704 ], [ 36.3953, -0.4684 ], [ 36.3922, -0.4655 ], [ 36.391, -0.4594 ], [ 36.3886, -0.4572 ], [ 36.3887, -0.459 ], [ 36.3873, -0.4579 ], [ 36.387, -0.4513 ], [ 36.3856, -0.4504 ], [ 36.389, -0.4484 ], [ 36.3878, -0.4466 ], [ 36.3896, -0.4405 ], [ 36.3868, -0.4336 ], [ 36.3874, -0.43 ], [ 36.3852, -0.4225 ], [ 36.3862, -0.4213 ], [ 36.3812, -0.4201 ], [ 36.3792, -0.4164 ], [ 36.3808, -0.405 ], [ 36.378, -0.398 ], [ 36.3648, -0.3893 ], [ 36.3601, -0.372 ], [ 36.3343, -0.3827 ], [ 36.3139, -0.3798 ], [ 36.3116, -0.3627 ], [ 36.293, -0.3673 ], [ 36.2758, -0.3864 ], [ 36.2629, -0.3364 ], [ 36.2524, -0.3363 ], [ 36.249, -0.3399 ], [ 36.246, -0.3407 ], [ 36.2411, -0.3384 ], [ 36.2317, -0.3374 ], [ 36.2286, -0.3475 ], [ 36.2249, -0.3401 ], [ 36.2138, -0.288 ], [ 36.2128, -0.2635 ], [ 36.2461, -0.2486 ], [ 36.2371, -0.2235 ], [ 36.2242, -0.2045 ], [ 36.2202, -0.2052 ], [ 36.2118, -0.1972 ], [ 36.2115, -0.1815 ], [ 36.2008, -0.1302 ], [ 36.2194, -0.1069 ], [ 36.2207, -0.0992 ], [ 36.2285, -0.1005 ], [ 36.2277, -0.1084 ], [ 36.2467, -0.1117 ], [ 36.2515, -0.078 ], [ 36.2506, -0.0538 ], [ 36.2466, -0.0539 ], [ 36.2481, -0.0455 ], [ 36.2527, -0.0408 ], [ 36.2551, -0.0288 ], [ 36.2526, -0.0275 ], [ 36.2573, -0.0176 ], [ 36.2568, -0.0152 ], [ 36.2654, 0.0252 ], [ 36.269, 0.0259 ], [ 36.2624, 0.0399 ], [ 36.2564, 0.0623 ], [ 36.2616, 0.0696 ], [ 36.2711, 0.0938 ], [ 36.289, 0.1175 ], [ 36.2857, 0.1324 ], [ 36.2773, 0.1539 ], [ 36.2603, 0.1813 ], [ 36.2538, 0.1881 ], [ 36.2586, 0.1883 ], [ 36.265, 0.1908 ], [ 36.2674, 0.1964 ], [ 36.2838, 0.207 ], [ 36.2886, 0.2118 ], [ 36.2923, 0.2176 ], [ 36.2912, 0.2215 ], [ 36.2964, 0.234 ], [ 36.2966, 0.2405 ], [ 36.2918, 0.2585 ], [ 36.279, 0.2608 ], [ 36.2818, 0.2714 ], [ 36.2796, 0.2784 ], [ 36.265, 0.282 ], [ 36.2598, 0.2954 ], [ 36.2499, 0.3038 ], [ 36.24, 0.3194 ], [ 36.2257, 0.3249 ], [ 36.231, 0.34 ], [ 36.2477, 0.347 ], [ 36.2445, 0.3331 ], [ 36.2492, 0.3354 ], [ 36.2614, 0.3471 ], [ 36.2601, 0.3497 ], [ 36.2607, 0.3683 ], [ 36.2588, 0.3776 ], [ 36.2598, 0.3802 ], [ 36.2581, 0.3804 ], [ 36.2576, 0.3833 ], [ 36.2274, 0.4026 ], [ 36.2295, 0.4258 ], [ 36.2941, 0.5704 ], [ 36.2779, 0.637 ], [ 36.2891, 0.6507 ], [ 36.3474, 0.666 ], [ 36.4047, 0.7229 ], [ 36.469, 0.8264 ], [ 36.4754, 0.8431 ], [ 36.4901, 0.8523 ], [ 36.4838, 0.8287 ], [ 36.4833, 0.8189 ], [ 36.6759, 0.8189 ], [ 36.6752, 0.8235 ], [ 36.6787, 0.8221 ], [ 36.6806, 0.8248 ], [ 36.7019, 0.8272 ], [ 36.7132, 0.8238 ], [ 36.7371, 0.8342 ], [ 36.7569, 0.8646 ], [ 36.7811, 0.8734 ], [ 36.7928, 0.8755 ], [ 36.8192, 0.86 ], [ 36.8192, 0.8467 ], [ 36.8331, 0.8193 ], [ 36.8344, 0.8065 ], [ 36.8442, 0.8003 ], [ 36.8413, 0.795 ], [ 36.8481, 0.7838 ], [ 36.865, 0.7428 ], [ 36.8761, 0.7412 ], [ 36.8765, 0.7428 ], [ 36.8866, 0.7399 ], [ 36.8895, 0.743 ], [ 36.9026, 0.7454 ], [ 36.9048, 0.7421 ], [ 36.9083, 0.7411 ], [ 36.9078, 0.7357 ], [ 36.9111, 0.7326 ], [ 36.9119, 0.7342 ], [ 36.9148, 0.7328 ], [ 36.9176, 0.7337 ], [ 36.9166, 0.7357 ], [ 36.9197, 0.7404 ], [ 36.9187, 0.7421 ], [ 36.9248, 0.7456 ], [ 36.9284, 0.745 ], [ 36.929, 0.7469 ], [ 36.9315, 0.7468 ], [ 36.9307, 0.7341 ], [ 36.9273, 0.7303 ], [ 36.9262, 0.723 ], [ 36.9265, 0.6761 ], [ 36.9235, 0.6703 ], [ 36.9235, 0.6669 ], [ 36.9217, 0.6621 ], [ 36.9139, 0.6623 ], [ 36.9123, 0.6525 ], [ 36.9083, 0.6453 ], [ 36.9089, 0.6343 ], [ 36.9059, 0.6319 ], [ 36.8973, 0.6309 ], [ 36.8939, 0.6235 ], [ 36.8909, 0.6233 ], [ 36.8873, 0.6107 ], [ 36.8841, 0.6129 ], [ 36.8791, 0.6059 ], [ 36.8757, 0.6055 ], [ 36.8721, 0.5999 ], [ 36.8675, 0.5967 ], [ 36.8661, 0.5931 ], [ 36.8681, 0.5873 ], [ 36.8673, 0.5785 ], [ 36.8645, 0.5737 ], [ 36.8677, 0.5713 ], [ 37.1135, 0.5417 ], [ 37.1375, 0.5401 ], [ 37.1387, 0.5387 ], [ 37.2581, 0.5245 ], [ 37.3513, 0.5147 ], [ 37.3683, 0.5143 ], [ 37.3687, 0.5093 ], [ 37.3598, 0.5019 ], [ 37.3602, 0.4951 ], [ 37.3623, 0.4922 ], [ 37.3597, 0.4893 ], [ 37.3601, 0.4777 ], [ 37.3579, 0.4747 ], [ 37.3575, 0.4697 ], [ 37.3499, 0.4617 ], [ 37.3505, 0.4567 ], [ 37.3483, 0.452 ], [ 37.3485, 0.4478 ], [ 37.3517, 0.4398 ], [ 37.3533, 0.4145 ], [ 37.3619, 0.4109 ], [ 37.3663, 0.4045 ], [ 37.3691, 0.3989 ], [ 37.3701, 0.3847 ], [ 37.3786, 0.381 ], [ 37.3776, 0.3739 ], [ 37.3793, 0.3682 ], [ 37.3824, 0.3678 ], [ 37.3837, 0.3623 ], [ 37.3908, 0.3613 ], [ 37.392, 0.3593 ], [ 37.3913, 0.3489 ], [ 37.3934, 0.3405 ], [ 37.3917, 0.3275 ], [ 37.3941, 0.3191 ], [ 37.3919, 0.3159 ], [ 37.3956, 0.3063 ], [ 37.3942, 0.3047 ], [ 37.3953, 0.3017 ], [ 37.3923, 0.2977 ], [ 37.3947, 0.2951 ], [ 37.3931, 0.2915 ], [ 37.3881, 0.2881 ], [ 37.3882, 0.2852 ], [ 37.3865, 0.2837 ], [ 37.3879, 0.2819 ], [ 37.3857, 0.2775 ], [ 37.3759, 0.2747 ], [ 37.3737, 0.2721 ], [ 37.3723, 0.2653 ], [ 37.3651, 0.2611 ], [ 37.3611, 0.2563 ], [ 37.3623, 0.2547 ], [ 37.3666, 0.2542 ], [ 37.366, 0.2509 ], [ 37.3629, 0.2484 ], [ 37.3637, 0.2407 ], [ 37.3577, 0.2387 ], [ 37.3551, 0.2209 ], [ 37.3511, 0.2119 ], [ 37.3485, 0.2109 ], [ 37.3479, 0.1955 ], [ 37.3441, 0.1939 ], [ 37.3367, 0.1939 ], [ 37.3409, 0.1855 ], [ 37.3395, 0.1835 ], [ 37.3325, 0.1809 ], [ 37.3197, 0.1831 ], [ 37.3081, 0.1779 ], [ 37.2827, 0.1522 ], [ 37.2809, 0.1299 ], [ 37.2643, 0.1139 ], [ 37.2525, 0.0967 ], [ 37.2461, 0.1089 ], [ 37.2351, 0.1045 ], [ 37.2325, 0.0815 ], [ 37.2301, 0.0791 ], [ 37.2201, 0.0733 ], [ 37.2103, 0.0713 ], [ 37.2017, 0.0656 ], [ 37.1987, 0.0679 ], [ 37.1879, 0.0617 ], [ 37.171, 0.0601 ], [ 37.167, 0.0574 ], [ 37.1525, 0.0548 ], [ 37.1476, 0.0484 ], [ 37.1423, 0.048 ], [ 37.1394, 0.0453 ], [ 37.1286, 0.0421 ], [ 37.1087, 0.0425 ], [ 37.0876, 0.0267 ], [ 37.0913, 0.0251 ], [ 37.0887, 0.0225 ], [ 37.0931, 0.0201 ], [ 37.0937, 0.0175 ], [ 37.1009, 0.0113 ], [ 37.1043, 0.0037 ], [ 37.1069, 0.0015 ], [ 37.1107, -0.0085 ], [ 37.1194, -0.0173 ], [ 37.1127, -0.0314 ], [ 37.1208, -0.0145 ], [ 37.1262, -0.0206 ], [ 37.1287, -0.0205 ], [ 37.1304, -0.0234 ], [ 37.1326, -0.0235 ], [ 37.1317, -0.0285 ], [ 37.1373, -0.0336 ], [ 37.3078, -0.1456 ], [ 37.205, -0.4176 ], [ 37.3078, -0.1457 ], [ 37.4251, -0.4171 ], [ 37.4245, -0.4208 ], [ 37.4263, -0.4273 ], [ 37.4259, -0.4297 ], [ 37.424, -0.4305 ], [ 37.4252, -0.4331 ], [ 37.4232, -0.4336 ], [ 37.4245, -0.4354 ], [ 37.4224, -0.4365 ], [ 37.4226, -0.4395 ], [ 37.4256, -0.4418 ], [ 37.4281, -0.4412 ], [ 37.4263, -0.4588 ], [ 37.4287, -0.4605 ], [ 37.4269, -0.4624 ], [ 37.4256, -0.4689 ], [ 37.427, -0.4704 ], [ 37.4238, -0.481 ], [ 37.428, -0.4923 ], [ 37.4304, -0.4944 ], [ 37.4255, -0.4976 ], [ 37.427, -0.4996 ], [ 37.4254, -0.5029 ], [ 37.4271, -0.5095 ], [ 37.4336, -0.5195 ], [ 37.4372, -0.5207 ], [ 37.4457, -0.5292 ], [ 37.4455, -0.5341 ], [ 37.4478, -0.5384 ], [ 37.4473, -0.5432 ], [ 37.4501, -0.5464 ], [ 37.4528, -0.549 ], [ 37.461, -0.5496 ], [ 37.4629, -0.5553 ], [ 37.472, -0.5555 ], [ 37.4768, -0.5664 ], [ 37.4757, -0.569 ], [ 37.4788, -0.5756 ], [ 37.4839, -0.5789 ], [ 37.4852, -0.5814 ], [ 37.4827, -0.5887 ], [ 37.4794, -0.5894 ], [ 37.4777, -0.5931 ], [ 37.4794, -0.5962 ], [ 37.4765, -0.599 ], [ 37.4788, -0.6 ], [ 37.479, -0.6016 ], [ 37.4811, -0.6008 ], [ 37.4821, -0.6029 ], [ 37.4836, -0.6028 ], [ 37.4826, -0.6038 ], [ 37.4882, -0.6145 ], [ 37.4869, -0.6161 ], [ 37.4869, -0.6227 ], [ 37.4806, -0.6253 ], [ 37.4797, -0.6333 ], [ 37.4779, -0.6353 ], [ 37.4786, -0.6391 ], [ 37.4756, -0.6416 ], [ 37.4724, -0.6485 ], [ 37.472, -0.6527 ], [ 37.4743, -0.6559 ], [ 37.4731, -0.6574 ], [ 37.4785, -0.6691 ], [ 37.4763, -0.6729 ], [ 37.4767, -0.6772 ], [ 37.4739, -0.6787 ], [ 37.4748, -0.6846 ], [ 37.478, -0.6869 ], [ 37.4798, -0.6917 ], [ 37.4772, -0.7075 ], [ 37.4781, -0.7126 ], [ 37.4794, -0.7144 ], [ 37.484, -0.7144 ], [ 37.4847, -0.718 ], [ 37.4876, -0.7166 ], [ 37.4897, -0.719 ], [ 37.489, -0.7209 ], [ 37.4925, -0.7221 ], [ 37.4933, -0.7262 ], [ 37.4964, -0.7298 ], [ 37.4925, -0.7317 ], [ 37.4854, -0.7283 ], [ 37.4804, -0.7281 ], [ 37.4741, -0.7241 ], [ 37.4707, -0.7259 ], [ 37.4673, -0.7264 ], [ 37.4669, -0.7287 ], [ 37.4633, -0.7287 ], [ 37.4639, -0.7336 ], [ 37.4444, -0.7306 ], [ 37.4213, -0.7473 ], [ 37.4063, -0.7476 ], [ 37.3876, -0.7529 ], [ 37.3711, -0.764 ], [ 37.3671, -0.762 ], [ 37.3589, -0.7616 ], [ 37.3586, -0.7697 ], [ 37.3484, -0.7722 ], [ 37.326, -0.7646 ], [ 37.3183, -0.7579 ], [ 37.3155, -0.7483 ], [ 37.3052, -0.749 ], [ 37.2976, -0.7531 ], [ 37.2894, -0.7545 ], [ 37.2764, -0.7537 ], [ 37.2669, -0.7775 ], [ 37.2682, -0.7838 ], [ 37.266598305084749, -0.784689830508474 ], [ 37.2674, -0.7852 ], [ 37.2626, -0.7915 ], [ 37.2584, -0.8374 ], [ 37.2332, -0.8371 ], [ 37.2252, -0.8521 ], [ 37.2407, -0.8578 ], [ 37.2416, -0.8615 ], [ 37.2484, -0.8613 ], [ 37.2527, -0.8572 ], [ 37.2562, -0.864 ], [ 37.2822, -0.8928 ], [ 37.3009, -0.9028 ], [ 37.3197, -0.9157 ], [ 37.3175, -0.9181 ], [ 37.3186, -0.9209 ], [ 37.3234, -0.926 ], [ 37.3249, -0.9257 ], [ 37.3241, -0.929 ], [ 37.3256, -0.9301 ], [ 37.3146, -0.9361 ], [ 37.3168, -0.944 ], [ 37.3277, -0.9404 ], [ 37.3306, -0.9438 ], [ 37.3283, -0.9462 ], [ 37.3339, -0.9515 ], [ 37.3351, -0.9557 ], [ 37.3369, -0.9545 ], [ 37.3426, -0.9577 ], [ 37.3546, -0.9434 ], [ 37.356, -0.9456 ], [ 37.3546, -0.9474 ], [ 37.3667, -0.9641 ], [ 37.3463, -0.9766 ], [ 37.3355, -0.9765 ], [ 37.3383, -0.9813 ], [ 37.3625, -0.9837 ], [ 37.4061, -1.008 ], [ 37.4211, -1.0299 ], [ 37.419214676173496, -1.031220855614976 ], [ 37.4211, -1.0339 ], [ 37.3877, -1.0573 ], [ 37.3626, -1.0935 ], [ 37.3425, -1.1168 ], [ 37.3386, -1.1107 ], [ 37.3267, -1.0995 ], [ 37.326, -1.0968 ], [ 37.3187, -1.0932 ], [ 37.3109, -1.0826 ], [ 37.3036, -1.0779 ], [ 37.3018, -1.0745 ], [ 37.2954, -1.0704 ], [ 37.2878, -1.0695 ], [ 37.2814, -1.0651 ], [ 37.2625, -1.0676 ], [ 37.2496, -1.0777 ], [ 37.2462, -1.0762 ], [ 37.2435, -1.0782 ], [ 37.2323, -1.0734 ], [ 37.2281, -1.0739 ], [ 37.2239, -1.0765 ], [ 37.2105, -1.0785 ], [ 37.2013, -1.0883 ], [ 37.1927, -1.0922 ], [ 37.1901, -1.0958 ], [ 37.1879, -1.104 ], [ 37.1809, -1.1071 ], [ 37.1754, -1.1134 ], [ 37.1792, -1.1225 ], [ 37.1817, -1.124 ], [ 37.182, -1.1278 ], [ 37.1849, -1.1284 ], [ 37.1869, -1.1314 ], [ 37.1868, -1.1367 ], [ 37.1841, -1.1404 ], [ 37.1854, -1.1427 ], [ 37.1807, -1.1506 ], [ 37.1825, -1.1626 ], [ 37.1807, -1.1661 ], [ 37.1741, -1.1714 ], [ 37.166, -1.1863 ], [ 37.1615, -1.1911 ], [ 37.1556, -1.1932 ], [ 37.1596, -1.2033 ], [ 37.1555, -1.2044 ], [ 37.1528, -1.2075 ], [ 37.156, -1.2104 ], [ 37.1544, -1.2193 ], [ 37.1508, -1.2233 ], [ 37.1406, -1.2239 ], [ 37.1358, -1.2309 ], [ 37.1261, -1.2306 ], [ 37.1206, -1.2327 ], [ 37.1185, -1.2357 ], [ 37.119, -1.245 ], [ 37.1161, -1.2462 ], [ 37.1107, -1.2445 ], [ 37.109, -1.2454 ], [ 37.1099, -1.2538 ], [ 37.1086, -1.2578 ], [ 37.1026, -1.2579 ], [ 37.1016, -1.2596 ], [ 37.086500436681156, -1.246474235807801 ], [ 37.1034, -1.2619 ], [ 37.1007, -1.273 ], [ 37.0972, -1.2707 ], [ 37.085, -1.2763 ], [ 37.0823, -1.2826 ], [ 37.0773, -1.2815 ], [ 37.076, -1.2889 ], [ 37.0724, -1.2925 ], [ 37.0723, -1.2971 ], [ 37.0757, -1.2984 ], [ 37.0756, -1.3013 ], [ 37.026, -1.2895 ], [ 37.0019, -1.2984 ], [ 36.9948, -1.2791 ], [ 36.9738, -1.2872 ], [ 36.9836, -1.3125 ], [ 36.9658, -1.3518 ], [ 36.9604, -1.346 ], [ 36.9339, -1.3364 ], [ 36.9056, -1.3618 ], [ 36.9145, -1.3723 ], [ 36.921, -1.3845 ], [ 36.9227, -1.392 ], [ 36.9281, -1.392 ], [ 36.9316, -1.3963 ], [ 36.9364, -1.3968 ], [ 36.9421, -1.4012 ], [ 36.9453, -1.4065 ], [ 36.9477, -1.4213 ], [ 36.9548, -1.4262 ], [ 36.9595, -1.4351 ], [ 36.9621, -1.4364 ], [ 36.961, -1.4421 ], [ 36.9578, -1.4404 ], [ 36.9558, -1.435 ], [ 36.9501, -1.4356 ], [ 36.9428, -1.4306 ], [ 36.9314, -1.4305 ], [ 36.8899, -1.4123 ], [ 36.8902, -1.4105 ], [ 36.8927, -1.4108 ], [ 36.8944, -1.411 ], [ 36.8949, -1.4092 ], [ 36.8854, -1.4048 ], [ 36.8755, -1.4035 ] ], [ [ 36.7115, -0.129 ], [ 36.6563, -0.1468 ], [ 36.6596, -0.1458 ], [ 36.7115, -0.129 ] ], [ [ 36.606006967213119, -0.359479098360651 ], [ 36.6167, -0.3497 ], [ 36.6062, -0.3589 ], [ 36.606006967213119, -0.359479098360651 ] ], [ [ 36.604177027027028, -0.365795045045049 ], [ 36.604409375, -0.364271875 ], [ 36.604, -0.3655 ], [ 36.604177027027028, -0.365795045045049 ] ], [ [ 36.6597, -0.4552 ], [ 36.6515, -0.4533 ], [ 36.660807020490424, -0.456281860933826 ], [ 36.6597, -0.4552 ] ], [ [ 36.6641, -0.4595 ], [ 36.662404330552242, -0.45784286849424 ], [ 36.664986458044858, -0.463153281639435 ], [ 36.6641, -0.4595 ] ], [ [ 36.6674, -0.4731 ], [ 36.66695015608741, -0.471246097814775 ], [ 36.666834532374104, -0.47413669064748 ], [ 36.6674, -0.4731 ] ], [ [ 36.660886227544914, -0.487011377245502 ], [ 36.661117180616742, -0.485702643171811 ], [ 36.6608, -0.4863 ], [ 36.660886227544914, -0.487011377245502 ] ], [ [ 36.703206011010259, -0.617506502008626 ], [ 36.695399820717135, -0.607085039840648 ], [ 36.7007, -0.6154 ], [ 36.703206011010259, -0.617506502008626 ] ], [ [ 36.7093, -0.596 ], [ 36.7122, -0.6017 ], [ 36.709356490727529, -0.595554350927246 ], [ 36.7093, -0.596 ] ], [ [ 36.7081, -0.581 ], [ 36.708319904076738, -0.581827258193436 ], [ 36.708503428239389, -0.580695525857064 ], [ 36.7081, -0.581 ] ], [ [ 36.74961104417671, -0.564879919678715 ], [ 36.7351, -0.5604 ], [ 36.7492, -0.565 ], [ 36.74961104417671, -0.564879919678715 ] ], [ [ 36.8013, -0.5626 ], [ 36.792882083333332, -0.564491666666667 ], [ 36.7941, -0.5648 ], [ 36.8013, -0.5626 ] ], [ [ 36.8826, -0.6025 ], [ 36.882314975845411, -0.602408212560387 ], [ 36.882830769230765, -0.602893665158371 ], [ 36.8826, -0.6025 ] ], [ [ 36.889920917303684, -0.604143432939541 ], [ 36.8884, -0.6038 ], [ 36.885143857758621, -0.605070689655174 ], [ 36.8856, -0.6055 ], [ 36.889920917303684, -0.604143432939541 ] ], [ [ 37.152959366754622, -0.635841688654354 ], [ 37.1449, -0.6325 ], [ 37.1529, -0.636 ], [ 37.152959366754622, -0.635841688654354 ] ], [ [ 37.1671, -0.6297 ], [ 37.1595, -0.6322 ], [ 37.16825, -0.63045 ], [ 37.1671, -0.6297 ] ], [ [ 37.169145537145916, -0.631034045964724 ], [ 37.168512645161293, -0.630621290322581 ], [ 37.16862654867257, -0.632614601769911 ], [ 37.169145537145916, -0.631034045964724 ] ], [ [ 37.174701212121214, -0.626870909090909 ], [ 37.1708, -0.6263 ], [ 37.170786096256684, -0.626348663101606 ], [ 37.173, -0.6276 ], [ 37.174701212121214, -0.626870909090909 ] ], [ [ 37.1713, -0.6228 ], [ 37.174827088607593, -0.626816962025316 ], [ 37.1751, -0.6267 ], [ 37.1713, -0.6228 ] ], [ [ 37.178211518193223, -0.595567076537013 ], [ 37.1799, -0.6054 ], [ 37.1783, -0.5956 ], [ 37.178211518193223, -0.595567076537013 ] ], [ [ 37.1651, -0.5145 ], [ 37.162979156327545, -0.518066873449131 ], [ 37.1632, -0.5181 ], [ 37.1651, -0.5145 ] ], [ [ 37.16238489208633, -0.514340287769784 ], [ 37.1621, -0.5151 ], [ 37.1651, -0.5145 ], [ 37.16238489208633, -0.514340287769784 ] ], [ [ 37.1633, -0.5119 ], [ 37.162664238410599, -0.513595364238412 ], [ 37.1695, -0.5086 ], [ 37.1633, -0.5119 ] ], [ [ 37.163710869565215, -0.494184782608694 ], [ 37.1637, -0.4942 ], [ 37.168762568807345, -0.498170642201839 ], [ 37.1687, -0.498 ], [ 37.163710869565215, -0.494184782608694 ] ], [ [ 37.1642, -0.4893 ], [ 37.165544827586203, -0.491182758620687 ], [ 37.1656, -0.4911 ], [ 37.1642, -0.4893 ] ], [ [ 36.622498622806333, -0.825289533328087 ], [ 36.6226, -0.8253 ], [ 36.622, -0.8215 ], [ 36.622498622806333, -0.825289533328087 ] ], [ [ 36.7223, -0.8006 ], [ 36.7185, -0.797 ], [ 36.7205, -0.7994 ], [ 36.727, -0.8054 ], [ 36.7223, -0.8006 ] ], [ [ 37.2426, -1.019 ], [ 37.241159340659337, -1.01865879120879 ], [ 37.2418, -1.0191 ], [ 37.2459, -1.0189 ], [ 37.2426, -1.019 ] ], [ [ 36.694643173431736, -1.25379520295203 ], [ 36.6941, -1.2536 ], [ 36.694189320388347, -1.253845631067961 ], [ 36.694643173431736, -1.25379520295203 ] ], [ [ 36.8492, -1.2113 ], [ 36.8507, -1.2009 ], [ 36.848965769525591, -1.211209036708968 ], [ 36.8492, -1.2113 ] ], [ [ 36.8989, -1.191 ], [ 36.898824704172718, -1.190893813576915 ], [ 36.8902, -1.1907 ], [ 36.8989, -1.191 ] ], [ [ 36.9196, -1.16 ], [ 36.9025, -1.1579 ], [ 36.8978, -1.1584 ], [ 36.9196, -1.16 ] ], [ [ 36.9915, -1.2228 ], [ 36.9864, -1.221 ], [ 36.985547264047007, -1.221123172970988 ], [ 36.9915, -1.2228 ] ], [ [ 37.0862, -1.2462 ], [ 37.086306304079109, -1.246297033374538 ], [ 37.0948, -1.2423 ], [ 37.0862, -1.2462 ] ], [ [ 36.705964921987388, -0.639575002766405 ], [ 36.7058, -0.6405 ], [ 36.7094, -0.6578 ], [ 36.705964921987388, -0.639575002766405 ] ], [ [ 37.1687, -0.6339 ], [ 37.169427868852459, -0.634391803278686 ], [ 37.1686625, -0.63324375 ], [ 37.1687, -0.6339 ] ], [ [ 37.169, -0.6437 ], [ 37.169235701906409, -0.643770710571925 ], [ 37.172, -0.6391 ], [ 37.169, -0.6437 ] ], [ [ 37.2141, -0.685 ], [ 37.214276298025361, -0.684736319475116 ], [ 37.2106, -0.6769 ], [ 37.2141, -0.685 ] ], [ [ 37.257113360323885, -0.724335141700406 ], [ 37.2571, -0.7241 ], [ 37.256871808510638, -0.724061382978723 ], [ 37.257113360323885, -0.724335141700406 ] ], [ [ 37.265624689655176, -0.741707586206899 ], [ 37.2657, -0.7416 ], [ 37.2576, -0.7329 ], [ 37.265624689655176, -0.741707586206899 ] ], [ [ 37.269977395048443, -0.752773035522068 ], [ 37.2702, -0.7523 ], [ 37.2629, -0.7456 ], [ 37.269977395048443, -0.752773035522068 ] ], [ [ 37.261811010682003, -0.767057847165162 ], [ 37.2618, -0.7667 ], [ 37.26, -0.7662 ], [ 37.261811010682003, -0.767057847165162 ] ], [ [ 37.2652, -0.7838 ], [ 37.266281142857139, -0.784488 ], [ 37.2648, -0.7806 ], [ 37.2652, -0.7838 ] ] ], [ [ [ 37.4959, 0.1722 ], [ 37.4955, 0.1705 ], [ 37.4957, 0.1741 ], [ 37.4961, 0.1733 ], [ 37.4959, 0.1722 ] ] ], [ [ [ 37.4899, 0.1982 ], [ 37.4899, 0.1983 ], [ 37.49, 0.1986 ], [ 37.4899, 0.1982 ] ] ], [ [ [ 37.4959, 0.2165 ], [ 37.4955, 0.2161 ], [ 37.4963, 0.2172 ], [ 37.4959, 0.2165 ] ] ], [ [ [ 37.6529, -0.3338 ], [ 37.6685, -0.3392 ], [ 37.6711, -0.3384 ], [ 37.6691, -0.3397 ], [ 37.6745, -0.3425 ], [ 37.6919, -0.3416 ], [ 37.7053, -0.3479 ], [ 37.7033, -0.3551 ], [ 37.7038, -0.3592 ], [ 37.7107, -0.3628 ], [ 37.7201, -0.3768 ], [ 37.7267, -0.3832 ], [ 37.7303, -0.395 ], [ 37.7356, -0.3971 ], [ 37.7255, -0.4032 ], [ 37.7213, -0.4115 ], [ 37.7165, -0.4119 ], [ 37.7103, -0.4097 ], [ 37.7079, -0.4066 ], [ 37.7089, -0.4017 ], [ 37.7071, -0.3979 ], [ 37.6849, -0.3804 ], [ 37.6781, -0.3774 ], [ 37.6741, -0.3773 ], [ 37.6715, -0.3723 ], [ 37.6709, -0.3615 ], [ 37.6675, -0.3601 ], [ 37.6567, -0.3599 ], [ 37.6533, -0.3615 ], [ 37.6477, -0.3582 ], [ 37.6469, -0.3543 ], [ 37.6376, -0.3494 ], [ 37.6355, -0.3493 ], [ 37.6321, -0.3521 ], [ 37.6261, -0.3514 ], [ 37.6093, -0.3404 ], [ 37.6079, -0.3372 ], [ 37.3221, -0.1577 ], [ 37.6039, -0.3197 ], [ 37.6113, -0.322 ], [ 37.6163, -0.3249 ], [ 37.6241, -0.3238 ], [ 37.6473, -0.3354 ], [ 37.6529, -0.3338 ] ] ], [ [ [ 37.5555, 0.0757 ], [ 37.5573, 0.0727 ], [ 37.5634, 0.0688 ], [ 37.5649, 0.0677 ], [ 37.5574, 0.0725 ], [ 37.5549, 0.0745 ], [ 37.5555, 0.0757 ] ] ], [ [ [ 37.5527, 0.1214 ], [ 37.5524, 0.1206 ], [ 37.5526, 0.1213 ], [ 37.5528, 0.1216 ], [ 37.5527, 0.1214 ] ] ], [ [ [ 37.5537, 0.1383 ], [ 37.5553, 0.1342 ], [ 37.5509, 0.1444 ], [ 37.5517, 0.1427 ], [ 37.5537, 0.1383 ] ] ], [ [ [ 37.5495, 0.147 ], [ 37.5509, 0.1444 ], [ 37.5507, 0.1447 ], [ 37.55, 0.1458 ], [ 37.5495, 0.147 ] ] ], [ [ [ 37.5491, 0.1477 ], [ 37.5492, 0.1476 ], [ 37.549, 0.1478 ], [ 37.5489, 0.1482 ], [ 37.5491, 0.1477 ] ] ], [ [ [ 37.5388, 0.1583 ], [ 37.5381, 0.1565 ], [ 37.5374, 0.1547 ], [ 37.5373, 0.1545 ], [ 37.5369, 0.1557 ], [ 37.5388, 0.1583 ] ] ], [ [ [ 37.5307, 0.2136 ], [ 37.5304, 0.2137 ], [ 37.5277, 0.2151 ], [ 37.5309, 0.2137 ], [ 37.5307, 0.2136 ] ] ], [ [ [ 37.5111, 0.2265 ], [ 37.5097, 0.2261 ], [ 37.5129, 0.2275 ], [ 37.5119, 0.2269 ], [ 37.5111, 0.2265 ] ] ], [ [ [ 37.5146, 0.2307 ], [ 37.5137, 0.2331 ], [ 37.5149, 0.2315 ], [ 37.5148, 0.2314 ], [ 37.5146, 0.2307 ] ] ] ] } }
]
}
