{
"type": "FeatureCollection",
"name": "eastern_semiarid_boundary",
"crs": { "type": "name", "properties": { "name": "urn:ogc:def:crs:OGC:1.3:CRS84" } },
"features": [
{ "type": "Feature", "properties": { "GID_1": "KEN.6_1", "GID_0": "KEN", "COUNTRY": "Kenya", "NAME_1": "Embu", "VARNAME_1": "NA", "NL_NAME_1": "NA", "TYPE_1": "County", "ENGTYPE_1": "County", "CC_1": "14", "HASC_1": "KE.EB", "ISO_1": "KE-06" }, "geometry": { "type": "Polygon", "coordinates": [ [ [ 38.514, -2.9834 ], [ 38.5063, -2.9825 ], [ 38.4928, -2.984 ], [ 38.4887, -2.9776 ], [ 38.4774, -2.9853 ], [ 38.4683, -2.9849 ], [ 38.4675, -2.9878 ], [ 38.4633, -2.9878 ], [ 38.4599, -2.9922 ], [ 38.4582, -2.9912 ], [ 38.4475, -2.971 ], [ 38.4301, -2.9556 ], [ 38.4087, -2.927 ], [ 38.4053, -2.9256 ], [ 38.3982, -2.9271 ], [ 38.3929, -2.926 ], [ 38.3619, -2.898 ], [ 38.3385, -2.8653 ], [ 38.3187, -2.8327 ], [ 38.302, -2.8159 ], [ 38.2791, -2.7824 ], [ 38.2579, -2.7576 ], [ 38.2505, -2.752 ], [ 38.2497, -2.7497 ], [ 38.1847, -2.7028 ], [ 38.1669, -2.6931 ], [ 38.1625, -2.693 ], [ 38.1613, -2.6792 ], [ 38.1573, -2.6881 ], [ 38.1577, -2.6936 ], [ 38.1533, -2.6982 ], [ 38.1287, -2.6981 ], [ 38.1224, -2.7045 ], [ 38.1183, -2.7047 ], [ 38.1153, -2.7126 ], [ 38.1013, -2.7183 ], [ 38.1001, -2.7207 ], [ 37.9744, -2.7874 ], [ 37.9372, -2.7705 ], [ 37.9298, -2.7629 ], [ 37.9263, -2.7496 ], [ 37.9261, -2.7407 ], [ 37.9291, -2.738 ], [ 37.9301, -2.7218 ], [ 37.9244, -2.7087 ], [ 37.9208, -2.7042 ], [ 37.9072, -2.7037 ], [ 37.9011, -2.7015 ], [ 37.8926, -2.6747 ], [ 37.8789, -2.6609 ], [ 37.8691, -2.6432 ], [ 37.8605, -2.6223 ], [ 37.8497, -2.6039 ], [ 37.5962, -2.312 ], [ 37.5983, -2.3095 ], [ 37.5999, -2.3112 ], [ 37.6015, -2.3092 ], [ 37.6042, -2.3114 ], [ 37.6075, -2.3079 ], [ 37.6066, -2.3034 ], [ 37.6099, -2.3022 ], [ 37.6124, -2.2976 ], [ 37.6184, -2.2978 ], [ 37.6218, -2.3044 ], [ 37.6259, -2.3012 ], [ 37.6309, -2.3014 ], [ 37.6323, -2.2988 ], [ 37.6318, -2.294 ], [ 37.637, -2.2977 ], [ 37.6425, -2.2971 ], [ 37.6461, -2.2993 ], [ 37.6483, -2.2915 ], [ 37.6552, -2.2875 ], [ 37.658, -2.2865 ], [ 37.6602, -2.2889 ], [ 37.6645, -2.29 ], [ 37.6699, -2.288 ], [ 37.6701, -2.2851 ], [ 37.6679, -2.2839 ], [ 37.667, -2.2809 ], [ 37.6722, -2.2793 ], [ 37.6733, -2.2675 ], [ 37.6785, -2.2643 ], [ 37.6761, -2.2595 ], [ 37.6783, -2.2535 ], [ 37.6787, -2.2432 ], [ 37.6756, -2.2392 ], [ 37.6763, -2.2325 ], [ 37.6749, -2.228 ], [ 37.6793, -2.2278 ], [ 37.6802, -2.2256 ], [ 37.6837, -2.2241 ], [ 37.688, -2.2155 ], [ 37.6947, -2.2099 ], [ 37.7059, -2.1947 ], [ 37.7155, -2.1903 ], [ 37.7243, -2.1915 ], [ 37.7236, -2.1881 ], [ 37.7076, -2.1816 ], [ 37.7058, -2.1725 ], [ 37.6991, -2.1643 ], [ 37.6924, -2.1647 ], [ 37.665, -2.1554 ], [ 37.6213, -2.161 ], [ 37.5925, -2.1528 ], [ 37.5731, -2.1376 ], [ 37.5646, -2.1268 ], [ 37.5505, -2.1271 ], [ 37.5452, -2.1252 ], [ 37.5431, -2.122 ], [ 37.5438, -2.1151 ], [ 37.5412, -2.1123 ], [ 37.5372, -2.1111 ], [ 37.5336, -2.1058 ], [ 37.4786, -2.0839 ], [ 37.4759, -2.0908 ], [ 37.4624, -2.0854 ], [ 37.4651, -2.0788 ], [ 37.4518, -2.0728 ], [ 37.3818, -2.0223 ], [ 37.3646, -2.0221 ], [ 37.3645, -2.0138 ], [ 37.3589, -2.0113 ], [ 37.3141, -2.007 ], [ 37.308, -2.0018 ], [ 37.303, -2.0016 ], [ 37.2991, -2.0034 ], [ 37.2836, -1.9943 ], [ 37.2806, -1.994 ], [ 37.2758, -1.9753 ], [ 37.2678, -1.9642 ], [ 37.2657, -1.9581 ], [ 37.2593, -1.9585 ], [ 37.2556, -1.9568 ], [ 37.253, -1.952 ], [ 37.2473, -1.9493 ], [ 37.2442, -1.942 ], [ 37.2363, -1.9353 ], [ 37.2234, -1.9321 ], [ 37.2111, -1.9314 ], [ 37.2059, -1.9337 ], [ 37.2001, -1.9318 ], [ 37.1928, -1.9344 ], [ 37.1871, -1.9334 ], [ 37.1823, -1.9285 ], [ 37.183, -1.9228 ], [ 37.1703, -1.9161 ], [ 37.17, -1.9119 ], [ 37.1574, -1.8959 ], [ 37.159, -1.8918 ], [ 37.1531, -1.8862 ], [ 37.1543, -1.8835 ], [ 37.1587, -1.8846 ], [ 37.1604, -1.8827 ], [ 37.1603, -1.8745 ], [ 37.1637, -1.871 ], [ 37.1621, -1.8669 ], [ 37.1626, -1.8578 ], [ 37.1569, -1.8504 ], [ 37.1556, -1.8447 ], [ 37.1477, -1.8397 ], [ 37.142, -1.8387 ], [ 37.1422, -1.8361 ], [ 37.1475, -1.8335 ], [ 37.1488, -1.8311 ], [ 37.1436, -1.8276 ], [ 37.143, -1.8222 ], [ 37.1457, -1.8186 ], [ 37.1413, -1.8116 ], [ 37.1525, -1.801 ], [ 37.1512, -1.7942 ], [ 37.1604, -1.7797 ], [ 37.1599, -1.7772 ], [ 37.1567, -1.7771 ], [ 37.1529, -1.7775 ], [ 37.152, -1.7741 ], [ 37.1585, -1.764 ], [ 37.1488, -1.7592 ], [ 37.147, -1.751 ], [ 37.1489, -1.7429 ], [ 37.1479, -1.7382 ], [ 37.145, -1.7359 ], [ 37.141, -1.7357 ], [ 37.1328, -1.74 ], [ 37.1322, -1.7425 ], [ 37.1241, -1.741 ], [ 37.1241, -1.7383 ], [ 37.118, -1.7371 ], [ 37.1114, -1.733 ], [ 37.0854, -1.6983 ], [ 37.0843, -1.699 ], [ 37.0803, -1.6937 ], [ 37.0814, -1.6929 ], [ 37.0065, -1.5927 ], [ 37.0004, -1.5973 ], [ 36.9908, -1.5849 ], [ 36.996, -1.581 ], [ 36.9776, -1.5531 ], [ 36.9752, -1.552 ], [ 36.9737, -1.5549 ], [ 36.9662, -1.5533 ], [ 36.9572, -1.5423 ], [ 36.9573, -1.5327 ], [ 36.9589, -1.5296 ], [ 36.9613, -1.53 ], [ 36.963, -1.5258 ], [ 36.9627, -1.5108 ], [ 36.9743, -1.4987 ], [ 36.9708, -1.4893 ], [ 36.9776, -1.4748 ], [ 36.9474, -1.4592 ], [ 36.9496, -1.4554 ], [ 36.9416, -1.4526 ], [ 36.9366, -1.4531 ], [ 36.9306, -1.4572 ], [ 36.9273, -1.4556 ], [ 36.9224, -1.4569 ], [ 36.9206, -1.4617 ], [ 36.9119, -1.4651 ], [ 36.9004, -1.4723 ], [ 36.8887, -1.4838 ], [ 36.8841, -1.4847 ], [ 36.8783, -1.476 ], [ 36.8899, -1.4123 ], [ 36.9314, -1.4305 ], [ 36.9428, -1.4306 ], [ 36.9501, -1.4356 ], [ 36.9558, -1.435 ], [ 36.9578, -1.4404 ], [ 36.961, -1.4421 ], [ 36.9621, -1.4364 ], [ 36.9595, -1.4351 ], [ 36.9548, -1.4262 ], [ 36.9477, -1.4213 ], [ 36.9453, -1.4065 ], [ 36.9421, -1.4012 ], [ 36.9364, -1.3968 ], [ 36.9316, -1.3963 ], [ 36.9281, -1.392 ], [ 36.9227, -1.392 ], [ 36.921, -1.3845 ], [ 36.9145, -1.3723 ], [ 36.9056, -1.3618 ], [ 36.9339, -1.3364 ], [ 36.9604, -1.346 ], [ 36.9658, -1.3518 ], [ 36.9836, -1.3125 ], [ 36.9738, -1.2872 ], [ 36.9948, -1.2791 ], [ 37.0019, -1.2984 ], [ 37.026, -1.2895 ], [ 37.0756, -1.3013 ], [ 37.0757, -1.2984 ], [ 37.0723, -1.2971 ], [ 37.0724, -1.2925 ], [ 37.076, -1.2889 ], [ 37.0765, -1.2826 ], [ 37.0784, -1.2812 ], [ 37.0823, -1.2826 ], [ 37.085, -1.2763 ], [ 37.0972, -1.2707 ], [ 37.1007, -1.273 ], [ 37.1037, -1.2635 ], [ 37.1015, -1.2601 ], [ 37.1021, -1.2582 ], [ 37.1094, -1.2571 ], [ 37.1093, -1.2449 ], [ 37.1161, -1.2462 ], [ 37.119, -1.245 ], [ 37.1185, -1.2357 ], [ 37.1206, -1.2327 ], [ 37.1261, -1.2306 ], [ 37.1358, -1.2309 ], [ 37.1406, -1.2239 ], [ 37.1508, -1.2233 ], [ 37.1544, -1.2193 ], [ 37.156, -1.2104 ], [ 37.1528, -1.2075 ], [ 37.1555, -1.2044 ], [ 37.1596, -1.2033 ], [ 37.1556, -1.1932 ], [ 37.1615, -1.1911 ], [ 37.166, -1.1863 ], [ 37.1741, -1.1714 ], [ 37.1807, -1.1661 ], [ 37.1825, -1.1626 ], [ 37.1807, -1.1506 ], [ 37.1854, -1.1427 ], [ 37.1841, -1.1404 ], [ 37.1868, -1.1367 ], [ 37.1869, -1.1314 ], [ 37.1849, -1.1284 ], [ 37.182, -1.1278 ], [ 37.1817, -1.124 ], [ 37.1792, -1.1225 ], [ 37.1754, -1.1134 ], [ 37.1809, -1.1071 ], [ 37.1879, -1.104 ], [ 37.1901, -1.0958 ], [ 37.1927, -1.0922 ], [ 37.2013, -1.0883 ], [ 37.2113, -1.078 ], [ 37.2239, -1.0765 ], [ 37.2281, -1.0739 ], [ 37.2323, -1.0734 ], [ 37.2435, -1.0782 ], [ 37.2462, -1.0762 ], [ 37.2496, -1.0777 ], [ 37.2625, -1.0676 ], [ 37.2814, -1.0651 ], [ 37.2878, -1.0695 ], [ 37.2954, -1.0704 ], [ 37.3018, -1.0745 ], [ 37.3036, -1.0779 ], [ 37.3109, -1.0826 ], [ 37.3187, -1.0932 ], [ 37.326, -1.0968 ], [ 37.3267, -1.0995 ], [ 37.3386, -1.1107 ], [ 37.3425, -1.1168 ], [ 37.3626, -1.0935 ], [ 37.3877, -1.0573 ], [ 37.4211, -1.0339 ], [ 37.4192, -1.0312 ], [ 37.4211, -1.0299 ], [ 37.4061, -1.008 ], [ 37.3625, -0.9837 ], [ 37.3383, -0.9813 ], [ 37.3355, -0.9765 ], [ 37.3463, -0.9766 ], [ 37.3667, -0.9641 ], [ 37.3546, -0.9474 ], [ 37.356, -0.9456 ], [ 37.3546, -0.9434 ], [ 37.3426, -0.9577 ], [ 37.3369, -0.9545 ], [ 37.3351, -0.9557 ], [ 37.3339, -0.9515 ], [ 37.3283, -0.9462 ], [ 37.3306, -0.9438 ], [ 37.3277, -0.9404 ], [ 37.3168, -0.944 ], [ 37.3146, -0.9361 ], [ 37.3256, -0.9301 ], [ 37.3241, -0.929 ], [ 37.3249, -0.9257 ], [ 37.3234, -0.926 ], [ 37.3186, -0.9209 ], [ 37.3175, -0.9181 ], [ 37.3197, -0.9157 ], [ 37.3009, -0.9028 ], [ 37.2822, -0.8928 ], [ 37.2562, -0.864 ], [ 37.2527, -0.8572 ], [ 37.2484, -0.8613 ], [ 37.2416, -0.8615 ], [ 37.2407, -0.8578 ], [ 37.2252, -0.8521 ], [ 37.2332, -0.8371 ], [ 37.2584, -0.8374 ], [ 37.2626, -0.7915 ], [ 37.2674, -0.7852 ], [ 37.2669, -0.7775 ], [ 37.2764, -0.7537 ], [ 37.2894, -0.7545 ], [ 37.2976, -0.7531 ], [ 37.3052, -0.749 ], [ 37.3155, -0.7483 ], [ 37.3183, -0.7579 ], [ 37.326, -0.7646 ], [ 37.3481, -0.7722 ], [ 37.3586, -0.7697 ], [ 37.3589, -0.7616 ], [ 37.3671, -0.762 ], [ 37.3711, -0.764 ], [ 37.3876, -0.7529 ], [ 37.4063, -0.7476 ], [ 37.4213, -0.7473 ], [ 37.4444, -0.7306 ], [ 37.4639, -0.7336 ], [ 37.4633, -0.7287 ], [ 37.4671, -0.7286 ], [ 37.4673, -0.7264 ], [ 37.4738, -0.7241 ], [ 37.4804, -0.7281 ], [ 37.4854, -0.7283 ], [ 37.4925, -0.7317 ], [ 37.4964, -0.7298 ], [ 37.4933, -0.7262 ], [ 37.4925, -0.7221 ], [ 37.489, -0.7209 ], [ 37.4897, -0.719 ], [ 37.4876, -0.7166 ], [ 37.4847, -0.718 ], [ 37.484, -0.7144 ], [ 37.4794, -0.7144 ], [ 37.4781, -0.7126 ], [ 37.4772, -0.7075 ], [ 37.4798, -0.6917 ], [ 37.478, -0.6869 ], [ 37.4748, -0.6846 ], [ 37.4739, -0.6787 ], [ 37.4767, -0.6772 ], [ 37.4763, -0.6729 ], [ 37.4785, -0.6691 ], [ 37.4731, -0.6574 ], [ 37.4743, -0.6559 ], [ 37.472, -0.6527 ], [ 37.4724, -0.6485 ], [ 37.4756, -0.6416 ], [ 37.4786, -0.6391 ], [ 37.4779, -0.6353 ], [ 37.4797, -0.6333 ], [ 37.4806, -0.6253 ], [ 37.4869, -0.6227 ], [ 37.4869, -0.6161 ], [ 37.4882, -0.6145 ], [ 37.4826, -0.6038 ], [ 37.4836, -0.6028 ], [ 37.4821, -0.6029 ], [ 37.4811, -0.6008 ], [ 37.479, -0.6016 ], [ 37.4788, -0.6 ], [ 37.4765, -0.599 ], [ 37.4794, -0.5962 ], [ 37.4777, -0.5931 ], [ 37.4794, -0.5894 ], [ 37.4827, -0.5887 ], [ 37.4852, -0.5814 ], [ 37.4839, -0.5789 ], [ 37.4788, -0.5756 ], [ 37.4757, -0.569 ], [ 37.4768, -0.5664 ], [ 37.472, -0.5555 ], [ 37.4629, -0.5553 ], [ 37.461, -0.5496 ], [ 37.4528, -0.549 ], [ 37.4501, -0.5464 ], [ 37.4473, -0.5432 ], [ 37.4478, -0.5384 ], [ 37.4455, -0.5341 ], [ 37.4457, -0.5292 ], [ 37.4372, -0.5207 ], [ 37.4336, -0.5195 ], [ 37.4271, -0.5095 ], [ 37.4254, -0.5029 ], [ 37.427, -0.4996 ], [ 37.4255, -0.4976 ], [ 37.4304, -0.4944 ], [ 37.428, -0.4923 ], [ 37.4238, -0.481 ], [ 37.427, -0.4704 ], [ 37.4256, -0.4689 ], [ 37.4269, -0.4624 ], [ 37.4287, -0.4605 ], [ 37.4263, -0.4588 ], [ 37.4281, -0.4412 ], [ 37.4256, -0.4418 ], [ 37.4226, -0.4395 ], [ 37.4224, -0.4365 ], [ 37.4245, -0.4354 ], [ 37.4232, -0.4336 ], [ 37.4252, -0.4331 ], [ 37.424, -0.4305 ], [ 37.4259, -0.4297 ], [ 37.4263, -0.4273 ], [ 37.4245, -0.4208 ], [ 37.4251, -0.4171 ], [ 37.308255075194957, -0.146027770683262 ], [ 37.3078, -0.1456 ], [ 37.1362, -0.0328 ], [ 37.1317, -0.0285 ], [ 37.1326, -0.0235 ], [ 37.1304, -0.0234 ], [ 37.1287, -0.0205 ], [ 37.1262, -0.0206 ], [ 37.1208, -0.0145 ], [ 37.1194, -0.0173 ], [ 37.1129, -0.0115 ], [ 37.1009, 0.0113 ], [ 37.0937, 0.0175 ], [ 37.0931, 0.0201 ], [ 37.0887, 0.0225 ], [ 37.0913, 0.0251 ], [ 37.0876, 0.0267 ], [ 37.1087, 0.0425 ], [ 37.1292, 0.0423 ], [ 37.1394, 0.0453 ], [ 37.1423, 0.048 ], [ 37.1476, 0.0484 ], [ 37.1525, 0.0548 ], [ 37.167, 0.0574 ], [ 37.171, 0.0601 ], [ 37.1871, 0.0611 ], [ 37.1987, 0.0679 ], [ 37.2017, 0.0656 ], [ 37.2103, 0.0713 ], [ 37.2201, 0.0733 ], [ 37.2325, 0.0815 ], [ 37.2351, 0.1045 ], [ 37.2461, 0.1089 ], [ 37.2525, 0.0967 ], [ 37.2643, 0.1139 ], [ 37.2809, 0.1299 ], [ 37.2827, 0.1522 ], [ 37.2911, 0.1619 ], [ 37.3031, 0.1715 ], [ 37.3081, 0.1779 ], [ 37.3141, 0.1809 ], [ 37.3219, 0.1833 ], [ 37.3325, 0.1809 ], [ 37.3395, 0.1835 ], [ 37.3409, 0.1855 ], [ 37.3367, 0.1939 ], [ 37.3441, 0.1939 ], [ 37.3479, 0.1955 ], [ 37.3485, 0.2109 ], [ 37.3511, 0.2119 ], [ 37.3551, 0.2209 ], [ 37.3577, 0.2387 ], [ 37.3637, 0.2407 ], [ 37.3629, 0.2484 ], [ 37.366, 0.2509 ], [ 37.3666, 0.2542 ], [ 37.3623, 0.2547 ], [ 37.3611, 0.2563 ], [ 37.3651, 0.2611 ], [ 37.3723, 0.2653 ], [ 37.3743, 0.2719 ], [ 37.3795, 0.2705 ], [ 37.3999, 0.2849 ], [ 37.4009, 0.2963 ], [ 37.4301, 0.2981 ], [ 37.4657, 0.2837 ], [ 37.5362, 0.2643 ], [ 37.5372, 0.2678 ], [ 37.5415, 0.271 ], [ 37.5471, 0.2799 ], [ 37.5475, 0.2849 ], [ 37.5459, 0.2861 ], [ 37.5496, 0.2958 ], [ 37.5491, 0.3073 ], [ 37.5474, 0.3078 ], [ 37.5467, 0.3113 ], [ 37.5553, 0.3289 ], [ 37.5817, 0.3289 ], [ 37.5929, 0.3403 ], [ 37.5953, 0.3389 ], [ 37.5931, 0.3403 ], [ 37.6049, 0.3539 ], [ 37.5983, 0.4029 ], [ 37.5851, 0.4021 ], [ 37.5823, 0.4115 ], [ 37.5817, 0.4607 ], [ 37.5859, 0.4717 ], [ 37.5867, 0.4805 ], [ 37.8263, 0.5631 ], [ 37.9017, 0.5965 ], [ 37.9025, 0.5921 ], [ 37.9017, 0.5967 ], [ 38.0625, 0.6711 ], [ 38.0945, 0.5641 ], [ 38.1623, 0.3687 ], [ 38.1583, 0.3695 ], [ 38.1621, 0.3685 ], [ 38.1765, 0.3309 ], [ 38.1957, 0.3221 ], [ 38.1921, 0.2345 ], [ 38.1991, 0.2257 ], [ 38.2011, 0.2269 ], [ 38.2127, 0.2227 ], [ 38.2203, 0.2177 ], [ 38.2297, 0.2163 ], [ 38.2355, 0.2121 ], [ 38.2389, 0.2071 ], [ 38.2447, 0.2067 ], [ 38.2589, 0.1935 ], [ 38.2619, 0.1923 ], [ 38.2637, 0.1851 ], [ 38.2665, 0.1819 ], [ 38.2813, 0.1731 ], [ 38.2875, 0.1649 ], [ 38.2963, 0.1597 ], [ 38.3043, 0.1371 ], [ 38.3057, 0.1293 ], [ 38.3047, 0.1199 ], [ 38.3085, 0.1101 ], [ 38.3181, 0.1069 ], [ 38.3205, 0.0985 ], [ 38.3275, 0.0957 ], [ 38.3281, 0.0917 ], [ 38.3231, 0.0789 ], [ 38.3249, 0.0745 ], [ 38.3393, 0.0681 ], [ 38.3405, 0.0653 ], [ 38.3381, 0.0625 ], [ 38.3469, 0.0613 ], [ 38.3491, 0.0594 ], [ 38.3457, 0.0539 ], [ 38.3465, 0.0505 ], [ 38.3441, 0.0465 ], [ 38.3451, 0.0433 ], [ 38.3487, 0.0431 ], [ 38.3575, 0.0369 ], [ 38.3535, 0.0305 ], [ 38.3565, 0.0203 ], [ 38.3659, 0.0137 ], [ 38.3697, 0.0067 ], [ 38.3763, 0.0049 ], [ 38.3801, -0.0032 ], [ 38.3873, -0.0053 ], [ 38.3939, -0.0099 ], [ 38.3939, -0.0134 ], [ 38.4011, -0.017 ], [ 38.4001, -0.0236 ], [ 38.4055, -0.0292 ], [ 38.4065, -0.0436 ], [ 38.4109, -0.0478 ], [ 38.4103, -0.0509 ], [ 38.4131, -0.0514 ], [ 38.4105, -0.0575 ], [ 38.4119, -0.0599 ], [ 38.4107, -0.0637 ], [ 38.4193, -0.0689 ], [ 38.4171, -0.067 ], [ 38.4197, -0.0686 ], [ 38.4263, -0.075 ], [ 38.4329, -0.0769 ], [ 38.4361, -0.0729 ], [ 38.4383, -0.0724 ], [ 38.4527, -0.0849 ], [ 38.4577, -0.0864 ], [ 38.4629, -0.0851 ], [ 38.4719, -0.0792 ], [ 38.4829, -0.076 ], [ 38.4877, -0.0701 ], [ 38.4893, -0.0609 ], [ 38.4929, -0.0595 ], [ 38.5021, -0.0634 ], [ 38.5119, -0.0597 ], [ 38.5189, -0.063 ], [ 38.5219, -0.062 ], [ 38.5263, -0.057 ], [ 38.5303, -0.0556 ], [ 38.5299, -0.0451 ], [ 38.5405, -0.0434 ], [ 38.5421, -0.0328 ], [ 38.5485, -0.0197 ], [ 38.5549, -0.0174 ], [ 38.5611, -0.0196 ], [ 38.5693, -0.0184 ], [ 38.5696, -0.0151 ], [ 38.5705, -0.0198 ], [ 38.5803, -0.025 ], [ 38.5887, -0.0265 ], [ 38.5922, -0.0305 ], [ 38.5977, -0.0334 ], [ 38.6009, -0.0342 ], [ 38.6085, -0.0296 ], [ 38.6117, -0.0303 ], [ 38.6259, -0.0418 ], [ 38.6361, -0.0534 ], [ 38.6391, -0.0547 ], [ 38.6477, -0.0538 ], [ 38.6551, -0.0466 ], [ 38.6753, -0.0547 ], [ 38.6811, -0.0554 ], [ 38.6847, -0.0521 ], [ 38.6843, -0.0474 ], [ 38.6877, -0.0411 ], [ 38.6905, -0.042 ], [ 38.6975, -0.0513 ], [ 38.7136, -0.0624 ], [ 38.7277, -0.0647 ], [ 38.7379, -0.0707 ], [ 38.7579, -0.0733 ], [ 38.7659, -0.0691 ], [ 38.7607, -0.0647 ], [ 38.7597, -0.0621 ], [ 38.7647, -0.0554 ], [ 38.7609, -0.0506 ], [ 38.7513, -0.0467 ], [ 38.7527, -0.0385 ], [ 38.7497, -0.0336 ], [ 38.749313880126181, -0.028097791798107 ], [ 38.7493, -0.0281 ], [ 38.7485, -0.0203 ], [ 38.7423, -0.0129 ], [ 38.7429, -0.0022 ], [ 38.7379, 0.0039 ], [ 38.7401, 0.0139 ], [ 38.7305, 0.0493 ], [ 38.7287, 0.0855 ], [ 38.7319, 0.0979 ], [ 38.7301, 0.1185 ], [ 38.7321, 0.1249 ], [ 38.7341, 0.1469 ], [ 38.7351, 0.1495 ], [ 38.7557, 0.17 ], [ 38.7573, 0.1743 ], [ 38.7573, 0.1841 ], [ 38.7131, 0.3559 ], [ 38.7122, 0.3657 ], [ 38.7073, 0.3789 ], [ 38.6903, 0.4475 ], [ 38.6799, 0.4739 ], [ 38.6769, 0.4955 ], [ 38.6699, 0.5015 ], [ 38.6661, 0.5015 ], [ 38.6577, 0.5091 ], [ 38.6639, 0.5107 ], [ 38.6779, 0.5097 ], [ 38.6921, 0.5117 ], [ 38.7035, 0.5079 ], [ 38.7081, 0.5133 ], [ 38.7211, 0.5134 ], [ 38.7205, 0.5241 ], [ 38.7231, 0.5261 ], [ 38.7351, 0.5203 ], [ 38.7433, 0.5249 ], [ 38.7491, 0.5253 ], [ 38.7543, 0.5219 ], [ 38.7557, 0.5167 ], [ 38.7651, 0.5133 ], [ 38.7677, 0.5175 ], [ 38.7755, 0.5199 ], [ 38.7837, 0.5271 ], [ 38.7917, 0.5413 ], [ 38.7991, 0.5445 ], [ 38.8017, 0.5505 ], [ 38.8077, 0.5553 ], [ 38.8161, 0.5717 ], [ 38.8247, 0.5811 ], [ 38.8319, 0.5859 ], [ 38.8387, 0.5871 ], [ 38.8567, 0.5989 ], [ 38.8607, 0.6005 ], [ 38.8719, 0.6007 ], [ 38.8759, 0.5957 ], [ 38.8861, 0.5973 ], [ 38.8917, 0.5961 ], [ 38.8943, 0.5981 ], [ 38.9013, 0.5973 ], [ 38.9081, 0.6003 ], [ 38.9107, 0.5997 ], [ 38.9255, 0.6069 ], [ 38.9357, 0.6251 ], [ 38.9403, 0.6285 ], [ 38.9457, 0.6267 ], [ 38.9517, 0.6285 ], [ 38.9615, 0.6247 ], [ 38.9757, 0.6227 ], [ 38.9803, 0.6229 ], [ 38.9861, 0.6263 ], [ 39.0103, 0.6253 ], [ 39.0123, 0.6281 ], [ 39.0127, 0.6389 ], [ 39.0145, 0.6415 ], [ 39.0209, 0.6415 ], [ 39.0239, 0.6467 ], [ 39.0227, 0.6559 ], [ 39.0257, 0.6631 ], [ 39.0275, 0.6653 ], [ 39.0319, 0.6653 ], [ 39.0351, 0.6671 ], [ 39.0377, 0.6729 ], [ 39.0461, 0.6775 ], [ 39.0489, 0.6837 ], [ 39.0519, 0.6855 ], [ 39.0581, 0.6857 ], [ 39.0619, 0.6831 ], [ 39.0669, 0.6829 ], [ 39.0723, 0.6787 ], [ 39.0783, 0.6791 ], [ 39.0839, 0.6769 ], [ 39.0895, 0.6809 ], [ 39.0981, 0.6811 ], [ 39.0985, 0.6867 ], [ 39.1025, 0.6895 ], [ 39.1143, 0.6913 ], [ 39.1311, 0.6883 ], [ 39.1353, 0.6909 ], [ 39.1423, 0.6913 ], [ 39.1435, 0.6979 ], [ 39.1475, 0.7055 ], [ 39.1643, 0.7143 ], [ 39.1673, 0.7187 ], [ 39.1741, 0.7201 ], [ 39.1779, 0.7257 ], [ 39.1809, 0.7231 ], [ 39.1757, 0.7279 ], [ 39.1777, 0.7437 ], [ 39.1805, 0.7519 ], [ 39.2005, 0.7895 ], [ 39.2153, 0.8051 ], [ 39.2247, 0.8177 ], [ 39.2371, 0.8443 ], [ 39.2497, 0.8597 ], [ 39.2679, 0.8759 ], [ 39.3137, 0.9249 ], [ 39.3359, 0.9375 ], [ 39.3553, 0.9511 ], [ 39.3957, 0.9685 ], [ 39.4545, 0.9891 ], [ 39.4621, 0.9949 ], [ 39.4657, 0.9887 ], [ 39.4799, 0.9803 ], [ 39.4931, 0.9605 ], [ 39.4991, 0.9305 ], [ 39.5151, 0.8979 ], [ 39.5331, 0.8535 ], [ 39.5437, 0.8215 ], [ 39.5545, 0.7809 ], [ 39.5607, 0.7689 ], [ 39.5613, 0.7623 ], [ 39.5641, 0.7557 ], [ 39.5755, 0.7409 ], [ 39.5867, 0.7207 ], [ 39.5965, 0.7129 ], [ 39.5997, 0.7035 ], [ 39.6101, 0.6917 ], [ 39.6139, 0.6845 ], [ 39.6239, 0.6771 ], [ 39.6269, 0.6703 ], [ 39.6349, 0.6671 ], [ 39.6455, 0.6571 ], [ 39.6539, 0.6325 ], [ 39.6623, 0.6203 ], [ 39.6639, 0.6153 ], [ 39.6729, 0.6053 ], [ 39.6759, 0.5979 ], [ 39.6846, 0.588 ], [ 39.6883, 0.5801 ], [ 39.698, 0.5726 ], [ 39.7019, 0.5651 ], [ 39.7115, 0.5569 ], [ 39.7163, 0.5505 ], [ 39.7169, 0.5465 ], [ 39.7204, 0.5466 ], [ 39.7235, 0.5431 ], [ 39.7329, 0.5253 ], [ 39.7359, 0.5233 ], [ 39.7405, 0.5233 ], [ 39.7463, 0.5177 ], [ 39.7619, 0.512 ], [ 39.7637, 0.5071 ], [ 39.7699, 0.5037 ], [ 39.7747, 0.4965 ], [ 39.7831, 0.4915 ], [ 39.7957, 0.4883 ], [ 39.8009, 0.4845 ], [ 39.8103, 0.4851 ], [ 39.8209, 0.4835 ], [ 39.8275, 0.4797 ], [ 39.8357, 0.4815 ], [ 39.8401, 0.4791 ], [ 39.8496, 0.4785 ], [ 39.8571, 0.4703 ], [ 39.8649, 0.467 ], [ 39.8693, 0.4621 ], [ 39.8743, 0.4597 ], [ 39.8779, 0.4597 ], [ 39.8892, 0.4641 ], [ 39.8943, 0.4625 ], [ 39.9046, 0.463 ], [ 39.9479, 0.4277 ], [ 39.9657, 0.4169 ], [ 39.9839, 0.4083 ], [ 40.0135, 0.3993 ], [ 40.0493, 0.3964 ], [ 40.059, 0.3931 ], [ 40.1301, 0.3421 ], [ 40.1567, 0.3293 ], [ 40.1753, 0.3133 ], [ 40.1766, 0.3159 ], [ 40.2144, 0.2734 ], [ 40.2382, 0.2536 ], [ 40.2596, 0.2413 ], [ 40.2998, 0.2236 ], [ 40.3289, 0.2042 ], [ 40.3432, 0.2027 ], [ 40.3394, 0.1987 ], [ 40.3425, 0.1987 ], [ 40.3446, 0.2013 ], [ 40.3578, 0.2013 ], [ 40.3595, 0.1984 ], [ 40.3785, 0.1957 ], [ 40.3965, 0.1851 ], [ 40.4023, 0.1837 ], [ 40.4055, 0.1835 ], [ 40.4186, 0.1887 ], [ 40.4257, 0.1899 ], [ 40.4527, 0.1855 ], [ 40.4753, 0.1863 ], [ 40.4839, 0.1887 ], [ 40.4951, 0.197 ], [ 40.4983, 0.1967 ], [ 40.5029, 0.1931 ], [ 40.5077, 0.1941 ], [ 40.5129, 0.2077 ], [ 40.5205, 0.2137 ], [ 40.5241, 0.2218 ], [ 40.5349, 0.227 ], [ 40.5407, 0.2269 ], [ 40.5629, 0.2163 ], [ 40.5713, 0.2153 ], [ 40.5779, 0.2177 ], [ 40.5855, 0.2153 ], [ 40.5953, 0.2253 ], [ 40.6065, 0.2265 ], [ 40.6115, 0.2321 ], [ 40.6191, 0.2313 ], [ 40.6293, 0.2327 ], [ 40.6465, 0.2313 ], [ 40.6813, 0.2571 ], [ 40.6833, 0.2597 ], [ 40.6845, 0.2715 ], [ 40.6955, 0.2785 ], [ 40.7037, 0.2931 ], [ 40.7114, 0.3141 ], [ 40.7171, 0.3206 ], [ 40.7367, 0.3262 ], [ 40.7501, 0.3417 ], [ 40.7713, 0.3532 ], [ 40.8172, 0.3654 ], [ 40.8421, 0.3703 ], [ 40.8581, 0.3759 ], [ 40.886, 0.3933 ], [ 40.9201, 0.4261 ], [ 40.9343, 0.434 ], [ 40.9465, 0.4384 ], [ 40.9618, 0.449 ], [ 40.9784, 0.4545 ], [ 40.9887, 0.4621 ], [ 40.9887, 0.4485 ], [ 40.999, 0.4058 ], [ 40.9923, 0.2875 ], [ 40.9941, 0.2362 ], [ 40.9899, 0.2347 ], [ 40.9893, 0.1193 ], [ 40.991, 0.1066 ], [ 40.9893, 0.0932 ], [ 40.9886, 0.014 ], [ 41.0005, 0.0 ], [ 41.0005, -0.0877 ], [ 40.9991, -0.112 ], [ 41.0014, -0.2436 ], [ 40.9994, -0.3401 ], [ 41.0, -0.4221 ], [ 40.9982, -0.4322 ], [ 41.0008, -0.5029 ], [ 40.9988, -0.542 ], [ 41.0004, -0.7842 ], [ 41.0021, -0.7843 ], [ 41.0043, -0.8236 ], [ 41.0272, -0.8552 ], [ 41.1152, -0.9781 ], [ 41.1819, -1.063 ], [ 41.2287, -1.1262 ], [ 41.2754, -1.1803 ], [ 41.3653, -1.3003 ], [ 41.4939, -1.4816 ], [ 41.5774, -1.5848 ], [ 41.5754, -1.6426 ], [ 41.5721, -1.6451 ], [ 41.5693, -1.6515 ], [ 41.5624, -1.658 ], [ 41.1635, -1.6917 ], [ 40.8925, -1.7165 ], [ 40.8519, -1.7351 ], [ 40.8373, -1.7437 ], [ 40.7407, -1.7905 ], [ 40.7357, -1.7946 ], [ 40.7387, -1.7983 ], [ 40.7363, -1.7961 ], [ 40.7351, -1.7936 ], [ 40.5203, -1.8967 ], [ 40.5169, -1.8997 ], [ 40.4033, -1.9472 ], [ 40.3623, -1.9663 ], [ 40.3595, -1.968 ], [ 40.3613, -1.9709 ], [ 40.3595, -1.9684 ], [ 40.3507, -1.9717 ], [ 40.2987, -1.9956 ], [ 40.2151, -2.0355 ], [ 40.2127, -2.0375 ], [ 40.2129, -2.0397 ], [ 40.212622864321617, -2.038730025125663 ], [ 40.2503, -2.2475 ], [ 40.2509, -2.3976 ], [ 40.2993, -2.3992 ], [ 40.3453, -2.3986 ], [ 40.3489, -2.401 ], [ 40.3483, -2.405 ], [ 40.3546, -2.4121 ], [ 40.3577, -2.4146 ], [ 40.3655, -2.417 ], [ 40.3705, -2.4223 ], [ 40.3811, -2.4218 ], [ 40.3839, -2.4256 ], [ 40.3969, -2.4302 ], [ 40.4059, -2.4299 ], [ 40.4064, -2.4338 ], [ 40.4107, -2.4254 ], [ 40.4249, -2.4213 ], [ 40.4271, -2.4177 ], [ 40.4331, -2.4166 ], [ 40.4437, -2.4079 ], [ 40.4457, -2.4034 ], [ 40.4431, -2.4 ], [ 40.4473, -2.4005 ], [ 40.5235, -2.4237 ], [ 40.5273, -2.4246 ], [ 40.5291, -2.4216 ], [ 40.5285, -2.4249 ], [ 40.5321, -2.4262 ], [ 40.6625, -2.4662 ], [ 40.7346, -2.4562 ], [ 40.7374, -2.4574 ], [ 40.7062, -2.4757 ], [ 40.6868, -2.4901 ], [ 40.6679, -2.5082 ], [ 40.6493, -2.5332 ], [ 40.6301, -2.549 ], [ 40.6207, -2.5549 ], [ 40.6182, -2.5546 ], [ 40.6099, -2.561 ], [ 40.599, -2.559 ], [ 40.5935, -2.5554 ], [ 40.5735, -2.5521 ], [ 40.5665, -2.5474 ], [ 40.5654, -2.5449 ], [ 40.5599, -2.5429 ], [ 40.5432, -2.541 ], [ 40.5407, -2.5399 ], [ 40.5407, -2.5368 ], [ 40.5382, -2.534 ], [ 40.5187, -2.5265 ], [ 40.5024, -2.5162 ], [ 40.496, -2.5151 ], [ 40.4821, -2.5201 ], [ 40.4813, -2.5215 ], [ 40.4965, -2.516 ], [ 40.5015, -2.5174 ], [ 40.5185, -2.5287 ], [ 40.5301, -2.534 ], [ 40.5326, -2.5393 ], [ 40.5299, -2.5418 ], [ 40.5304, -2.5365 ], [ 40.5238, -2.5329 ], [ 40.5051, -2.5329 ], [ 40.486, -2.5351 ], [ 40.4571, -2.5418 ], [ 40.4351, -2.5493 ], [ 40.3843, -2.571 ], [ 40.3537, -2.5896 ], [ 40.3468, -2.5915 ], [ 40.3462, -2.589 ], [ 40.3524, -2.5824 ], [ 40.351, -2.5815 ], [ 40.3512, -2.579 ], [ 40.3543, -2.5771 ], [ 40.3507, -2.5732 ], [ 40.3524, -2.576 ], [ 40.3496, -2.5785 ], [ 40.3476, -2.5846 ], [ 40.344, -2.5865 ], [ 40.3426, -2.5924 ], [ 40.339, -2.5968 ], [ 40.3054, -2.6182 ], [ 40.2721, -2.6457 ], [ 40.2687, -2.6476 ], [ 40.2668, -2.6468 ], [ 40.2701, -2.6407 ], [ 40.2693, -2.6388 ], [ 40.2685, -2.6432 ], [ 40.2604, -2.6479 ], [ 40.2601, -2.656 ], [ 40.224, -2.6946 ], [ 40.2032, -2.7251 ], [ 40.1987, -2.7346 ], [ 40.1957, -2.7368 ], [ 40.1888, -2.7346 ], [ 40.1876, -2.7314 ], [ 40.1897, -2.7314 ], [ 40.1871, -2.7282 ], [ 39.8923, -2.3092 ], [ 39.5055, -2.7482 ], [ 39.2795, -3.0006 ], [ 39.2229, -3.0658 ], [ 39.2195, -3.0686 ], [ 39.2199, -3.0667 ], [ 39.2181, -3.0655 ], [ 39.2075, -3.0661 ], [ 39.1959, -3.0613 ], [ 39.1835, -3.0632 ], [ 39.1777, -3.057 ], [ 39.1741, -3.0582 ], [ 39.1705, -3.0649 ], [ 39.1671, -3.0663 ], [ 39.1643, -3.0651 ], [ 39.1635, -3.0595 ], [ 39.1527, -3.0447 ], [ 39.1509, -3.0443 ], [ 39.1435, -3.0485 ], [ 39.1415, -3.0414 ], [ 39.1355, -3.042 ], [ 39.1337, -3.0396 ], [ 39.1343, -3.0357 ], [ 39.1297, -3.0199 ], [ 39.1257, -3.0195 ], [ 39.1131, -3.0245 ], [ 39.1063, -3.0346 ], [ 39.1025, -3.0377 ], [ 39.0899, -3.0427 ], [ 39.0885, -3.0446 ], [ 39.0888, -3.0507 ], [ 39.0855, -3.0532 ], [ 39.0819, -3.0518 ], [ 39.0793, -3.0425 ], [ 39.0761, -3.041 ], [ 39.062, -3.0409 ], [ 39.0535, -3.033 ], [ 39.0458, -3.0313 ], [ 39.0445, -3.0281 ], [ 39.0453, -3.021 ], [ 39.0367, -3.025 ], [ 39.0256, -3.0206 ], [ 39.0139, -3.0253 ], [ 38.9919, -3.0257 ], [ 38.9893, -3.0272 ], [ 38.9863, -3.033 ], [ 38.9767, -3.0393 ], [ 38.9529, -3.0385 ], [ 38.9371, -3.0343 ], [ 38.9316, -3.0402 ], [ 38.9255, -3.0397 ], [ 38.9175, -3.0427 ], [ 38.9115, -3.0429 ], [ 38.9029, -3.0422 ], [ 38.8988, -3.0381 ], [ 38.8933, -3.0377 ], [ 38.8623, -3.0575 ], [ 38.8477, -3.0609 ], [ 38.8449, -3.0548 ], [ 38.8415, -3.0534 ], [ 38.8362, -3.0592 ], [ 38.8259, -3.0608 ], [ 38.8195, -3.0672 ], [ 38.8057, -3.0685 ], [ 38.799, -3.0664 ], [ 38.798, -3.0607 ], [ 38.8021, -3.0577 ], [ 38.8075, -3.0598 ], [ 38.8099, -3.0566 ], [ 38.8089, -3.0527 ], [ 38.7988, -3.0518 ], [ 38.7891, -3.0476 ], [ 38.7786, -3.0478 ], [ 38.774, -3.0434 ], [ 38.7688, -3.0431 ], [ 38.7585, -3.0467 ], [ 38.7544, -3.0462 ], [ 38.7442, -3.0432 ], [ 38.7333, -3.0422 ], [ 38.7231, -3.0364 ], [ 38.7073, -3.0315 ], [ 38.6943, -3.0356 ], [ 38.6816, -3.035 ], [ 38.6652, -3.0393 ], [ 38.6613, -3.0288 ], [ 38.6538, -3.025 ], [ 38.6513, -3.0204 ], [ 38.6427, -3.0127 ], [ 38.6358, -3.0108 ], [ 38.6295, -3.0119 ], [ 38.6251, -3.0099 ], [ 38.6176, -3.0099 ], [ 38.6133, -3.007 ], [ 38.6083, -3.0064 ], [ 38.6061, -3.0039 ], [ 38.6092, -2.9967 ], [ 38.6082, -2.9946 ], [ 38.6019, -2.9986 ], [ 38.594, -2.9991 ], [ 38.5835, -2.9872 ], [ 38.5595, -2.986 ], [ 38.5507, -2.9805 ], [ 38.5439, -2.9796 ], [ 38.5381, -2.9734 ], [ 38.5304, -2.9759 ], [ 38.5257, -2.974 ], [ 38.518785530546623, -2.974432154340836 ], [ 38.5194, -2.9747 ], [ 38.5143, -2.9789 ], [ 38.514, -2.9834 ] ], [ [ 38.4145, -0.0739 ], [ 38.4193, -0.0702 ], [ 38.4178, -0.0708 ], [ 38.4193, -0.0689 ], [ 38.4145, -0.0739 ] ], [ [ 38.809910361913737, -0.733682151051552 ], [ 38.8064, -0.7263 ], [ 38.4428, -0.1096 ], [ 38.4193, -0.0702 ], [ 38.809910361913737, -0.733682151051552 ] ], [ [ 37.5509, -0.8844 ], [ 37.5459, -0.8823 ], [ 37.545580088635646, -0.88278502690725 ], [ 37.5509, -0.8844 ] ], [ [ 37.5614, -0.8754 ], [ 37.5595, -0.875 ], [ 37.55935820552147, -0.875154984662577 ], [ 37.5614, -0.8754 ] ], [ [ 37.67314375, -0.827550806451602 ], [ 37.6717, -0.8296 ], [ 37.671601492537313, -0.830535820895519 ], [ 37.67314375, -0.827550806451602 ] ], [ [ 37.6815, -0.8226 ], [ 37.6748, -0.8252 ], [ 37.674593333333327, -0.825493333333336 ], [ 37.6815, -0.8226 ] ], [ [ 37.681573837209299, -0.796858333333328 ], [ 37.681, -0.7996 ], [ 37.6824, -0.8087 ], [ 37.681573837209299, -0.796858333333328 ] ], [ [ 37.6878, -0.794 ], [ 37.6819, -0.7953 ], [ 37.681814134275619, -0.795710247349824 ], [ 37.6878, -0.794 ] ], [ [ 37.6905, -0.7967 ], [ 37.6928, -0.7947 ], [ 37.690421276595742, -0.796621276595743 ], [ 37.6905, -0.7967 ] ], [ [ 37.701711135857465, -0.783250334075723 ], [ 37.6987, -0.7842 ], [ 37.698702655093186, -0.784327444472811 ], [ 37.701711135857465, -0.783250334075723 ] ], [ [ 37.714526391319566, -0.78016783339167 ], [ 37.7117, -0.7801 ], [ 37.70801505046073, -0.781262176393155 ], [ 37.714526391319566, -0.78016783339167 ] ], [ [ 37.741817943648059, -0.778363618388537 ], [ 37.7383, -0.776 ], [ 37.7322, -0.7745 ], [ 37.741817943648059, -0.778363618388537 ] ], [ [ 37.745142906276875, -0.782253998280333 ], [ 37.7447, -0.7803 ], [ 37.744215078769685, -0.779974193548382 ], [ 37.745142906276875, -0.782253998280333 ] ], [ [ 37.8448, -0.8111 ], [ 37.8555, -0.8098 ], [ 37.844571098799634, -0.811041920590951 ], [ 37.8448, -0.8111 ] ], [ [ 37.8842, -0.8072 ], [ 37.8841805785124, -0.806942665289256 ], [ 37.883396282527883, -0.807095167286245 ], [ 37.8842, -0.8072 ] ], [ [ 37.8838, -0.8019 ], [ 37.88353514431239, -0.801614770797959 ], [ 37.883986770428017, -0.804374708171225 ], [ 37.8838, -0.8019 ] ], [ [ 37.899860526315791, -0.708904736842105 ], [ 37.9005, -0.7098 ], [ 37.9051, -0.709 ], [ 37.899860526315791, -0.708904736842105 ] ], [ [ 37.8986, -0.7037 ], [ 37.8995, -0.7084 ], [ 37.899505263157891, -0.708407368421046 ], [ 37.8986, -0.7037 ] ], [ [ 37.893003288490284, -0.653492914798191 ], [ 37.8929, -0.6556 ], [ 37.8953, -0.6681 ], [ 37.893003288490284, -0.653492914798191 ] ], [ [ 37.893483763277693, -0.645362367223064 ], [ 37.8934, -0.6454 ], [ 37.893323076923075, -0.646969230769294 ], [ 37.893483763277693, -0.645362367223064 ] ], [ [ 37.9359, -0.4282 ], [ 37.935893865030671, -0.428196625766871 ], [ 37.9355, -0.4344 ], [ 37.9359, -0.4282 ] ], [ [ 37.994092769421826, -0.273129626052158 ], [ 37.9931, -0.2748 ], [ 37.9923, -0.287 ], [ 37.994092769421826, -0.273129626052158 ] ], [ [ 38.4057, -0.0761 ], [ 38.4073, -0.0757 ], [ 38.405159310344828, -0.075967586206896 ], [ 38.4057, -0.0761 ] ], [ [ 38.77660315142198, -0.026632833717653 ], [ 38.7755, -0.0262 ], [ 38.7625, -0.026 ], [ 38.77660315142198, -0.026632833717653 ] ], [ [ 38.7999, -0.0368 ], [ 38.806669465648859, -0.038429686174726 ], [ 38.795359660468868, -0.033992158447855 ], [ 38.7999, -0.0368 ] ], [ [ 38.8355, -0.0493 ], [ 38.8579, -0.0473 ], [ 38.834096491228074, -0.048739728353141 ], [ 38.8355, -0.0493 ] ], [ [ 38.9721, -0.0126 ], [ 38.975549138606077, -0.011643304620212 ], [ 38.971368038528901, -0.012637536485697 ], [ 38.9721, -0.0126 ] ], [ [ 39.021413043478262, -0.002260869565217 ], [ 39.014, -0.0025 ], [ 39.00790470588236, -0.003949411764705 ], [ 39.021413043478262, -0.002260869565217 ] ], [ [ 39.036729565217385, -0.002029565217391 ], [ 39.0357, -0.0018 ], [ 39.033797935103244, -0.001861356932153 ], [ 39.036729565217385, -0.002029565217391 ] ], [ [ 39.1109, -0.0321 ], [ 39.123072746157085, -0.046949023680979 ], [ 39.105920269595593, -0.024682276585103 ], [ 39.1109, -0.0321 ] ], [ [ 39.1587, -0.0796 ], [ 39.1725, -0.0823 ], [ 39.156727356130119, -0.078631943286074 ], [ 39.1587, -0.0796 ] ], [ [ 39.1915, -0.09 ], [ 39.19501, -0.090195 ], [ 39.18858267716535, -0.088817716535433 ], [ 39.1915, -0.09 ] ], [ [ 39.2005, -0.0905 ], [ 39.207528571428576, -0.088828571428571 ], [ 39.19825, -0.090375 ], [ 39.2005, -0.0905 ] ], [ [ 39.22894585987261, -0.085596178343949 ], [ 39.2281, -0.0854 ], [ 39.2249, -0.085933333333334 ], [ 39.22894585987261, -0.085596178343949 ] ], [ [ 39.328, -0.09035 ], [ 39.3265, -0.0896 ], [ 39.3121, -0.0877 ], [ 39.328, -0.09035 ] ], [ [ 39.3621, -0.1144 ], [ 39.3357, -0.0942 ], [ 39.331673333333335, -0.092186666666666 ], [ 39.3621, -0.1144 ] ], [ [ 39.4119, -0.1454 ], [ 39.426205213270144, -0.145181042654028 ], [ 39.4075, -0.1442 ], [ 39.4119, -0.1454 ] ], [ [ 39.440795238095241, -0.147278571428573 ], [ 39.4361, -0.1457 ], [ 39.433471891891891, -0.145562162162162 ], [ 39.440795238095241, -0.147278571428573 ] ], [ [ 39.450608910891084, -0.151949504950492 ], [ 39.4477, -0.1496 ], [ 39.44560272, -0.14889488 ], [ 39.450608910891084, -0.151949504950492 ] ], [ [ 39.4723, -0.1691 ], [ 39.4815, -0.1744 ], [ 39.470771084337343, -0.167797590361443 ], [ 39.4723, -0.1691 ] ], [ [ 39.528661148129174, -0.215609379805236 ], [ 39.5275, -0.2143 ], [ 39.5099, -0.2024 ], [ 39.528661148129174, -0.215609379805236 ] ], [ [ 39.5447, -0.244 ], [ 39.5322, -0.2196 ], [ 39.530006666666658, -0.217126666666653 ], [ 39.5447, -0.244 ] ], [ [ 39.579686352941174, -0.265600235294113 ], [ 39.5775, -0.2632 ], [ 39.5645, -0.2527 ], [ 39.579686352941174, -0.265600235294113 ] ], [ [ 39.5999, -0.2969 ], [ 39.5867, -0.2733 ], [ 39.58453056768559, -0.270918340611357 ], [ 39.5999, -0.2969 ] ], [ [ 40.154642059336823, -1.607829493891801 ], [ 40.1543, -1.6056 ], [ 40.153577881040889, -1.603863011152405 ], [ 40.154642059336823, -1.607829493891801 ] ], [ [ 40.1625, -1.8135 ], [ 40.162810924369744, -1.814958952811881 ], [ 40.1579, -1.7582 ], [ 40.1625, -1.8135 ] ], [ [ 40.1651, -1.8257 ], [ 40.1683, -1.8316 ], [ 40.164029729729734, -1.820677962577972 ], [ 40.1651, -1.8257 ] ], [ [ 40.207835849056593, -2.021975471698069 ], [ 40.2063, -2.0166 ], [ 40.205164186046517, -2.014706976744202 ], [ 40.207835849056593, -2.021975471698069 ] ], [ [ 37.4081, -1.6845 ], [ 37.4131, -1.6878 ], [ 37.408019359145527, -1.684157276368488 ], [ 37.4081, -1.6845 ] ], [ [ 37.4018, -1.6712 ], [ 37.4061, -1.675 ], [ 37.401765031037542, -1.670960597103166 ], [ 37.4018, -1.6712 ] ], [ [ 37.3961, -1.6605 ], [ 37.4005, -1.6623 ], [ 37.395780634734052, -1.65955418748163 ], [ 37.3961, -1.6605 ] ], [ [ 37.3793, -1.519 ], [ 37.3722, -1.5258 ], [ 37.37956336633664, -1.51893415841584 ], [ 37.3793, -1.519 ] ], [ [ 37.656385501242745, -1.637157083678534 ], [ 37.6557, -1.6304 ], [ 37.6563, -1.637 ], [ 37.656385501242745, -1.637157083678534 ] ], [ [ 37.660918452860599, -1.644765269943594 ], [ 37.65702841530058, -1.638338251366176 ], [ 37.6606, -1.6449 ], [ 37.660918452860599, -1.644765269943594 ] ], [ [ 37.7576, -1.5699 ], [ 37.753147265810746, -1.564065382786491 ], [ 37.7538, -1.5662 ], [ 37.758994310099567, -1.573278520625878 ], [ 37.7576, -1.5699 ] ], [ [ 37.80155510380623, -1.116411678200694 ], [ 37.801210073294499, -1.117336760007517 ], [ 37.8014, -1.1173 ], [ 37.80155510380623, -1.116411678200694 ] ], [ [ 37.8079, -1.0994 ], [ 37.80412027972028, -1.109534032634035 ], [ 37.8046, -1.1091 ], [ 37.8079, -1.0994 ] ], [ [ 37.8445, -0.964 ], [ 37.844798263579698, -0.964095992876225 ], [ 37.8507, -0.961 ], [ 37.8445, -0.964 ] ], [ [ 37.852136646499567, -0.938295592048401 ], [ 37.8502, -0.9418 ], [ 37.8523, -0.9389 ], [ 37.852136646499567, -0.938295592048401 ] ], [ [ 37.8489, -0.9348 ], [ 37.8488, -0.9366 ], [ 37.850622727272729, -0.933826284584978 ], [ 37.8489, -0.9348 ] ], [ [ 37.848830769230752, -0.930679487179465 ], [ 37.850996412213739, -0.933257633587789 ], [ 37.8511, -0.9331 ], [ 37.848830769230752, -0.930679487179465 ] ], [ [ 37.8416, -0.9277 ], [ 37.846753225806452, -0.928463440860215 ], [ 37.8466, -0.9283 ], [ 37.8416, -0.9277 ] ], [ [ 37.8415, -0.8404 ], [ 37.841678131212724, -0.840494632206759 ], [ 37.84123632286996, -0.838365919282513 ], [ 37.8415, -0.8404 ] ], [ [ 37.8408, -0.835 ], [ 37.840829105725035, -0.835224529878813 ], [ 37.8491, -0.8325 ], [ 37.8408, -0.835 ] ], [ [ 38.9618, -1.0531 ], [ 38.961743908235434, -1.052982041257013 ], [ 38.962405502082987, -1.063258799022338 ], [ 38.9618, -1.0531 ] ], [ [ 38.3172, -2.5231 ], [ 38.317283258862084, -2.523221983914214 ], [ 38.3171, -2.5158 ], [ 38.3172, -2.5231 ] ], [ [ 38.322617170531259, -2.547666480774875 ], [ 38.3226, -2.5479 ], [ 38.3322, -2.5506 ], [ 38.322617170531259, -2.547666480774875 ] ], [ [ 38.338075278720311, -2.555319486185168 ], [ 38.3381, -2.5552 ], [ 38.3322, -2.5506 ], [ 38.338075278720311, -2.555319486185168 ] ], [ [ 38.337677049180328, -2.557244262295082 ], [ 38.337338461538458, -2.558192307692308 ], [ 38.3375, -2.5581 ], [ 38.337677049180328, -2.557244262295082 ] ], [ [ 38.4267, -2.7778 ], [ 38.432072990353696, -2.787650482315112 ], [ 38.4321, -2.7875 ], [ 38.4267, -2.7778 ] ], [ [ 38.4457, -2.8688 ], [ 38.443, -2.8769 ], [ 38.443030756712773, -2.877005451586656 ], [ 38.4457, -2.8688 ] ], [ [ 38.443466666666652, -2.8785 ], [ 38.4437, -2.8793 ], [ 38.443732751091709, -2.879298253275109 ], [ 38.443466666666652, -2.8785 ] ], [ [ 38.448478481012664, -2.879045147679324 ], [ 38.45114749596123, -2.878902800215401 ], [ 38.451, -2.8788 ], [ 38.448478481012664, -2.879045147679324 ] ], [ [ 38.451942857142839, -2.879457142857131 ], [ 38.454333980582525, -2.881250485436897 ], [ 38.4543, -2.8811 ], [ 38.451942857142839, -2.879457142857131 ] ], [ [ 38.4512, -2.8887 ], [ 38.4507, -2.8934 ], [ 38.450813358348967, -2.893436360225142 ], [ 38.4512, -2.8887 ] ], [ [ 38.475967086574229, -2.936300583361515 ], [ 38.476, -2.9365 ], [ 38.4874, -2.9364 ], [ 38.475967086574229, -2.936300583361515 ] ], [ [ 38.5098, -2.9651 ], [ 38.5155, -2.973 ], [ 38.516982436504513, -2.973646190271199 ], [ 38.5098, -2.9651 ] ], [ [ 37.762529538845044, -1.578096136269224 ], [ 37.764, -1.5801 ], [ 37.768639037433154, -1.58306898395722 ], [ 37.762529538845044, -1.578096136269224 ] ], [ [ 37.7727, -1.5835 ], [ 37.768849726775954, -1.583203825136612 ], [ 37.769, -1.5833 ], [ 37.7727, -1.5836 ], [ 37.7727, -1.5835 ] ], [ [ 37.800869723183396, -1.634473183391009 ], [ 37.8039, -1.642 ], [ 37.8009, -1.6345 ], [ 37.800869723183396, -1.634473183391009 ] ], [ [ 37.8012, -1.6476 ], [ 37.801366271487844, -1.64765216360403 ], [ 37.8039, -1.642 ], [ 37.8012, -1.6476 ] ], [ [ 37.802475, -1.648 ], [ 37.805860308204913, -1.649062057476051 ], [ 37.806, -1.6486 ], [ 37.802475, -1.648 ] ], [ [ 37.804961977186302, -1.652033460076067 ], [ 37.8046, -1.6528 ], [ 37.804718309859155, -1.652839436619717 ], [ 37.804961977186302, -1.652033460076067 ] ], [ [ 37.814315280898882, -1.661591011235957 ], [ 37.8161, -1.663 ], [ 37.820581838074411, -1.664554923413571 ], [ 37.814315280898882, -1.661591011235957 ] ], [ [ 37.821017410714283, -1.664760937499998 ], [ 37.8226, -1.6703 ], [ 37.8211, -1.6648 ], [ 37.821017410714283, -1.664760937499998 ] ], [ [ 37.819903921568624, -1.680047058823528 ], [ 37.8199, -1.6801 ], [ 37.8251, -1.6824 ], [ 37.819903921568624, -1.680047058823528 ] ], [ [ 37.83757364864865, -1.689694425675676 ], [ 37.8364, -1.6939 ], [ 37.8376, -1.6897 ], [ 37.83757364864865, -1.689694425675676 ] ], [ [ 38.0443, -2.1663 ], [ 38.048556716417906, -2.168718588873813 ], [ 38.0485, -2.1686 ], [ 38.0443, -2.1663 ] ], [ [ 38.049743478260865, -2.1712 ], [ 38.050660474308302, -2.173309090909091 ], [ 38.0507, -2.1732 ], [ 38.049743478260865, -2.1712 ] ], [ [ 38.07591670792079, -2.261572772277226 ], [ 38.0759, -2.2618 ], [ 38.076080250347701, -2.261751182197496 ], [ 38.07591670792079, -2.261572772277226 ] ], [ [ 38.080046382978729, -2.260677021276595 ], [ 38.080581614349775, -2.260532062780269 ], [ 38.0805, -2.2605 ], [ 38.080046382978729, -2.260677021276595 ] ], [ [ 38.109231519699811, -2.300213508442777 ], [ 38.1092, -2.3004 ], [ 38.112144827586206, -2.301462068965516 ], [ 38.109231519699811, -2.300213508442777 ] ], [ [ 38.1155, -2.3029 ], [ 38.115329702970293, -2.302827015558699 ], [ 38.1167, -2.3133 ], [ 38.117073520822068, -2.313619610600324 ], [ 38.1155, -2.3029 ] ], [ [ 38.119748571428559, -2.315908571428563 ], [ 38.1264, -2.3216 ], [ 38.126883112489431, -2.32158849732168 ], [ 38.119748571428559, -2.315908571428563 ] ], [ [ 38.130678947368423, -2.321498120300752 ], [ 38.1474, -2.3211 ], [ 38.1372, -2.3205 ], [ 38.130678947368423, -2.321498120300752 ] ], [ [ 38.1978, -2.3532 ], [ 38.211184890656064, -2.355624799031896 ], [ 38.2111, -2.3553 ], [ 38.1978, -2.3532 ] ], [ [ 38.3121, -2.5021 ], [ 38.312, -2.511 ], [ 38.312192666666661, -2.511181333333333 ], [ 38.3121, -2.5021 ] ], [ [ 37.7803, -0.2937 ], [ 37.786033675038439, -0.296712608918502 ], [ 37.7855, -0.2962 ], [ 37.7803, -0.2937 ] ], [ [ 37.6079, -0.3372 ], [ 37.6093, -0.3404 ], [ 37.6261, -0.3514 ], [ 37.6321, -0.3521 ], [ 37.6355, -0.3493 ], [ 37.6376, -0.3494 ], [ 37.6469, -0.3543 ], [ 37.6477, -0.3582 ], [ 37.6533, -0.3615 ], [ 37.6567, -0.3599 ], [ 37.6675, -0.3601 ], [ 37.6709, -0.3615 ], [ 37.6715, -0.3723 ], [ 37.6741, -0.3773 ], [ 37.6781, -0.3774 ], [ 37.6849, -0.3804 ], [ 37.7071, -0.3979 ], [ 37.7089, -0.4017 ], [ 37.7079, -0.4066 ], [ 37.7103, -0.4097 ], [ 37.7165, -0.4119 ], [ 37.7213, -0.4115 ], [ 37.7255, -0.4032 ], [ 37.7356, -0.3971 ], [ 37.7303, -0.395 ], [ 37.7267, -0.3832 ], [ 37.7201, -0.3768 ], [ 37.7107, -0.3628 ], [ 37.7038, -0.3592 ], [ 37.7033, -0.3551 ], [ 37.7053, -0.3479 ], [ 37.6919, -0.3416 ], [ 37.6745, -0.3425 ], [ 37.6691, -0.3397 ], [ 37.6711, -0.3384 ], [ 37.6685, -0.3392 ], [ 37.6529, -0.3338 ], [ 37.6473, -0.3354 ], [ 37.6241, -0.3238 ], [ 37.6163, -0.3249 ], [ 37.6039, -0.3197 ], [ 37.3181, -0.1543 ], [ 37.325378276678933, -0.160511493869241 ], [ 37.6079, -0.3372 ] ], [ [ 37.7436, -0.4459 ], [ 37.743514150943398, -0.445912264150943 ], [ 37.7555, -0.4472 ], [ 37.7436, -0.4459 ] ], [ [ 37.7671, -0.4494 ], [ 37.760571283783783, -0.44948704954955 ], [ 37.7606, -0.4495 ], [ 37.7671, -0.4494 ] ], [ [ 37.935688617886179, -0.428083739837398 ], [ 37.9319, -0.426 ], [ 37.9333, -0.4279 ], [ 37.935688617886179, -0.428083739837398 ] ], [ [ 37.7615, -0.1592 ], [ 37.758109826589596, -0.166174071015689 ], [ 37.7582, -0.1661 ], [ 37.7648, -0.1532 ], [ 37.7615, -0.1592 ] ], [ [ 37.7729, -0.1543 ], [ 37.77787948717949, -0.1543 ], [ 37.7777, -0.1542 ], [ 37.7729, -0.1543 ] ], [ [ 37.803701462522852, -0.183182541133453 ], [ 37.8057, -0.1821 ], [ 37.8691, -0.1298 ], [ 37.803701462522852, -0.183182541133453 ] ], [ [ 37.52735, 0.2153 ], [ 37.5272, 0.2154 ], [ 37.527, 0.2155 ], [ 37.52735, 0.2153 ] ], [ [ 37.5275, 0.2152 ], [ 37.5277, 0.2151 ], [ 37.52735, 0.2153 ], [ 37.5275, 0.2152 ] ], [ [ 37.5282, 0.2148 ], [ 37.5306, 0.2135 ], [ 37.5309, 0.2137 ], [ 37.5277, 0.2151 ], [ 37.5282, 0.2148 ] ], [ [ 37.5388, 0.1583 ], [ 37.5387, 0.1582 ], [ 37.5369, 0.1557 ], [ 37.5373, 0.1545 ], [ 37.5388, 0.1583 ] ], [ [ 37.549, 0.1478 ], [ 37.5492, 0.1476 ], [ 37.5489, 0.1482 ], [ 37.549, 0.1478 ] ], [ [ 37.5495, 0.147 ], [ 37.5497, 0.1466 ], [ 37.5498, 0.1461 ], [ 37.5509, 0.1444 ], [ 37.5495, 0.147 ] ], [ [ 37.5512, 0.1437 ], [ 37.5547, 0.1351 ], [ 37.5553, 0.1342 ], [ 37.5509, 0.1444 ], [ 37.5512, 0.1437 ] ], [ [ 37.5528, 0.1216 ], [ 37.5526, 0.1213 ], [ 37.5524, 0.1209 ], [ 37.5524, 0.1206 ], [ 37.5528, 0.1216 ] ], [ [ 37.5649, 0.0677 ], [ 37.5573, 0.0727 ], [ 37.5555, 0.0756 ], [ 37.5549, 0.0745 ], [ 37.557, 0.0728 ], [ 37.5649, 0.0677 ] ], [ [ 37.4961, 0.1733 ], [ 37.4957, 0.1741 ], [ 37.4955, 0.1706 ], [ 37.4955, 0.1705 ], [ 37.4961, 0.1733 ] ], [ [ 37.4899, 0.1982 ], [ 37.49, 0.1986 ], [ 37.4899, 0.1983 ], [ 37.4899, 0.1982 ] ], [ [ 37.4955, 0.2161 ], [ 37.4959, 0.2165 ], [ 37.4963, 0.2172 ], [ 37.4955, 0.2161 ] ], [ [ 37.5103, 0.2263 ], [ 37.5121, 0.2271 ], [ 37.5129, 0.2275 ], [ 37.5097, 0.2261 ], [ 37.5103, 0.2263 ] ], [ [ 37.5143, 0.2316 ], [ 37.5146, 0.2307 ], [ 37.5149, 0.2315 ], [ 37.5137, 0.2331 ], [ 37.5143, 0.2316 ] ] ] } }
]
}
