{
"type": "FeatureCollection",
"name": "northern_arid_pastoral_boundary",
"crs": { "type": "name", "properties": { "name": "urn:ogc:def:crs:OGC:1.3:CRS84" } },
"features": [
{ "type": "Feature", "properties": { "GID_1": "KEN.9_1", "GID_0": "KEN", "COUNTRY": "Kenya", "NAME_1": "Isiolo", "VARNAME_1": "NA", "NL_NAME_1": "NA", "TYPE_1": "County", "ENGTYPE_1": "County", "CC_1": "11", "HASC_1": "KE.IS", "ISO_1": "KE-09" }, "geometry": { "type": "Polygon", "coordinates": [ [ [ 37.5543, 0.3253 ], [ 37.5505, 0.3209 ], [ 37.5467, 0.3113 ], [ 37.5474, 0.3078 ], [ 37.5491, 0.3073 ], [ 37.5496, 0.2958 ], [ 37.5459, 0.2861 ], [ 37.5475, 0.2849 ], [ 37.5471, 0.2799 ], [ 37.5415, 0.271 ], [ 37.5372, 0.2678 ], [ 37.5362, 0.2643 ], [ 37.4657, 0.2837 ], [ 37.4301, 0.2981 ], [ 37.4009, 0.2963 ], [ 37.3999, 0.2849 ], [ 37.3795, 0.2705 ], [ 37.3777, 0.2707 ], [ 37.3737, 0.2721 ], [ 37.3743, 0.2733 ], [ 37.3857, 0.2775 ], [ 37.3879, 0.2819 ], [ 37.3865, 0.2837 ], [ 37.3882, 0.2852 ], [ 37.3881, 0.2881 ], [ 37.3931, 0.2915 ], [ 37.3947, 0.2951 ], [ 37.3923, 0.2977 ], [ 37.3953, 0.3017 ], [ 37.3942, 0.3047 ], [ 37.3956, 0.3063 ], [ 37.3919, 0.3159 ], [ 37.3941, 0.3191 ], [ 37.3917, 0.3275 ], [ 37.3934, 0.3405 ], [ 37.3913, 0.3489 ], [ 37.3921, 0.3588 ], [ 37.3908, 0.3613 ], [ 37.3837, 0.3623 ], [ 37.3824, 0.3678 ], [ 37.3791, 0.3685 ], [ 37.3776, 0.3739 ], [ 37.3786, 0.381 ], [ 37.3701, 0.3847 ], [ 37.3691, 0.3989 ], [ 37.3633, 0.4093 ], [ 37.3533, 0.4145 ], [ 37.3517, 0.4398 ], [ 37.3483, 0.452 ], [ 37.3505, 0.4567 ], [ 37.3499, 0.4617 ], [ 37.3575, 0.4697 ], [ 37.3579, 0.4747 ], [ 37.3601, 0.4777 ], [ 37.3597, 0.4893 ], [ 37.3623, 0.4922 ], [ 37.3602, 0.4951 ], [ 37.3598, 0.5019 ], [ 37.3687, 0.5093 ], [ 37.3683, 0.5143 ], [ 37.3513, 0.5147 ], [ 37.2581, 0.5245 ], [ 37.1387, 0.5387 ], [ 37.1375, 0.5401 ], [ 37.1135, 0.5417 ], [ 36.8677, 0.5713 ], [ 36.8645, 0.5737 ], [ 36.8673, 0.5785 ], [ 36.8681, 0.5873 ], [ 36.8661, 0.5931 ], [ 36.8675, 0.5967 ], [ 36.8721, 0.5999 ], [ 36.8757, 0.6055 ], [ 36.8791, 0.6059 ], [ 36.8841, 0.6129 ], [ 36.8873, 0.6107 ], [ 36.8909, 0.6233 ], [ 36.8939, 0.6235 ], [ 36.8973, 0.6309 ], [ 36.9059, 0.6319 ], [ 36.9089, 0.6343 ], [ 36.9083, 0.6453 ], [ 36.9123, 0.6525 ], [ 36.9139, 0.6623 ], [ 36.9217, 0.6621 ], [ 36.9235, 0.6669 ], [ 36.9235, 0.6703 ], [ 36.9265, 0.6761 ], [ 36.9255, 0.6857 ], [ 36.9265, 0.7261 ], [ 36.9273, 0.7303 ], [ 36.9307, 0.7341 ], [ 36.930863094358216, 0.747392190194631 ], [ 36.9287, 0.7467 ], [ 36.9284, 0.745 ], [ 36.9248, 0.7456 ], [ 36.9204, 0.7435 ], [ 36.9166, 0.7357 ], [ 36.9175, 0.7335 ], [ 36.9146, 0.7328 ], [ 36.9119, 0.7342 ], [ 36.9111, 0.7326 ], [ 36.9078, 0.7357 ], [ 36.908, 0.7416 ], [ 36.9048, 0.7421 ], [ 36.9026, 0.7454 ], [ 36.8895, 0.743 ], [ 36.8866, 0.7399 ], [ 36.8765, 0.7428 ], [ 36.8761, 0.7412 ], [ 36.865, 0.7428 ], [ 36.8481, 0.7838 ], [ 36.8413, 0.795 ], [ 36.8442, 0.8003 ], [ 36.8344, 0.8065 ], [ 36.8331, 0.8193 ], [ 36.8192, 0.8467 ], [ 36.8192, 0.86 ], [ 36.7938, 0.8753 ], [ 36.7811, 0.8734 ], [ 36.7569, 0.8646 ], [ 36.7371, 0.8342 ], [ 36.7132, 0.8238 ], [ 36.7019, 0.8272 ], [ 36.6806, 0.8248 ], [ 36.6787, 0.8221 ], [ 36.6752, 0.8235 ], [ 36.6759, 0.8189 ], [ 36.4833, 0.8189 ], [ 36.4838, 0.8287 ], [ 36.4879, 0.8465 ], [ 36.4898, 0.8491 ], [ 36.4897, 0.8532 ], [ 36.4716, 0.8649 ], [ 36.4706, 0.868 ], [ 36.4645, 0.8697 ], [ 36.4625, 0.8735 ], [ 36.4563, 0.8765 ], [ 36.4457, 0.8759 ], [ 36.4297, 0.889 ], [ 36.4235, 0.8977 ], [ 36.4246, 0.9023 ], [ 36.4191, 0.9065 ], [ 36.4174, 0.9073 ], [ 36.4162, 0.9055 ], [ 36.4109, 0.9041 ], [ 36.4065, 0.9056 ], [ 36.4035, 0.9048 ], [ 36.3955, 0.9102 ], [ 36.3961, 0.913 ], [ 36.3939, 0.914 ], [ 36.3943, 0.9163 ], [ 36.3931, 0.9168 ], [ 36.3939, 0.9248 ], [ 36.388, 0.931 ], [ 36.388, 0.9451 ], [ 36.3906, 0.9462 ], [ 36.3889, 0.9494 ], [ 36.3843, 0.9515 ], [ 36.3842, 0.9551 ], [ 36.3787, 0.9554 ], [ 36.3753, 0.9572 ], [ 36.3699, 0.9559 ], [ 36.3654, 0.959 ], [ 36.3638, 0.9642 ], [ 36.3515, 0.9667 ], [ 36.3477, 0.9752 ], [ 36.3469, 0.9913 ], [ 36.3426, 0.9937 ], [ 36.3422, 0.9983 ], [ 36.3173, 0.9955 ], [ 36.1732, 1.1752 ], [ 36.0973, 1.1732 ], [ 36.0961, 1.171 ], [ 35.7855, 1.6559 ], [ 35.786, 1.6615 ], [ 35.7817, 1.6683 ], [ 35.771, 1.6705 ], [ 35.762, 1.6746 ], [ 35.7588, 1.6779 ], [ 35.7532, 1.6784 ], [ 35.7509, 1.6804 ], [ 35.7414, 1.6833 ], [ 35.7386, 1.683 ], [ 35.7254, 1.6929 ], [ 35.7198, 1.6944 ], [ 35.7188, 1.6973 ], [ 35.7021, 1.711 ], [ 35.6851, 1.72 ], [ 35.679, 1.7255 ], [ 35.6736, 1.7272 ], [ 35.6694, 1.7352 ], [ 35.6577, 1.7378 ], [ 35.6485, 1.7461 ], [ 35.6407, 1.7466 ], [ 35.6384, 1.7493 ], [ 35.6289, 1.751 ], [ 35.6203, 1.7547 ], [ 35.6185, 1.7538 ], [ 35.6135, 1.7559 ], [ 35.6084, 1.7554 ], [ 35.6076, 1.7574 ], [ 35.6037, 1.7586 ], [ 35.5984, 1.7666 ], [ 35.5956, 1.7666 ], [ 35.5938, 1.7685 ], [ 35.5858, 1.7643 ], [ 35.5771, 1.765 ], [ 35.5744, 1.7668 ], [ 35.5695, 1.7664 ], [ 35.5676, 1.764 ], [ 35.5621, 1.7672 ], [ 35.5596, 1.7662 ], [ 35.5493, 1.7705 ], [ 35.5453, 1.7684 ], [ 35.5373, 1.7699 ], [ 35.5327, 1.7677 ], [ 35.528, 1.7682 ], [ 35.5159, 1.7744 ], [ 35.5036, 1.7708 ], [ 35.5, 1.7729 ], [ 35.498, 1.7709 ], [ 35.4985, 1.7733 ], [ 35.4948, 1.774 ], [ 35.4972, 1.7804 ], [ 35.4953, 1.7811 ], [ 35.495, 1.7832 ], [ 35.4925, 1.7832 ], [ 35.4915, 1.7849 ], [ 35.4928, 1.787 ], [ 35.4897, 1.7862 ], [ 35.4879, 1.7904 ], [ 35.4853, 1.7917 ], [ 35.4858, 1.7953 ], [ 35.4827, 1.7966 ], [ 35.4825, 1.8019 ], [ 35.4759, 1.8043 ], [ 35.4746, 1.8085 ], [ 35.4709, 1.8083 ], [ 35.4715, 1.8102 ], [ 35.4742, 1.8108 ], [ 35.4745, 1.8145 ], [ 35.4776, 1.8179 ], [ 35.473, 1.8186 ], [ 35.4726, 1.822 ], [ 35.4769, 1.8267 ], [ 35.4747, 1.8284 ], [ 35.4767, 1.8311 ], [ 35.4743, 1.8333 ], [ 35.4732, 1.8411 ], [ 35.4691, 1.8436 ], [ 35.4675, 1.8474 ], [ 35.4608, 1.8455 ], [ 35.4575, 1.8516 ], [ 35.4527, 1.8506 ], [ 35.4518, 1.8554 ], [ 35.3694, 1.9343 ], [ 35.3745, 1.9402 ], [ 35.3749, 1.9465 ], [ 35.3769, 1.9502 ], [ 35.3805, 1.9533 ], [ 35.3872, 1.9549 ], [ 35.3912, 1.9585 ], [ 35.3893, 1.9654 ], [ 35.3937, 1.9688 ], [ 35.3432, 2.1714 ], [ 35.3118, 2.2841 ], [ 35.3073, 2.3307 ], [ 35.3031, 2.403 ], [ 35.3024, 2.4018 ], [ 35.2976, 2.4206 ], [ 35.2917, 2.4285 ], [ 35.2721, 2.4374 ], [ 35.2507, 2.4397 ], [ 35.2459, 2.4455 ], [ 35.2325, 2.4469 ], [ 35.2288, 2.4498 ], [ 35.2231, 2.4593 ], [ 35.2211, 2.4662 ], [ 35.2205, 2.4788 ], [ 35.2153, 2.4965 ], [ 35.2129, 2.5425 ], [ 35.1869, 2.5716 ], [ 35.1858, 2.5789 ], [ 35.1784, 2.598 ], [ 35.1668, 2.6167 ], [ 35.1575, 2.6284 ], [ 35.1317, 2.6452 ], [ 35.1126, 2.6526 ], [ 35.1106, 2.6499 ], [ 35.1091, 2.6527 ], [ 35.0961, 2.6495 ], [ 35.0923, 2.6454 ], [ 35.0811, 2.6394 ], [ 35.0742, 2.6284 ], [ 35.0667, 2.6256 ], [ 35.0641, 2.6227 ], [ 35.0595, 2.6108 ], [ 35.0598, 2.6033 ], [ 35.0565, 2.5912 ], [ 35.0583, 2.5776 ], [ 35.0555, 2.5677 ], [ 35.0386, 2.5379 ], [ 35.0197, 2.513 ], [ 35.0156, 2.5018 ], [ 35.0204, 2.4877 ], [ 35.0193, 2.4748 ], [ 35.0218, 2.4685 ], [ 35.0194, 2.4607 ], [ 35.0228, 2.4468 ], [ 35.0256, 2.4439 ], [ 35.0256, 2.4365 ], [ 34.9702, 2.4483 ], [ 34.9644, 2.4509 ], [ 34.9536, 2.4579 ], [ 34.9525, 2.4614 ], [ 34.9549, 2.4687 ], [ 34.9534, 2.4713 ], [ 34.9544, 2.4726 ], [ 34.9485, 2.4724 ], [ 34.9367, 2.5001 ], [ 34.933, 2.5162 ], [ 34.913, 2.5168 ], [ 34.9051, 2.5475 ], [ 34.8973, 2.5883 ], [ 34.8938, 2.5931 ], [ 34.8805, 2.5897 ], [ 34.8783, 2.5726 ], [ 34.8682, 2.5708 ], [ 34.8522, 2.5838 ], [ 34.8385, 2.6045 ], [ 34.8316, 2.6211 ], [ 34.7992, 2.6561 ], [ 34.7904, 2.6836 ], [ 34.7754, 2.6981 ], [ 34.7838, 2.7429 ], [ 34.7835, 2.7554 ], [ 34.7781, 2.7706 ], [ 34.7753, 2.788 ], [ 34.7672, 2.8027 ], [ 34.7659, 2.8137 ], [ 34.7621, 2.8212 ], [ 34.755, 2.8287 ], [ 34.7519, 2.8261 ], [ 34.7491, 2.8264 ], [ 34.7363, 2.8552 ], [ 34.7117, 2.8655 ], [ 34.7083, 2.8737 ], [ 34.7017, 2.8779 ], [ 34.6924, 2.8631 ], [ 34.6849, 2.8643 ], [ 34.6684, 2.8634 ], [ 34.6529, 2.8678 ], [ 34.6393, 2.907 ], [ 34.599, 2.9249 ], [ 34.5888, 2.9824 ], [ 34.5874, 3.0041 ], [ 34.5844, 3.0109 ], [ 34.5765, 3.0208 ], [ 34.5757, 3.0355 ], [ 34.5727, 3.0503 ], [ 34.5748, 3.0692 ], [ 34.5723, 3.0917 ], [ 34.5626, 3.1078 ], [ 34.5589, 3.1107 ], [ 34.5458, 3.1368 ], [ 34.512, 3.1491 ], [ 34.4948, 3.1416 ], [ 34.4888, 3.1556 ], [ 34.482, 3.1654 ], [ 34.4705, 3.1729 ], [ 34.4604, 3.1746 ], [ 34.4558, 3.1823 ], [ 34.4474, 3.2833 ], [ 34.438, 3.3077 ], [ 34.4299, 3.343 ], [ 34.4006, 3.3709 ], [ 34.4017, 3.4154 ], [ 34.4098, 3.4184 ], [ 34.4193, 3.4337 ], [ 34.4166, 3.451 ], [ 34.4038, 3.4703 ], [ 34.391, 3.4833 ], [ 34.3889, 3.4921 ], [ 34.391, 3.4931 ], [ 34.396, 3.4883 ], [ 34.4247, 3.492 ], [ 34.4396, 3.5046 ], [ 34.4515, 3.5175 ], [ 34.4566, 3.5758 ], [ 34.4531, 3.6115 ], [ 34.4632, 3.6698 ], [ 34.4558, 3.6766 ], [ 34.422, 3.6889 ], [ 34.4049, 3.6931 ], [ 34.4028, 3.7056 ], [ 34.3942, 3.7181 ], [ 34.3823, 3.7279 ], [ 34.365, 3.7355 ], [ 34.331, 3.7334 ], [ 34.3234, 3.7285 ], [ 34.3158, 3.7166 ], [ 34.3079, 3.7117 ], [ 34.2975, 3.7215 ], [ 34.2833, 3.7311 ], [ 34.2664, 3.7486 ], [ 34.2579, 3.7669 ], [ 34.2456, 3.7842 ], [ 34.2332, 3.7811 ], [ 34.229, 3.7745 ], [ 34.2268, 3.7745 ], [ 34.226, 3.7829 ], [ 34.2203, 3.7845 ], [ 34.1858, 3.7713 ], [ 34.1709, 3.7681 ], [ 34.166, 3.7739 ], [ 34.1901, 3.7832 ], [ 34.1882, 3.7906 ], [ 34.1886, 3.7955 ], [ 34.1705, 3.8006 ], [ 34.1635, 3.7981 ], [ 34.159, 3.8018 ], [ 34.1537, 3.8003 ], [ 34.1532, 3.8073 ], [ 34.1583, 3.8079 ], [ 34.1639, 3.8108 ], [ 34.1686, 3.8187 ], [ 34.18, 3.8319 ], [ 34.226, 3.8314 ], [ 34.225, 3.8525 ], [ 34.2155, 3.8812 ], [ 34.2046, 3.8825 ], [ 34.175, 3.88 ], [ 34.1707, 3.8769 ], [ 34.1669, 3.8702 ], [ 34.1526, 3.8692 ], [ 34.1278, 3.8725 ], [ 34.1094, 3.8688 ], [ 34.0926, 3.8602 ], [ 34.0884, 3.8616 ], [ 34.0914, 3.8856 ], [ 34.1163, 3.8978 ], [ 34.1199, 3.9012 ], [ 34.1346, 3.9617 ], [ 34.1057, 3.977 ], [ 34.0821, 4.0026 ], [ 34.06, 4.0099 ], [ 34.0588, 4.0281 ], [ 34.0876, 4.037 ], [ 34.0913, 4.0495 ], [ 34.0916, 4.0617 ], [ 34.0797, 4.0858 ], [ 34.0631, 4.0946 ], [ 34.0495, 4.1215 ], [ 34.0657, 4.1444 ], [ 34.0474, 4.1795 ], [ 34.002, 4.2214 ], [ 34.0177, 4.236 ], [ 33.9921, 4.256 ], [ 34.2232, 4.4828 ], [ 34.2256, 4.4811 ], [ 34.3715, 4.6243 ], [ 34.6718, 4.755 ], [ 34.9287, 4.8588 ], [ 34.9289, 4.8573 ], [ 35.2624, 4.9804 ], [ 35.2635, 4.9777 ], [ 35.2654, 4.9772 ], [ 35.2996, 4.9829 ], [ 35.3507, 5.01 ], [ 35.4079, 5.0612 ], [ 35.441, 5.0582 ], [ 35.426, 4.9859 ], [ 35.42, 4.9438 ], [ 35.5193, 4.9588 ], [ 35.5374, 4.9588 ], [ 35.524, 4.9163 ], [ 35.5194, 4.9181 ], [ 35.5156, 4.8786 ], [ 35.503, 4.8094 ], [ 35.4973, 4.7948 ], [ 35.487, 4.7774 ], [ 35.5056, 4.7636 ], [ 35.5103, 4.7481 ], [ 35.5836, 4.6239 ], [ 35.6903, 4.6251 ], [ 35.6984, 4.6228 ], [ 35.7048, 4.623 ], [ 35.7076, 4.6311 ], [ 35.736, 4.6669 ], [ 35.7661, 4.6819 ], [ 35.7842, 4.6729 ], [ 35.7926, 4.6264 ], [ 35.8699, 4.6273 ], [ 35.9029, 4.5896 ], [ 35.9654, 4.5115 ], [ 35.9969, 4.4914 ], [ 36.0391, 4.4541 ], [ 36.0436, 4.4512 ], [ 36.0521, 4.4492 ], [ 36.1142, 4.45 ], [ 36.1555, 4.4463 ], [ 36.2094, 4.4448 ], [ 36.2441, 4.4547 ], [ 36.2651, 4.4436 ], [ 36.3527, 4.4427 ], [ 36.3972, 4.4392 ], [ 36.4539, 4.4431 ], [ 36.5428, 4.4397 ], [ 36.6169, 4.4498 ], [ 36.6403, 4.4499 ], [ 36.6564, 4.44 ], [ 36.7126, 4.4392 ], [ 36.8388, 4.444 ], [ 36.8665, 4.4318 ], [ 36.8955, 4.4249 ], [ 36.9497, 4.4042 ], [ 36.9561, 4.3967 ], [ 36.9697, 4.3945 ], [ 36.9814, 4.3892 ], [ 36.9854, 4.3853 ], [ 36.997, 4.3789 ], [ 37.0394, 4.3617 ], [ 37.0585, 4.343 ], [ 37.0848, 4.3255 ], [ 37.1042, 4.2988 ], [ 37.1237, 4.2828 ], [ 37.1614, 4.2702 ], [ 37.1904, 4.2542 ], [ 37.2481, 4.2175 ], [ 37.3295, 4.1643 ], [ 37.3536, 4.1468 ], [ 37.4011, 4.1182 ], [ 37.5097, 4.0466 ], [ 37.516, 4.0394 ], [ 37.5305, 4.0313 ], [ 37.5537, 4.0123 ], [ 37.577, 3.9986 ], [ 37.5854, 3.9906 ], [ 37.5972, 3.985 ], [ 37.631, 3.9625 ], [ 37.6371, 3.9531 ], [ 37.6697, 3.933 ], [ 37.7099, 3.9049 ], [ 37.74, 3.8869 ], [ 37.7827, 3.8556 ], [ 37.8337, 3.8233 ], [ 37.9002, 3.7777 ], [ 37.9166, 3.7685 ], [ 37.9294, 3.7591 ], [ 37.9662, 3.7385 ], [ 37.9852, 3.7291 ], [ 37.9959, 3.7263 ], [ 38.0025, 3.7222 ], [ 38.0053, 3.7153 ], [ 38.013, 3.7086 ], [ 38.0139, 3.7022 ], [ 38.0449, 3.6695 ], [ 38.0508, 3.6675 ], [ 38.0968, 3.6314 ], [ 38.1203, 3.6085 ], [ 38.1262, 3.6068 ], [ 38.133, 3.6092 ], [ 38.1438, 3.6093 ], [ 38.1885, 3.618 ], [ 38.2534, 3.612 ], [ 38.2776, 3.6119 ], [ 38.3224, 3.6092 ], [ 38.3417, 3.6062 ], [ 38.4372, 3.6013 ], [ 38.4488, 3.6265 ], [ 38.4762, 3.6109 ], [ 38.5174, 3.6263 ], [ 38.5169, 3.6398 ], [ 38.5136, 3.647 ], [ 38.5328, 3.6527 ], [ 38.5439, 3.639 ], [ 38.552, 3.6235 ], [ 38.5513, 3.6175 ], [ 38.5532, 3.6126 ], [ 38.5682, 3.6068 ], [ 38.5724, 3.6034 ], [ 38.5961, 3.6045 ], [ 38.6097, 3.6111 ], [ 38.6104, 3.6038 ], [ 38.6552, 3.594 ], [ 38.6624, 3.5949 ], [ 38.6686, 3.6038 ], [ 38.6706, 3.6092 ], [ 38.6692, 3.6147 ], [ 38.6704, 3.6198 ], [ 38.6779, 3.6215 ], [ 38.6835, 3.6173 ], [ 38.6906, 3.6036 ], [ 38.7058, 3.5825 ], [ 38.7124, 3.5691 ], [ 38.8289, 3.5322 ], [ 38.8363, 3.5318 ], [ 38.8569, 3.5259 ], [ 38.8959, 3.5115 ], [ 38.9076, 3.5097 ], [ 38.9469, 3.5129 ], [ 38.9627, 3.5282 ], [ 38.9832, 3.5203 ], [ 39.0017, 3.5209 ], [ 39.0153, 3.5128 ], [ 39.0242, 3.5219 ], [ 39.0314, 3.5245 ], [ 39.0468, 3.5215 ], [ 39.0657, 3.5279 ], [ 39.0808, 3.5386 ], [ 39.0929, 3.534 ], [ 39.1065, 3.5191 ], [ 39.1349, 3.5106 ], [ 39.2005, 3.4791 ], [ 39.2799, 3.4729 ], [ 39.2988, 3.4769 ], [ 39.3082, 3.4773 ], [ 39.3284, 3.4782 ], [ 39.3291, 3.4725 ], [ 39.3326, 3.4662 ], [ 39.4056, 3.4646 ], [ 39.4156, 3.4623 ], [ 39.4237, 3.4571 ], [ 39.4675, 3.4566 ], [ 39.486, 3.4595 ], [ 39.4937, 3.4575 ], [ 39.4984, 3.4538 ], [ 39.5116, 3.4104 ], [ 39.5161, 3.4044 ], [ 39.5274, 3.3988 ], [ 39.5439, 3.4015 ], [ 39.5589, 3.4124 ], [ 39.5647, 3.4261 ], [ 39.5786, 3.4726 ], [ 39.5819, 3.4781 ], [ 39.609, 3.5026 ], [ 39.6165, 3.5125 ], [ 39.7064, 3.6047 ], [ 39.771, 3.6684 ], [ 39.7792, 3.6865 ], [ 39.8366, 3.8133 ], [ 39.8543, 3.8462 ], [ 39.8619, 3.8641 ], [ 40.0181, 3.9474 ], [ 40.1066, 3.9896 ], [ 40.119, 3.9963 ], [ 40.1264, 4.0024 ], [ 40.1908, 4.0361 ], [ 40.2309, 4.0463 ], [ 40.3726, 4.1025 ], [ 40.3846, 4.101 ], [ 40.3998, 4.1159 ], [ 40.4396, 4.1341 ], [ 40.649, 4.2211 ], [ 40.6704, 4.2294 ], [ 40.6871, 4.2311 ], [ 40.706, 4.243 ], [ 40.7211, 4.2454 ], [ 40.7439, 4.258 ], [ 40.7586, 4.2686 ], [ 40.7752, 4.2772 ], [ 40.7922, 4.2699 ], [ 40.8056, 4.2539 ], [ 40.8263, 4.2372 ], [ 40.881, 4.1854 ], [ 40.9369, 4.1483 ], [ 40.9546, 4.1245 ], [ 40.9814, 4.0925 ], [ 41.0072, 4.0778 ], [ 41.0255, 4.0613 ], [ 41.0418, 4.05 ], [ 41.057, 4.0264 ], [ 41.1013, 3.9977 ], [ 41.1127, 3.9869 ], [ 41.1463, 3.9764 ], [ 41.1721, 3.9617 ], [ 41.1917, 3.9599 ], [ 41.2151, 3.9749 ], [ 41.288, 3.9633 ], [ 41.332, 3.9592 ], [ 41.3786, 3.9573 ], [ 41.433, 3.9597 ], [ 41.4721, 3.9561 ], [ 41.4972, 3.9611 ], [ 41.5558, 3.9557 ], [ 41.5784, 3.961 ], [ 41.6528, 3.9664 ], [ 41.6774, 3.9666 ], [ 41.6976, 3.9721 ], [ 41.7245, 3.9696 ], [ 41.752, 3.9745 ], [ 41.7673, 3.9804 ], [ 41.7988, 3.975 ], [ 41.8436, 3.9807 ], [ 41.8589, 3.9867 ], [ 41.8836, 3.9869 ], [ 41.9007, 3.9853 ], [ 41.9139, 3.9964 ], [ 41.9262, 4.0023 ], [ 41.9214, 3.9941 ], [ 41.9131, 3.9908 ], [ 41.9069, 3.978 ], [ 41.8991, 3.9755 ], [ 41.8729, 3.9366 ], [ 41.8602, 3.9127 ], [ 41.7249, 3.7236 ], [ 41.7239, 3.7256 ], [ 41.6614, 3.6392 ], [ 41.6106, 3.5641 ], [ 41.3281, 3.1586 ], [ 41.2857, 3.1153 ], [ 41.1335, 2.9708 ], [ 41.0812, 2.9168 ], [ 40.9921, 2.8297 ], [ 40.9921, 2.8248 ], [ 40.9866, 2.8194 ], [ 40.9854, 2.7849 ], [ 40.9875, 2.7326 ], [ 40.9861, 2.7015 ], [ 40.9875, 2.3415 ], [ 40.9869, 2.2289 ], [ 40.9786, 2.1784 ], [ 40.9905, 1.9547 ], [ 40.9913, 1.8317 ], [ 40.9938, 1.8239 ], [ 40.9911, 1.7666 ], [ 40.9907, 1.2308 ], [ 40.9947, 1.231 ], [ 40.991, 0.978 ], [ 40.9905, 0.8233 ], [ 40.9943, 0.6712 ], [ 40.9888, 0.5145 ], [ 40.9887, 0.4621 ], [ 40.9803, 0.4556 ], [ 40.9618, 0.449 ], [ 40.9465, 0.4384 ], [ 40.9343, 0.434 ], [ 40.9201, 0.4261 ], [ 40.886, 0.3933 ], [ 40.8581, 0.3759 ], [ 40.8421, 0.3703 ], [ 40.8172, 0.3654 ], [ 40.7713, 0.3532 ], [ 40.7501, 0.3417 ], [ 40.7367, 0.3262 ], [ 40.7171, 0.3206 ], [ 40.7114, 0.3141 ], [ 40.7037, 0.2931 ], [ 40.6955, 0.2785 ], [ 40.6845, 0.2715 ], [ 40.6833, 0.2597 ], [ 40.6813, 0.2571 ], [ 40.6465, 0.2313 ], [ 40.6293, 0.2327 ], [ 40.6191, 0.2313 ], [ 40.6115, 0.2321 ], [ 40.6065, 0.2265 ], [ 40.5953, 0.2253 ], [ 40.5855, 0.2153 ], [ 40.5779, 0.2177 ], [ 40.5713, 0.2153 ], [ 40.5629, 0.2163 ], [ 40.5407, 0.2269 ], [ 40.5349, 0.227 ], [ 40.5241, 0.2218 ], [ 40.5205, 0.2137 ], [ 40.5129, 0.2077 ], [ 40.5089, 0.1961 ], [ 40.5055, 0.1927 ], [ 40.4955, 0.1971 ], [ 40.4839, 0.1887 ], [ 40.4787, 0.1867 ], [ 40.4527, 0.1855 ], [ 40.4257, 0.1899 ], [ 40.4186, 0.1887 ], [ 40.4055, 0.1835 ], [ 40.3993, 0.1841 ], [ 40.3812, 0.1946 ], [ 40.3595, 0.1984 ], [ 40.3578, 0.2013 ], [ 40.3446, 0.2013 ], [ 40.3425, 0.1987 ], [ 40.3394, 0.1987 ], [ 40.3432, 0.2027 ], [ 40.3289, 0.2042 ], [ 40.2998, 0.2236 ], [ 40.2596, 0.2413 ], [ 40.2442, 0.2497 ], [ 40.2144, 0.2734 ], [ 40.1766, 0.3159 ], [ 40.1753, 0.3133 ], [ 40.1567, 0.3293 ], [ 40.1301, 0.3421 ], [ 40.059, 0.3931 ], [ 40.0493, 0.3964 ], [ 40.0135, 0.3993 ], [ 39.9791, 0.4103 ], [ 39.944, 0.4304 ], [ 39.9116, 0.4584 ], [ 39.9035, 0.4635 ], [ 39.8943, 0.4625 ], [ 39.8892, 0.4641 ], [ 39.8779, 0.4597 ], [ 39.8743, 0.4597 ], [ 39.8693, 0.4621 ], [ 39.8649, 0.467 ], [ 39.8571, 0.4703 ], [ 39.8496, 0.4785 ], [ 39.8401, 0.4791 ], [ 39.8357, 0.4815 ], [ 39.8275, 0.4797 ], [ 39.8209, 0.4835 ], [ 39.8103, 0.4851 ], [ 39.8009, 0.4845 ], [ 39.7957, 0.4883 ], [ 39.7831, 0.4915 ], [ 39.7747, 0.4965 ], [ 39.7699, 0.5037 ], [ 39.7637, 0.5071 ], [ 39.7624, 0.5117 ], [ 39.7463, 0.5177 ], [ 39.7405, 0.5233 ], [ 39.7359, 0.5233 ], [ 39.7317, 0.5267 ], [ 39.7309, 0.531 ], [ 39.7235, 0.5431 ], [ 39.7204, 0.5466 ], [ 39.7169, 0.5465 ], [ 39.7163, 0.5505 ], [ 39.7115, 0.5569 ], [ 39.7019, 0.5651 ], [ 39.698, 0.5726 ], [ 39.6883, 0.5801 ], [ 39.6846, 0.588 ], [ 39.6759, 0.5979 ], [ 39.6729, 0.6053 ], [ 39.6639, 0.6153 ], [ 39.6623, 0.6203 ], [ 39.6539, 0.6325 ], [ 39.6455, 0.6571 ], [ 39.6349, 0.6671 ], [ 39.6269, 0.6703 ], [ 39.6239, 0.6771 ], [ 39.6139, 0.6845 ], [ 39.6101, 0.6917 ], [ 39.5997, 0.7035 ], [ 39.5965, 0.7129 ], [ 39.5867, 0.7207 ], [ 39.5755, 0.7409 ], [ 39.5641, 0.7557 ], [ 39.5613, 0.7623 ], [ 39.5607, 0.7689 ], [ 39.5545, 0.7809 ], [ 39.5437, 0.8215 ], [ 39.5331, 0.8535 ], [ 39.5151, 0.8979 ], [ 39.4991, 0.9305 ], [ 39.4931, 0.9605 ], [ 39.4799, 0.9803 ], [ 39.4657, 0.9887 ], [ 39.4625, 0.9933 ], [ 39.461970760233918, 0.9948013696522 ], [ 39.4545, 0.9891 ], [ 39.3957, 0.9685 ], [ 39.3613, 0.9539 ], [ 39.3137, 0.9249 ], [ 39.2679, 0.8759 ], [ 39.2497, 0.8597 ], [ 39.2371, 0.8443 ], [ 39.2247, 0.8177 ], [ 39.2153, 0.8051 ], [ 39.2005, 0.7895 ], [ 39.1805, 0.7519 ], [ 39.1777, 0.7437 ], [ 39.1757, 0.7279 ], [ 39.1809, 0.7231 ], [ 39.1779, 0.7257 ], [ 39.1741, 0.7201 ], [ 39.1673, 0.7187 ], [ 39.1643, 0.7143 ], [ 39.1475, 0.7055 ], [ 39.1435, 0.6979 ], [ 39.1423, 0.6913 ], [ 39.1353, 0.6909 ], [ 39.1311, 0.6883 ], [ 39.1143, 0.6913 ], [ 39.1025, 0.6895 ], [ 39.0985, 0.6867 ], [ 39.0981, 0.6811 ], [ 39.0895, 0.6809 ], [ 39.0839, 0.6769 ], [ 39.0783, 0.6791 ], [ 39.0723, 0.6787 ], [ 39.0669, 0.6829 ], [ 39.0619, 0.6831 ], [ 39.0581, 0.6857 ], [ 39.0519, 0.6855 ], [ 39.0489, 0.6837 ], [ 39.0461, 0.6775 ], [ 39.0377, 0.6729 ], [ 39.0351, 0.6671 ], [ 39.0319, 0.6653 ], [ 39.0275, 0.6653 ], [ 39.0257, 0.6631 ], [ 39.0227, 0.6559 ], [ 39.0239, 0.6467 ], [ 39.0209, 0.6415 ], [ 39.0145, 0.6415 ], [ 39.0127, 0.6389 ], [ 39.0123, 0.6281 ], [ 39.0103, 0.6253 ], [ 38.9861, 0.6263 ], [ 38.9803, 0.6229 ], [ 38.9757, 0.6227 ], [ 38.9615, 0.6247 ], [ 38.9517, 0.6285 ], [ 38.9487, 0.6267 ], [ 38.9403, 0.6285 ], [ 38.9357, 0.6251 ], [ 38.9255, 0.6069 ], [ 38.9107, 0.5997 ], [ 38.9081, 0.6003 ], [ 38.9013, 0.5973 ], [ 38.8943, 0.5981 ], [ 38.8917, 0.5961 ], [ 38.8861, 0.5973 ], [ 38.8759, 0.5957 ], [ 38.8719, 0.6007 ], [ 38.8607, 0.6005 ], [ 38.8567, 0.5989 ], [ 38.8387, 0.5871 ], [ 38.8319, 0.5859 ], [ 38.8247, 0.5811 ], [ 38.8161, 0.5717 ], [ 38.8077, 0.5553 ], [ 38.8017, 0.5505 ], [ 38.7991, 0.5445 ], [ 38.7917, 0.5413 ], [ 38.7837, 0.5271 ], [ 38.7755, 0.5199 ], [ 38.7677, 0.5175 ], [ 38.7651, 0.5133 ], [ 38.7557, 0.5167 ], [ 38.7543, 0.5219 ], [ 38.7491, 0.5253 ], [ 38.7433, 0.5249 ], [ 38.7351, 0.5203 ], [ 38.7231, 0.5261 ], [ 38.7205, 0.5241 ], [ 38.7211, 0.5134 ], [ 38.7081, 0.5133 ], [ 38.7035, 0.5079 ], [ 38.6921, 0.5117 ], [ 38.6779, 0.5097 ], [ 38.6639, 0.5107 ], [ 38.6577, 0.5091 ], [ 38.6661, 0.5015 ], [ 38.6699, 0.5015 ], [ 38.6769, 0.4955 ], [ 38.6799, 0.4739 ], [ 38.6903, 0.4475 ], [ 38.7073, 0.3789 ], [ 38.7122, 0.3657 ], [ 38.7131, 0.3559 ], [ 38.7573, 0.1841 ], [ 38.7573, 0.1743 ], [ 38.7557, 0.17 ], [ 38.7351, 0.1495 ], [ 38.7341, 0.1469 ], [ 38.7321, 0.1249 ], [ 38.7301, 0.1185 ], [ 38.7319, 0.0979 ], [ 38.7287, 0.0855 ], [ 38.7301, 0.0761 ], [ 38.7291, 0.0671 ], [ 38.7323, 0.0397 ], [ 38.7401, 0.0139 ], [ 38.7379, 0.0039 ], [ 38.7429, -0.0022 ], [ 38.7423, -0.0129 ], [ 38.7485, -0.0203 ], [ 38.7489, -0.0305 ], [ 38.7527, -0.0385 ], [ 38.7513, -0.0467 ], [ 38.7637, -0.053 ], [ 38.7647, -0.0554 ], [ 38.7597, -0.0621 ], [ 38.7607, -0.0647 ], [ 38.7659, -0.0691 ], [ 38.7579, -0.0733 ], [ 38.7489, -0.0724 ], [ 38.7443, -0.0706 ], [ 38.7379, -0.0707 ], [ 38.7277, -0.0647 ], [ 38.7136, -0.0624 ], [ 38.6975, -0.0513 ], [ 38.6905, -0.042 ], [ 38.6877, -0.0411 ], [ 38.6843, -0.0474 ], [ 38.6847, -0.0521 ], [ 38.6811, -0.0554 ], [ 38.6753, -0.0547 ], [ 38.6551, -0.0466 ], [ 38.6477, -0.0538 ], [ 38.6391, -0.0547 ], [ 38.6361, -0.0534 ], [ 38.6259, -0.0418 ], [ 38.6117, -0.0303 ], [ 38.6085, -0.0296 ], [ 38.6009, -0.0342 ], [ 38.5977, -0.0334 ], [ 38.5922, -0.0305 ], [ 38.5887, -0.0265 ], [ 38.5803, -0.025 ], [ 38.5705, -0.0198 ], [ 38.5696, -0.0151 ], [ 38.5693, -0.0184 ], [ 38.5611, -0.0196 ], [ 38.5549, -0.0174 ], [ 38.5485, -0.0197 ], [ 38.5421, -0.0328 ], [ 38.5405, -0.0434 ], [ 38.5299, -0.0451 ], [ 38.5303, -0.0556 ], [ 38.5263, -0.057 ], [ 38.5219, -0.062 ], [ 38.5189, -0.063 ], [ 38.5119, -0.0597 ], [ 38.5021, -0.0634 ], [ 38.4929, -0.0595 ], [ 38.4893, -0.0609 ], [ 38.4877, -0.0701 ], [ 38.4829, -0.076 ], [ 38.4719, -0.0792 ], [ 38.4605, -0.0858 ], [ 38.4527, -0.0849 ], [ 38.4383, -0.0724 ], [ 38.4361, -0.0729 ], [ 38.4329, -0.0769 ], [ 38.4263, -0.075 ], [ 38.4197, -0.0686 ], [ 38.4135, -0.0664 ], [ 38.4107, -0.0637 ], [ 38.4119, -0.0599 ], [ 38.4105, -0.0575 ], [ 38.4131, -0.0514 ], [ 38.4103, -0.0509 ], [ 38.4109, -0.0478 ], [ 38.4065, -0.0436 ], [ 38.4055, -0.0292 ], [ 38.4001, -0.0236 ], [ 38.4011, -0.017 ], [ 38.3939, -0.0134 ], [ 38.3939, -0.0099 ], [ 38.3873, -0.0053 ], [ 38.3801, -0.0032 ], [ 38.3763, 0.0049 ], [ 38.3697, 0.0067 ], [ 38.3659, 0.0137 ], [ 38.3565, 0.0203 ], [ 38.3535, 0.0305 ], [ 38.3575, 0.0369 ], [ 38.3487, 0.0431 ], [ 38.3451, 0.0433 ], [ 38.3441, 0.0465 ], [ 38.3465, 0.0505 ], [ 38.3457, 0.0539 ], [ 38.3491, 0.0594 ], [ 38.3469, 0.0613 ], [ 38.3381, 0.0625 ], [ 38.3405, 0.0653 ], [ 38.3393, 0.0681 ], [ 38.3249, 0.0745 ], [ 38.3231, 0.0789 ], [ 38.3281, 0.0917 ], [ 38.3275, 0.0957 ], [ 38.3205, 0.0985 ], [ 38.3181, 0.1069 ], [ 38.3085, 0.1101 ], [ 38.3047, 0.1199 ], [ 38.3057, 0.1293 ], [ 38.3043, 0.1371 ], [ 38.2963, 0.1597 ], [ 38.2875, 0.1649 ], [ 38.2813, 0.1731 ], [ 38.2665, 0.1819 ], [ 38.2637, 0.1851 ], [ 38.2619, 0.1923 ], [ 38.2589, 0.1935 ], [ 38.2447, 0.2067 ], [ 38.2389, 0.2071 ], [ 38.2355, 0.2121 ], [ 38.2297, 0.2163 ], [ 38.2203, 0.2177 ], [ 38.2127, 0.2227 ], [ 38.2011, 0.2269 ], [ 38.1991, 0.2257 ], [ 38.1921, 0.2345 ], [ 38.1957, 0.3221 ], [ 38.1765, 0.3309 ], [ 38.1621, 0.3685 ], [ 38.1583, 0.3695 ], [ 38.1623, 0.3687 ], [ 38.0945, 0.5641 ], [ 38.0625, 0.6711 ], [ 37.9017, 0.5967 ], [ 37.9025, 0.5921 ], [ 37.9017, 0.5965 ], [ 37.8263, 0.5631 ], [ 37.5867, 0.4805 ], [ 37.5859, 0.4717 ], [ 37.5817, 0.4607 ], [ 37.5823, 0.4115 ], [ 37.5851, 0.4021 ], [ 37.5983, 0.4029 ], [ 37.6049, 0.3539 ], [ 37.5931, 0.3403 ], [ 37.5953, 0.3389 ], [ 37.5929, 0.3403 ], [ 37.5817, 0.3289 ], [ 37.573, 0.3288 ], [ 37.5553, 0.3289 ], [ 37.5543, 0.3253 ] ], [ [ 36.4244, 0.945 ], [ 36.427311764705884, 0.949676470588238 ], [ 36.419495257563369, 0.940323385118561 ], [ 36.4244, 0.945 ] ], [ [ 36.431, 0.9556 ], [ 36.438529662077563, 0.971880350437974 ], [ 36.428663996517194, 0.951848236830646 ], [ 36.431, 0.9556 ] ], [ [ 36.4458, 0.9876 ], [ 36.4508, 1.0017 ], [ 36.445617831004668, 0.987206121091181 ], [ 36.4458, 0.9876 ] ], [ [ 36.289640502512562, 1.469882952261306 ], [ 36.2896, 1.4698 ], [ 36.2925, 1.4689 ], [ 36.289640502512562, 1.469882952261306 ] ], [ [ 36.30288439016411, 1.541549730112861 ], [ 36.3026, 1.5413 ], [ 36.3011, 1.5346 ], [ 36.30288439016411, 1.541549730112861 ] ], [ [ 36.3161, 1.552 ], [ 36.3346, 1.5694 ], [ 36.313293670886075, 1.550690379746837 ], [ 36.3161, 1.552 ] ], [ [ 36.3974, 1.5273 ], [ 36.400680257365387, 1.534584727395863 ], [ 36.395968807603687, 1.526901440092167 ], [ 36.3974, 1.5273 ] ], [ [ 36.5274, 1.7568 ], [ 36.527446549835709, 1.757107228915659 ], [ 36.5207, 1.7468 ], [ 36.5274, 1.7568 ] ], [ [ 36.5279, 1.7601 ], [ 36.5256, 1.7643 ], [ 36.527655996309967, 1.758489575645758 ], [ 36.5279, 1.7601 ] ], [ [ 36.6161, 2.3972 ], [ 36.6197, 2.3991 ], [ 36.6083, 2.3957 ], [ 36.6161, 2.3972 ] ], [ [ 36.6213, 2.4031 ], [ 36.621400261096603, 2.405205483028724 ], [ 36.6197, 2.3991 ], [ 36.6213, 2.4031 ] ], [ [ 36.621760708782745, 2.412774884437598 ], [ 36.6211, 2.4123 ], [ 36.621585067873305, 2.409086425339356 ], [ 36.621760708782745, 2.412774884437598 ] ], [ [ 36.625618077803203, 2.414087414187643 ], [ 36.6243, 2.4146 ], [ 36.623148143982, 2.413772103487064 ], [ 36.625618077803203, 2.414087414187643 ] ], [ [ 37.9463, 1.2674 ], [ 37.946429358493745, 1.264313238701009 ], [ 37.9515, 1.3875 ], [ 37.9463, 1.2674 ] ], [ [ 38.952453572723968, 2.114575807036658 ], [ 38.9537, 2.1101 ], [ 38.9555, 2.1057 ], [ 38.952453572723968, 2.114575807036658 ] ], [ [ 38.939476750127753, 2.152383955033194 ], [ 38.9405, 2.1482 ], [ 38.943669823538926, 2.140167378986596 ], [ 38.939476750127753, 2.152383955033194 ] ], [ [ 38.9339, 2.3615 ], [ 38.9339, 2.366646666666675 ], [ 38.933021820062045, 2.3586259565667 ], [ 38.9339, 2.3615 ] ], [ [ 38.9339, 2.3739 ], [ 38.9305, 2.3813 ], [ 38.9339, 2.37145789473684 ], [ 38.9339, 2.3739 ] ], [ [ 38.9275, 2.4127 ], [ 38.923194545454542, 2.421714545454561 ], [ 38.927816239316243, 2.409390028490022 ], [ 38.9275, 2.4127 ] ], [ [ 39.7857, 3.3453 ], [ 39.785892149431511, 3.344092203573368 ], [ 39.7853, 3.6603 ], [ 39.7857, 3.3453 ] ], [ [ 40.517795652173909, 2.698369565217393 ], [ 40.5161, 2.7015 ], [ 40.5146593220339, 2.702177966101696 ], [ 40.517795652173909, 2.698369565217393 ] ], [ [ 40.5267, 2.6739 ], [ 40.5213, 2.6919 ], [ 40.520351351351358, 2.693651351351338 ], [ 40.5267, 2.6739 ] ], [ [ 40.714894672586006, 2.337882019977829 ], [ 40.7131, 2.3453 ], [ 40.7105, 2.3491 ], [ 40.714894672586006, 2.337882019977829 ] ], [ [ 40.7181, 2.3297 ], [ 40.72074, 2.32739 ], [ 40.717495662650606, 2.331242650602403 ], [ 40.7181, 2.3297 ] ], [ [ 40.7293, 2.3199 ], [ 40.7409, 2.3133 ], [ 40.724968292682938, 2.323690243902429 ], [ 40.7293, 2.3199 ] ], [ [ 36.9314, 0.7528 ], [ 36.931348538845327, 0.751436279401273 ], [ 36.932837610619465, 0.754876548672567 ], [ 36.9314, 0.7528 ] ], [ [ 36.935, 0.758 ], [ 36.934458307210036, 0.757217554858935 ], [ 36.935590609821915, 0.757419751753913 ], [ 36.935, 0.758 ] ], [ [ 37.1009, 0.7917 ], [ 37.099779150871882, 0.791151250947691 ], [ 37.101309108159391, 0.791612333965845 ], [ 37.1009, 0.7917 ] ], [ [ 37.4687, 0.5943 ], [ 37.468184699453552, 0.593834972677595 ], [ 37.469369902912618, 0.593942718446602 ], [ 37.4687, 0.5943 ] ], [ [ 37.490940450845336, 0.583622980588602 ], [ 37.490763604240279, 0.583880212014139 ], [ 37.4907, 0.5837 ], [ 37.490940450845336, 0.583622980588602 ] ], [ [ 37.5028, 0.5799 ], [ 37.500997899838453, 0.580401453957995 ], [ 37.502878796084147, 0.579798979379297 ], [ 37.5028, 0.5799 ] ], [ [ 37.511997872340494, 0.572921276595719 ], [ 37.507526637407153, 0.574591255908173 ], [ 37.5076, 0.5745 ], [ 37.511997872340494, 0.572921276595719 ] ], [ [ 37.51631868131868, 0.572409890109888 ], [ 37.51505306281701, 0.571824541552868 ], [ 37.5154, 0.5717 ], [ 37.51631868131868, 0.572409890109888 ] ], [ [ 37.523, 0.5755 ], [ 37.522823204419893, 0.575418232044199 ], [ 37.523081818181822, 0.575445454545455 ], [ 37.523, 0.5755 ] ], [ [ 37.532638359469239, 0.570928709288299 ], [ 37.531199410898388, 0.571258468335787 ], [ 37.5322, 0.5707 ], [ 37.532638359469239, 0.570928709288299 ] ], [ [ 37.538, 0.5785 ], [ 37.533589623430963, 0.571425020920501 ], [ 37.5345, 0.5719 ], [ 37.538, 0.5785 ] ], [ [ 37.5453, 0.5829 ], [ 37.545050911470504, 0.582749864447977 ], [ 37.546443483709261, 0.581916604010033 ], [ 37.5453, 0.5829 ] ], [ [ 37.630684397163115, 0.601721276595745 ], [ 37.6271, 0.6054 ], [ 37.627031265716681, 0.605361441743504 ], [ 37.6305, 0.6017 ], [ 37.630684397163115, 0.601721276595745 ] ], [ [ 37.63363571428571, 0.602639880952379 ], [ 37.631717021276593, 0.601840425531915 ], [ 37.6331, 0.602 ], [ 37.63363571428571, 0.602639880952379 ] ], [ [ 37.6393, 0.6268 ], [ 37.6379, 0.6194 ], [ 37.639439436241609, 0.626808536912752 ], [ 37.6393, 0.6268 ] ], [ [ 37.692, 0.669 ], [ 37.6851, 0.6618 ], [ 37.692091236765037, 0.66898817301194 ], [ 37.692, 0.669 ] ], [ [ 36.6024, 2.409225 ], [ 36.6013, 2.4095 ], [ 36.6024, 2.4086 ], [ 36.6024, 2.409225 ] ], [ [ 36.594456725146109, 2.416106725146274 ], [ 36.6024, 2.409285869565214 ], [ 36.6024, 2.4096 ], [ 36.594456725146109, 2.416106725146274 ] ], [ [ 36.59281875, 2.417130078125 ], [ 36.593239543057997, 2.417103778558875 ], [ 36.593, 2.4173 ], [ 36.59281875, 2.417130078125 ] ], [ [ 36.5893, 2.4132 ], [ 36.590165714285718, 2.41464285714286 ], [ 36.5874, 2.41205 ], [ 36.5893, 2.4132 ] ], [ [ 36.5855, 2.4109 ], [ 36.586115800135047, 2.411272721134369 ], [ 36.5795, 2.4109 ], [ 36.5855, 2.4109 ] ], [ [ 36.5527, 2.4027 ], [ 36.553651351351348, 2.402440540540542 ], [ 36.5483, 2.4069 ], [ 36.5527, 2.4027 ] ], [ [ 36.541516141001857, 2.408715398886828 ], [ 36.5418, 2.4084 ], [ 36.5483, 2.4069 ], [ 36.541516141001857, 2.408715398886828 ] ], [ [ 36.5391, 2.4114 ], [ 36.539723076923103, 2.410707692307661 ], [ 36.539048564529104, 2.41157893748324 ], [ 36.5391, 2.4114 ] ], [ [ 36.4367, 2.6927 ], [ 36.4339, 2.683 ], [ 36.437592869243794, 2.693990682273208 ], [ 36.4367, 2.6927 ] ], [ [ 36.447047274881513, 2.709690323854659 ], [ 36.446976690391459, 2.709008007117442 ], [ 36.4473, 2.7095 ], [ 36.447047274881513, 2.709690323854659 ] ], [ [ 36.4322, 2.7187 ], [ 36.444091606170595, 2.711916197822144 ], [ 36.4392, 2.7156 ], [ 36.4322, 2.7187 ] ], [ [ 36.3882, 2.8216 ], [ 36.3963, 2.8039 ], [ 36.388125588412791, 2.822244900422463 ], [ 36.3882, 2.8216 ] ], [ [ 36.379991609977331, 2.843792290249422 ], [ 36.381584866468835, 2.841540949554911 ], [ 36.3807, 2.8431 ], [ 36.379991609977331, 2.843792290249422 ] ], [ [ 36.360368586981174, 2.865278589249263 ], [ 36.361499669603525, 2.864364096916298 ], [ 36.3609, 2.8652 ], [ 36.360368586981174, 2.865278589249263 ] ], [ [ 36.3248, 2.8775 ], [ 36.3467, 2.8673 ], [ 36.324598283811497, 2.87762022284835 ], [ 36.3248, 2.8775 ] ], [ [ 36.1256, 2.9841 ], [ 36.1296, 2.9854 ], [ 36.124428158844765, 2.984946329723225 ], [ 36.1256, 2.9841 ] ], [ [ 36.1238, 2.9854 ], [ 36.123962629149261, 2.985282545614423 ], [ 36.1276, 3.0075 ], [ 36.1238, 2.9854 ] ] ] } }
]
}
