{
"type": "FeatureCollection",
"name": "western_high_rainfall_boundary",
"crs": { "type": "name", "properties": { "name": "urn:ogc:def:crs:OGC:1.3:CRS84" } },
"features": [
{ "type": "Feature", "properties": { "GID_1": "KEN.3_1", "GID_0": "KEN", "COUNTRY": "Kenya", "NAME_1": "Bungoma", "VARNAME_1": "NA", "NL_NAME_1": "NA", "TYPE_1": "County", "ENGTYPE_1": "County", "CC_1": "39", "HASC_1": "KE.BN", "ISO_1": "KE-03" }, "geometry": { "type": "Polygon", "coordinates": [ [ [ 34.5805, -1.3088 ], [ 34.5807, -1.304 ], [ 34.5646, -1.2949 ], [ 34.5652, -1.3002 ], [ 34.4968, -1.2613 ], [ 34.498, -1.2573 ], [ 34.4467, -1.2283 ], [ 34.4457, -1.2321 ], [ 34.3733, -1.1909 ], [ 34.3754, -1.1878 ], [ 34.2244, -1.103 ], [ 34.2235, -1.1075 ], [ 34.1909, -1.0894 ], [ 34.192, -1.0847 ], [ 34.1719, -1.0734 ], [ 34.1684, -1.076 ], [ 34.0775, -1.0262 ], [ 34.0737, -1.0301 ], [ 34.0631, -1.0315 ], [ 34.0627, -1.0379 ], [ 34.0539, -1.0454 ], [ 34.0483, -1.0486 ], [ 34.041, -1.0492 ], [ 34.0332, -1.0451 ], [ 34.0276, -1.0303 ], [ 34.0265, -1.0153 ], [ 34.0165, -1.004 ], [ 33.9312, -1.0042 ], [ 33.9309, -0.9932 ], [ 33.9457, -0.993 ], [ 33.9364, -0.8009 ], [ 33.9286, -0.6725 ], [ 33.9286, -0.5371 ], [ 33.932, -0.5165 ], [ 33.9354, -0.4599 ], [ 33.9405, -0.4188 ], [ 33.9559, -0.3341 ], [ 33.9839, -0.1656 ], [ 33.987, -0.1285 ], [ 33.9499, -0.0225 ], [ 33.9413, 0.0019 ], [ 33.9127, 0.0995 ], [ 33.9096, 0.102 ], [ 33.9101, 0.1067 ], [ 33.912, 0.111 ], [ 33.9969, 0.2262 ], [ 34.0074, 0.2435 ], [ 34.0158, 0.2517 ], [ 34.0221, 0.2555 ], [ 34.0219, 0.2613 ], [ 34.0249, 0.2684 ], [ 34.0277, 0.2706 ], [ 34.0291, 0.2692 ], [ 34.0377, 0.2727 ], [ 34.0381, 0.2756 ], [ 34.041, 0.2766 ], [ 34.0421, 0.2783 ], [ 34.0398, 0.2812 ], [ 34.0401, 0.2861 ], [ 34.0428, 0.2883 ], [ 34.0423, 0.2925 ], [ 34.0479, 0.2936 ], [ 34.05, 0.2967 ], [ 34.0483, 0.3035 ], [ 34.0514, 0.3064 ], [ 34.0504, 0.3087 ], [ 34.0539, 0.3091 ], [ 34.0604, 0.3135 ], [ 34.0582, 0.3153 ], [ 34.0579, 0.3213 ], [ 34.0562, 0.3238 ], [ 34.0582, 0.3252 ], [ 34.06, 0.3237 ], [ 34.0647, 0.3261 ], [ 34.0718, 0.3252 ], [ 34.0733, 0.3284 ], [ 34.0746, 0.3284 ], [ 34.0743, 0.33 ], [ 34.0751, 0.329 ], [ 34.0784, 0.3318 ], [ 34.081, 0.3315 ], [ 34.0802, 0.3356 ], [ 34.0819, 0.3356 ], [ 34.0808, 0.3369 ], [ 34.084, 0.3365 ], [ 34.085, 0.3397 ], [ 34.0893, 0.3425 ], [ 34.0903, 0.3451 ], [ 34.0914, 0.3445 ], [ 34.0914, 0.3464 ], [ 34.094, 0.3463 ], [ 34.0989, 0.3498 ], [ 34.0974, 0.3546 ], [ 34.1027, 0.3641 ], [ 34.1079, 0.3694 ], [ 34.1086, 0.3809 ], [ 34.1003, 0.4139 ], [ 34.09, 0.427 ], [ 34.0894, 0.4387 ], [ 34.0916, 0.4425 ], [ 34.0882, 0.4567 ], [ 34.0988, 0.4682 ], [ 34.1037, 0.4705 ], [ 34.1118, 0.4784 ], [ 34.1195, 0.4834 ], [ 34.1175, 0.493 ], [ 34.1189, 0.4966 ], [ 34.1178, 0.5113 ], [ 34.123, 0.5173 ], [ 34.1204, 0.5217 ], [ 34.116, 0.5231 ], [ 34.1261, 0.5393 ], [ 34.1274, 0.5586 ], [ 34.1376, 0.5857 ], [ 34.142, 0.5831 ], [ 34.1425, 0.5843 ], [ 34.1439, 0.5836 ], [ 34.1444, 0.5861 ], [ 34.1465, 0.585 ], [ 34.1485, 0.5883 ], [ 34.1529, 0.5874 ], [ 34.153, 0.5912 ], [ 34.1601, 0.5957 ], [ 34.1593, 0.5968 ], [ 34.1617, 0.5995 ], [ 34.1627, 0.5982 ], [ 34.1638, 0.6003 ], [ 34.165, 0.5998 ], [ 34.1657, 0.6027 ], [ 34.1706, 0.6024 ], [ 34.17, 0.6046 ], [ 34.1716, 0.6041 ], [ 34.1718, 0.6053 ], [ 34.1732, 0.6037 ], [ 34.1745, 0.6081 ], [ 34.1756, 0.6067 ], [ 34.1775, 0.6093 ], [ 34.1823, 0.608 ], [ 34.1825, 0.6066 ], [ 34.1846, 0.6077 ], [ 34.1857, 0.6068 ], [ 34.1866, 0.6096 ], [ 34.1839, 0.6125 ], [ 34.1868, 0.6148 ], [ 34.1888, 0.614 ], [ 34.1889, 0.6164 ], [ 34.1908, 0.6157 ], [ 34.1895, 0.6187 ], [ 34.1915, 0.6186 ], [ 34.1914, 0.6229 ], [ 34.1939, 0.6205 ], [ 34.1963, 0.6213 ], [ 34.1952, 0.6244 ], [ 34.1996, 0.6287 ], [ 34.2028, 0.6248 ], [ 34.2053, 0.6249 ], [ 34.2055, 0.6281 ], [ 34.2071, 0.6287 ], [ 34.2113, 0.6253 ], [ 34.2148, 0.6262 ], [ 34.2155, 0.6247 ], [ 34.2167, 0.6299 ], [ 34.2201, 0.6328 ], [ 34.2242, 0.6322 ], [ 34.2288, 0.6281 ], [ 34.2331, 0.6304 ], [ 34.2354, 0.6283 ], [ 34.2355, 0.6296 ], [ 34.2397, 0.6314 ], [ 34.2405, 0.6357 ], [ 34.2476, 0.6316 ], [ 34.251, 0.6315 ], [ 34.2571, 0.6354 ], [ 34.2572, 0.6369 ], [ 34.2605, 0.6379 ], [ 34.2609, 0.6397 ], [ 34.267, 0.6396 ], [ 34.2692, 0.6423 ], [ 34.2713, 0.6403 ], [ 34.2701, 0.6426 ], [ 34.2717, 0.6436 ], [ 34.2726, 0.6417 ], [ 34.2731, 0.6429 ], [ 34.2768, 0.643 ], [ 34.2789, 0.6517 ], [ 34.2774, 0.6545 ], [ 34.2785, 0.6566 ], [ 34.2761, 0.6585 ], [ 34.2794, 0.6591 ], [ 34.2776, 0.6639 ], [ 34.2795, 0.6643 ], [ 34.2795, 0.667 ], [ 34.2807, 0.6669 ], [ 34.2774, 0.6731 ], [ 34.2778, 0.6816 ], [ 34.2833, 0.6848 ], [ 34.2838, 0.6833 ], [ 34.2867, 0.683 ], [ 34.2889, 0.6845 ], [ 34.2881, 0.6855 ], [ 34.2932, 0.687 ], [ 34.2934, 0.6888 ], [ 34.2953, 0.6875 ], [ 34.2942, 0.691 ], [ 34.297, 0.6906 ], [ 34.298, 0.6937 ], [ 34.3002, 0.6926 ], [ 34.3029, 0.6936 ], [ 34.3075, 0.6978 ], [ 34.312, 0.697 ], [ 34.3136, 0.7008 ], [ 34.3091, 0.7083 ], [ 34.3098, 0.7157 ], [ 34.3082, 0.7166 ], [ 34.307, 0.7233 ], [ 34.3091, 0.7286 ], [ 34.3072, 0.732 ], [ 34.3109, 0.7489 ], [ 34.305, 0.75 ], [ 34.3036, 0.7551 ], [ 34.297, 0.7579 ], [ 34.2988, 0.7617 ], [ 34.3043, 0.7654 ], [ 34.3081, 0.7641 ], [ 34.3124, 0.759 ], [ 34.3145, 0.7607 ], [ 34.3141, 0.7641 ], [ 34.3176, 0.765 ], [ 34.3185, 0.7675 ], [ 34.3221, 0.7663 ], [ 34.3214, 0.7678 ], [ 34.3276, 0.769 ], [ 34.3344, 0.7684 ], [ 34.3373, 0.7704 ], [ 34.3369, 0.7715 ], [ 34.3419, 0.7715 ], [ 34.3453, 0.7747 ], [ 34.354, 0.7741 ], [ 34.354, 0.7763 ], [ 34.3588, 0.7786 ], [ 34.361, 0.777 ], [ 34.3635, 0.7802 ], [ 34.365980898876401, 0.778856179775282 ], [ 34.3637, 0.7813 ], [ 34.3663, 0.7824 ], [ 34.3668, 0.7811 ], [ 34.3707, 0.7841 ], [ 34.3727, 0.7867 ], [ 34.3718, 0.7907 ], [ 34.374, 0.7913 ], [ 34.3762, 0.7963 ], [ 34.3787, 0.798 ], [ 34.3807, 0.7926 ], [ 34.383, 0.793 ], [ 34.385, 0.8037 ], [ 34.3911, 0.8059 ], [ 34.3913, 0.8036 ], [ 34.3945, 0.8049 ], [ 34.3949, 0.8025 ], [ 34.4133, 0.8104 ], [ 34.414, 0.812 ], [ 34.4104, 0.8165 ], [ 34.4132, 0.8182 ], [ 34.4134, 0.8202 ], [ 34.4094, 0.8224 ], [ 34.4082, 0.8278 ], [ 34.4055, 0.8287 ], [ 34.4087, 0.8323 ], [ 34.4152, 0.8352 ], [ 34.4136, 0.837 ], [ 34.4141, 0.8424 ], [ 34.4171, 0.8423 ], [ 34.4206, 0.8459 ], [ 34.4205, 0.8501 ], [ 34.4298, 0.8549 ], [ 34.4398, 0.8566 ], [ 34.4461, 0.8635 ], [ 34.4469, 0.8796 ], [ 34.4517, 0.8911 ], [ 34.4505, 0.9004 ], [ 34.4563, 0.9036 ], [ 34.4586, 0.908 ], [ 34.4642, 0.9117 ], [ 34.4799, 0.9401 ], [ 34.4793, 0.9449 ], [ 34.4825, 0.955 ], [ 34.4827, 0.9611 ], [ 34.4893, 0.9829 ], [ 34.488, 0.9894 ], [ 34.4885, 0.9983 ], [ 34.487, 1.0006 ], [ 34.4886, 1.0178 ], [ 34.4931, 1.0427 ], [ 34.497, 1.0543 ], [ 34.4997, 1.0578 ], [ 34.499, 1.0619 ], [ 34.5025, 1.0706 ], [ 34.5136, 1.0816 ], [ 34.5175, 1.0889 ], [ 34.5204, 1.0995 ], [ 34.5223, 1.1024 ], [ 34.5262, 1.1042 ], [ 34.5265, 1.1071 ], [ 34.5744, 1.1023 ], [ 34.5793, 1.1501 ], [ 34.5818, 1.1512 ], [ 34.6089, 1.1159 ], [ 34.6161, 1.1091 ], [ 34.6321, 1.0973 ], [ 34.6414, 1.0947 ], [ 34.6521, 1.0884 ], [ 34.6616, 1.0876 ], [ 34.6508, 1.0606 ], [ 34.6562, 1.0568 ], [ 34.7392, 0.9441 ], [ 34.7679, 0.9268 ], [ 34.7772, 0.9303 ], [ 34.7851, 0.9301 ], [ 34.7976, 0.9198 ], [ 34.8007, 0.9105 ], [ 34.799, 0.9077 ], [ 34.7935, 0.9061 ], [ 34.7925, 0.9014 ], [ 34.7891, 0.8993 ], [ 34.7866, 0.8949 ], [ 34.79, 0.8912 ], [ 34.7893, 0.8884 ], [ 34.7929, 0.8776 ], [ 34.7955, 0.8745 ], [ 34.7951, 0.8649 ], [ 34.7964, 0.8599 ], [ 34.7993, 0.8534 ], [ 34.805, 0.8494 ], [ 34.8051, 0.8441 ], [ 34.8103, 0.8312 ], [ 34.8113, 0.8192 ], [ 34.809, 0.8112 ], [ 34.8705, 0.8303 ], [ 34.8778, 0.8339 ], [ 34.9138, 0.8524 ], [ 34.9191, 0.8534 ], [ 34.9257, 0.8597 ], [ 34.9339, 0.8588 ], [ 34.9334, 0.8603 ], [ 34.9365, 0.8623 ], [ 34.9422, 0.8753 ], [ 34.9511, 0.8751 ], [ 34.9667, 0.8789 ], [ 34.9657, 0.8838 ], [ 34.988, 0.8905 ], [ 34.9852, 0.8848 ], [ 35.0191, 0.8918 ], [ 35.0189, 0.8946 ], [ 35.0241, 0.9008 ], [ 35.0277, 0.9017 ], [ 35.0319, 0.8986 ], [ 35.0322, 0.9011 ], [ 35.0394, 0.9032 ], [ 35.0411, 0.9067 ], [ 35.0464, 0.9068 ], [ 35.0476, 0.9041 ], [ 35.0515, 0.9076 ], [ 35.0606, 0.9026 ], [ 35.0666, 0.9035 ], [ 35.0688, 0.9014 ], [ 35.0738, 0.9047 ], [ 35.0825, 0.8986 ], [ 35.081, 0.8979 ], [ 35.0822, 0.8971 ], [ 35.0805, 0.8951 ], [ 35.082, 0.8949 ], [ 35.0809, 0.8929 ], [ 35.0825, 0.8914 ], [ 35.084, 0.8922 ], [ 35.0849, 0.888 ], [ 35.0864, 0.8892 ], [ 35.0873, 0.8874 ], [ 35.0861, 0.8863 ], [ 35.0886, 0.8853 ], [ 35.0884, 0.8876 ], [ 35.0894, 0.8863 ], [ 35.0928, 0.8866 ], [ 35.0934, 0.8843 ], [ 35.0976, 0.8851 ], [ 35.098, 0.8815 ], [ 35.1018, 0.8792 ], [ 35.1083, 0.8821 ], [ 35.1085, 0.8852 ], [ 35.1138, 0.8878 ], [ 35.1161, 0.8563 ], [ 35.125, 0.8235 ], [ 35.1257, 0.8334 ], [ 35.1313, 0.8352 ], [ 35.1448, 0.832 ], [ 35.1439, 0.7449 ], [ 35.1555, 0.7453 ], [ 35.1553, 0.6802 ], [ 35.1513, 0.6728 ], [ 35.155, 0.6668 ], [ 35.1484, 0.6644 ], [ 35.1414, 0.6661 ], [ 35.1341, 0.6603 ], [ 35.125, 0.6594 ], [ 35.1195, 0.654 ], [ 35.1174, 0.6542 ], [ 35.116, 0.6463 ], [ 35.113, 0.6464 ], [ 35.1067, 0.651 ], [ 35.1033, 0.6517 ], [ 35.0963, 0.6417 ], [ 35.0918, 0.6399 ], [ 35.0863, 0.6343 ], [ 35.0834, 0.6358 ], [ 35.0697, 0.6339 ], [ 35.0685, 0.6367 ], [ 35.0629, 0.6382 ], [ 35.0613, 0.6381 ], [ 35.0611, 0.6364 ], [ 35.0538, 0.6369 ], [ 35.0527, 0.6408 ], [ 35.0393, 0.6453 ], [ 35.041, 0.6371 ], [ 35.0352, 0.6331 ], [ 35.0351, 0.629 ], [ 35.0313, 0.6214 ], [ 35.0272, 0.6184 ], [ 35.0, 0.6432 ], [ 34.9941, 0.6349 ], [ 34.9903, 0.6352 ], [ 34.9859, 0.6327 ], [ 34.9807, 0.6322 ], [ 34.9769, 0.6295 ], [ 34.9707, 0.6188 ], [ 34.9686, 0.6188 ], [ 34.9658, 0.6152 ], [ 34.9627, 0.6142 ], [ 34.9578, 0.6156 ], [ 34.953, 0.613 ], [ 34.9435, 0.6127 ], [ 34.9356, 0.6088 ], [ 34.9193, 0.5965 ], [ 34.9073, 0.6017 ], [ 34.8992, 0.6101 ], [ 34.8904, 0.6121 ], [ 34.8415, 0.6557 ], [ 34.8976, 0.6055 ], [ 34.8521, 0.5518 ], [ 34.8707, 0.5381 ], [ 34.8759, 0.5326 ], [ 34.8883, 0.526 ], [ 34.907, 0.5097 ], [ 34.9084, 0.4959 ], [ 34.9241, 0.4813 ], [ 34.9457, 0.4428 ], [ 34.9566, 0.42 ], [ 34.9553, 0.3759 ], [ 34.9487, 0.3583 ], [ 34.9371, 0.3648 ], [ 34.9373, 0.362 ], [ 34.9421, 0.3281 ], [ 34.9773, 0.253 ], [ 34.9785, 0.2459 ], [ 34.9565, 0.2458 ], [ 34.9432, 0.2131 ], [ 34.929, 0.2136 ], [ 34.919039689158453, 0.184976194086429 ], [ 34.92, 0.1855 ], [ 34.916, 0.1774 ], [ 34.9206, 0.1739 ], [ 34.9141, 0.1603 ], [ 34.9011, 0.1578 ], [ 34.8829, 0.1481 ], [ 34.882, 0.1425 ], [ 34.8725, 0.1376 ], [ 34.8645, 0.1283 ], [ 34.8596, 0.1256 ], [ 34.8568, 0.1132 ], [ 34.8592, 0.1091 ], [ 34.8572, 0.0995 ], [ 34.8599, 0.0884 ], [ 34.8581, 0.0854 ], [ 34.8551, 0.0841 ], [ 34.8532, 0.078 ], [ 34.8486, 0.0745 ], [ 34.8468, 0.0688 ], [ 34.8495, 0.0651 ], [ 34.8396, 0.0511 ], [ 34.8367, 0.0373 ], [ 34.8287, 0.0349 ], [ 34.8255, 0.0356 ], [ 34.8228, 0.039 ], [ 34.8168, 0.0382 ], [ 34.8086, 0.0326 ], [ 34.8096, 0.028 ], [ 34.805, 0.0263 ], [ 34.7985, 0.03 ], [ 34.7984, 0.028 ], [ 34.7897, 0.0239 ], [ 34.7899, 0.022 ], [ 34.7861, 0.0176 ], [ 34.7839, 0.0188 ], [ 34.7835, 0.0171 ], [ 34.7811, 0.0167 ], [ 34.7786, 0.0111 ], [ 34.7747, 0.0104 ], [ 34.77, 0.0058 ], [ 34.7667, 0.0062 ], [ 34.7628, 0.0034 ], [ 34.7597, 0.0084 ], [ 34.7598, 0.0145 ], [ 34.7543, 0.0151 ], [ 34.7513, 0.0119 ], [ 34.7475, 0.0112 ], [ 34.7467, 0.0089 ], [ 34.7419, 0.0098 ], [ 34.7395, 0.0037 ], [ 34.7444, -0.0052 ], [ 34.7449, -0.0123 ], [ 34.7482, -0.0114 ], [ 34.7495, -0.016 ], [ 34.7413, -0.0177 ], [ 34.7466, -0.0169 ], [ 34.7522, -0.0287 ], [ 34.758, -0.0194 ], [ 34.7615, -0.0169 ], [ 34.7643, -0.0105 ], [ 34.7708, -0.0117 ], [ 34.7755, -0.01 ], [ 34.7808, -0.0125 ], [ 34.7862, -0.0011 ], [ 34.804, 0.0151 ], [ 34.8095, 0.016 ], [ 34.8165, 0.0224 ], [ 34.819, 0.0275 ], [ 34.8314, 0.0301 ], [ 34.8101, -0.0 ], [ 34.808, -0.005 ], [ 34.81, -0.0059 ], [ 34.8102, -0.0082 ], [ 34.8062, -0.011 ], [ 34.8081, -0.0156 ], [ 34.8276, -0.0218 ], [ 34.8912, -0.0188 ], [ 34.909, -0.0222 ], [ 34.922, -0.0196 ], [ 34.9195, -0.0269 ], [ 34.9233, -0.0302 ], [ 34.934, -0.0297 ], [ 34.9544, -0.0243 ], [ 34.9524, -0.0204 ], [ 34.9568, -0.0199 ], [ 34.9641, -0.0263 ], [ 34.9783, -0.0181 ], [ 34.9884, -0.0176 ], [ 34.9885, -0.0131 ], [ 35.0076, -0.0228 ], [ 35.0071, -0.0477 ], [ 35.0595, -0.0478 ], [ 35.0604, -0.0498 ], [ 35.0594, -0.0528 ], [ 35.0618, -0.0525 ], [ 35.0662, -0.0626 ], [ 35.0656, -0.0598 ], [ 35.0743, -0.0488 ], [ 35.0826, -0.0456 ], [ 35.0836, -0.043 ], [ 35.0867, -0.0434 ], [ 35.0897, -0.0389 ], [ 35.0926, -0.0385 ], [ 35.0958, -0.0239 ], [ 35.0989, -0.023 ], [ 35.0993, -0.0212 ], [ 35.1011, -0.0215 ], [ 35.1036, -0.0169 ], [ 35.1013, -0.0093 ], [ 35.1029, -0.006 ], [ 35.1013, -0.0055 ], [ 35.1005, -0.0013 ], [ 35.1019, 0.0018 ], [ 35.146, -0.0278 ], [ 35.1474, -0.0272 ], [ 35.1511, -0.0307 ], [ 35.1502, -0.0326 ], [ 35.1551, -0.0302 ], [ 35.1587, -0.0309 ], [ 35.1615, -0.0241 ], [ 35.1666, -0.026 ], [ 35.1667, -0.0248 ], [ 35.1774, -0.0212 ], [ 35.1794, -0.0239 ], [ 35.1812, -0.023 ], [ 35.1811, -0.021 ], [ 35.1828, -0.0231 ], [ 35.188, -0.0227 ], [ 35.1917, -0.022 ], [ 35.192, -0.0198 ], [ 35.194, -0.0194 ], [ 35.1952, -0.0209 ], [ 35.1997, -0.0201 ], [ 35.2026, -0.0229 ], [ 35.2065, -0.0218 ], [ 35.2102, -0.0258 ], [ 35.2124, -0.025 ], [ 35.2128, -0.0265 ], [ 35.2149, -0.0265 ], [ 35.2165, -0.0306 ], [ 35.2209, -0.0298 ], [ 35.2268, -0.0609 ], [ 35.2263, -0.1029 ], [ 35.2349, -0.1139 ], [ 35.2536, -0.1143 ], [ 35.2712, -0.1473 ], [ 35.2772, -0.1399 ], [ 35.2787, -0.1402 ], [ 35.2961, -0.1701 ], [ 35.3307, -0.1707 ], [ 35.331, -0.1864 ], [ 35.3377, -0.2078 ], [ 35.343, -0.2317 ], [ 35.3421, -0.2338 ], [ 35.3159, -0.2434 ], [ 35.3131, -0.243 ], [ 35.3063, -0.2342 ], [ 35.3014, -0.235 ], [ 35.2997, -0.2321 ], [ 35.2982, -0.2333 ], [ 35.2928, -0.2307 ], [ 35.2861, -0.2303 ], [ 35.2779, -0.2322 ], [ 35.2696, -0.2316 ], [ 35.2688, -0.2294 ], [ 35.2659, -0.2292 ], [ 35.2648, -0.2271 ], [ 35.2634, -0.2285 ], [ 35.2608, -0.2239 ], [ 35.2613, -0.2202 ], [ 35.2635, -0.2187 ], [ 35.2626, -0.2171 ], [ 35.2573, -0.2162 ], [ 35.2561, -0.2132 ], [ 35.2541, -0.213 ], [ 35.2532, -0.2102 ], [ 35.2506, -0.2086 ], [ 35.2508, -0.2067 ], [ 35.2487, -0.2078 ], [ 35.2493, -0.2056 ], [ 35.2473, -0.2047 ], [ 35.2491, -0.2025 ], [ 35.2461, -0.1966 ], [ 35.2443, -0.1987 ], [ 35.2408, -0.1941 ], [ 35.2368, -0.1955 ], [ 35.236, -0.1911 ], [ 35.2314, -0.1888 ], [ 35.2266, -0.191 ], [ 35.2218, -0.188 ], [ 35.2211, -0.1892 ], [ 35.218, -0.1884 ], [ 35.2202, -0.1869 ], [ 35.2176, -0.1815 ], [ 35.219, -0.1804 ], [ 35.218, -0.1754 ], [ 35.2156, -0.1745 ], [ 35.2154, -0.169 ], [ 35.2123, -0.1668 ], [ 35.2102, -0.1677 ], [ 35.2109, -0.1659 ], [ 35.2037, -0.1629 ], [ 35.2041, -0.1599 ], [ 35.2014, -0.1607 ], [ 35.1979, -0.1566 ], [ 35.1919, -0.1572 ], [ 35.186, -0.1535 ], [ 35.1846, -0.1549 ], [ 35.1865, -0.1568 ], [ 35.184, -0.1597 ], [ 35.1734, -0.1568 ], [ 35.1703, -0.1569 ], [ 35.1671, -0.1597 ], [ 35.1662, -0.1585 ], [ 35.1675, -0.156 ], [ 35.1657, -0.1574 ], [ 35.164, -0.1562 ], [ 35.1618, -0.1588 ], [ 35.156, -0.1603 ], [ 35.1537, -0.1582 ], [ 35.1466, -0.1562 ], [ 35.1397, -0.1554 ], [ 35.1401, -0.1567 ], [ 35.1382, -0.1572 ], [ 35.134, -0.1497 ], [ 35.1305, -0.1488 ], [ 35.1315, -0.151 ], [ 35.1302, -0.1515 ], [ 35.1285, -0.1493 ], [ 35.1033, -0.1957 ], [ 35.0719, -0.2032 ], [ 35.0634, -0.2115 ], [ 35.0573, -0.2313 ], [ 35.0552, -0.2629 ], [ 35.0522, -0.2709 ], [ 35.0503, -0.2914 ], [ 35.0469, -0.2966 ], [ 35.0245, -0.3175 ], [ 35.0073, -0.3265 ], [ 35.0067, -0.33 ], [ 35.0083, -0.3306 ], [ 35.0048, -0.3322 ], [ 35.0064, -0.3379 ], [ 35.0059, -0.3432 ], [ 35.004, -0.3447 ], [ 35.0059, -0.3485 ], [ 35.0046, -0.353 ], [ 35.0059, -0.3547 ], [ 35.0068, -0.3701 ], [ 35.0084, -0.3727 ], [ 35.009984679832435, -0.385872651107124 ], [ 35.0103, -0.3855 ], [ 35.0178, -0.3913 ], [ 35.0176, -0.3964 ], [ 35.0216, -0.3999 ], [ 35.0197, -0.4065 ], [ 35.0206, -0.4082 ], [ 35.0269, -0.4088 ], [ 35.0301, -0.4142 ], [ 35.0316, -0.4136 ], [ 35.0337, -0.4158 ], [ 35.0388, -0.425 ], [ 35.0384, -0.4321 ], [ 35.0451, -0.44 ], [ 35.0443, -0.4449 ], [ 35.0461, -0.449 ], [ 35.0421, -0.4511 ], [ 35.041, -0.4737 ], [ 35.0394, -0.4787 ], [ 35.0336, -0.4788 ], [ 35.0328, -0.4926 ], [ 35.0466, -0.4944 ], [ 35.0497, -0.4924 ], [ 35.0554, -0.4982 ], [ 35.0541, -0.4994 ], [ 35.0571, -0.502 ], [ 35.0529, -0.5069 ], [ 35.0522, -0.5136 ], [ 35.0506, -0.5131 ], [ 35.0479, -0.5166 ], [ 35.048, -0.5195 ], [ 35.0517, -0.5231 ], [ 35.053, -0.53 ], [ 35.0491, -0.5325 ], [ 35.0528, -0.5397 ], [ 35.0496, -0.5411 ], [ 35.0513, -0.5482 ], [ 35.0497, -0.5504 ], [ 35.0508, -0.5598 ], [ 35.0474, -0.5661 ], [ 35.0498, -0.5673 ], [ 35.0509, -0.5793 ], [ 35.0548, -0.5849 ], [ 35.0566, -0.5914 ], [ 35.0618, -0.5972 ], [ 35.0626, -0.6015 ], [ 35.0606, -0.6067 ], [ 35.0572, -0.6092 ], [ 35.0582, -0.6104 ], [ 35.0568, -0.6133 ], [ 35.0619, -0.6193 ], [ 35.0641, -0.6267 ], [ 35.059, -0.6312 ], [ 35.0554, -0.6395 ], [ 35.0569, -0.6432 ], [ 35.055, -0.6515 ], [ 35.0572, -0.6592 ], [ 35.0632, -0.6659 ], [ 35.0623, -0.6708 ], [ 35.0668, -0.6773 ], [ 35.0693, -0.6783 ], [ 35.0724, -0.6871 ], [ 35.0676, -0.6903 ], [ 35.0603, -0.6906 ], [ 35.0502, -0.6966 ], [ 35.0477, -0.7021 ], [ 35.0913, -0.7969 ], [ 35.0613, -0.8299 ], [ 35.0444, -0.8485 ], [ 35.0319, -0.8406 ], [ 35.0219, -0.8425 ], [ 35.0215, -0.8458 ], [ 35.0255, -0.8567 ], [ 35.0254, -0.8688 ], [ 35.0239, -0.8702 ], [ 35.0204, -0.8654 ], [ 35.0179, -0.867 ], [ 35.012, -0.8755 ], [ 35.0136, -0.881 ], [ 35.0127, -0.8839 ], [ 34.6786, -0.9671 ], [ 34.6705, -0.9658 ], [ 34.6642, -0.9671 ], [ 34.6507, -0.9603 ], [ 34.6418, -0.963 ], [ 34.641731148889498, -0.962958470758745 ], [ 34.5902, -1.0125 ], [ 34.5929, -1.0378 ], [ 34.6006, -1.0522 ], [ 34.6181, -1.0705 ], [ 34.6151, -1.077 ], [ 34.6142, -1.0835 ], [ 34.6197, -1.091 ], [ 34.6226, -1.102 ], [ 34.622, -1.1074 ], [ 34.6297, -1.1175 ], [ 34.6293, -1.1207 ], [ 34.633, -1.1322 ], [ 34.6255, -1.1476 ], [ 34.6269, -1.1513 ], [ 34.6312, -1.1548 ], [ 34.6316, -1.1574 ], [ 34.6378, -1.1571 ], [ 34.6432, -1.1615 ], [ 34.6429, -1.1643 ], [ 34.6463, -1.1642 ], [ 34.6492, -1.1686 ], [ 34.6546, -1.1717 ], [ 34.6531, -1.1738 ], [ 34.6529, -1.1814 ], [ 34.661, -1.1836 ], [ 34.6634, -1.1878 ], [ 34.6712, -1.1931 ], [ 34.6724, -1.2056 ], [ 34.6799, -1.2079 ], [ 34.6867, -1.2053 ], [ 34.6956, -1.2462 ], [ 34.7325, -1.3902 ], [ 34.5964, -1.3128 ], [ 34.5923, -1.3155 ], [ 34.5805, -1.3088 ] ], [ [ 34.8379, 0.6548 ], [ 34.8326, 0.6514 ], [ 34.8415, 0.6557 ], [ 34.8379, 0.6548 ] ], [ [ 34.416005345729225, -0.074141661824521 ], [ 34.4158, -0.0744 ], [ 34.4164, -0.0846 ], [ 34.416005345729225, -0.074141661824521 ] ], [ [ 34.4573, -0.0424 ], [ 34.4617, -0.0385 ], [ 34.45628554913295, -0.042321965317919 ], [ 34.4573, -0.0424 ] ], [ [ 34.472, -0.0355 ], [ 34.485120833333333, -0.026785416666668 ], [ 34.4848, -0.0269 ], [ 34.470610984230561, -0.035904567699837 ], [ 34.472, -0.0355 ] ], [ [ 34.5072, -0.0222 ], [ 34.4918, -0.0244 ], [ 34.485951898734179, -0.026488607594936 ], [ 34.5072, -0.0222 ] ], [ [ 34.533, -0.01 ], [ 34.542, 0.0011 ], [ 34.5321, -0.0103 ], [ 34.5298, -0.0155 ], [ 34.533, -0.01 ] ], [ [ 34.564, -0.0348 ], [ 34.5651, -0.0362 ], [ 34.5608, -0.0298 ], [ 34.564, -0.0348 ] ], [ [ 34.570211595466432, -0.032389537925022 ], [ 34.5701, -0.0324 ], [ 34.5651, -0.0362 ], [ 34.570211595466432, -0.032389537925022 ] ], [ [ 34.6886, -0.0197 ], [ 34.688975138888893, -0.019386527777778 ], [ 34.6875, -0.0195 ], [ 34.6886, -0.0197 ] ], [ [ 34.725803027564396, -0.000006461816538 ], [ 34.7257, 0.0001 ], [ 34.7155, -0.0037 ], [ 34.725803027564396, -0.000006461816538 ] ], [ [ 34.372173752711497, -0.841374403470714 ], [ 34.3717, -0.8416 ], [ 34.371534862385317, -0.843210091743122 ], [ 34.3723, -0.8427 ], [ 34.372173752711497, -0.841374403470714 ] ], [ [ 34.3738, -0.8406 ], [ 34.372843300423135, -0.84105557122708 ], [ 34.3752, -0.8425 ], [ 34.3738, -0.8406 ] ], [ [ 34.3874, -0.8167 ], [ 34.387475563909774, -0.816780075187974 ], [ 34.387461855670104, -0.816656701030926 ], [ 34.3874, -0.8167 ] ], [ [ 34.5572, -0.6617 ], [ 34.557262707365631, -0.661834704711348 ], [ 34.559322950819698, -0.660208196721294 ], [ 34.5572, -0.6617 ] ], [ [ 34.5609, -0.6591 ], [ 34.560735741158766, -0.659215425131678 ], [ 34.565, -0.6597 ], [ 34.5609, -0.6591 ] ], [ [ 34.650305572893444, -0.611771333036109 ], [ 34.6502, -0.6119 ], [ 34.650291649565908, -0.618773717442773 ], [ 34.6508, -0.6181 ], [ 34.650305572893444, -0.611771333036109 ] ], [ [ 34.6583, -0.599 ], [ 34.6566, -0.6041 ], [ 34.658381028037383, -0.599038130841121 ], [ 34.6583, -0.599 ] ], [ [ 34.8636, -0.497 ], [ 34.859975294117646, -0.497743529411764 ], [ 34.8591, -0.4984 ], [ 34.8557, -0.4983 ], [ 34.8578, -0.499 ], [ 34.8636, -0.497 ] ], [ [ 34.8789, -0.5525 ], [ 34.878562916006338, -0.552350184891705 ], [ 34.8722, -0.5698 ], [ 34.8789, -0.5525 ] ], [ [ 34.8114, -0.6609 ], [ 34.811425409836062, -0.660767868852458 ], [ 34.805, -0.658 ], [ 34.8114, -0.6609 ] ], [ [ 34.7844, -0.6739 ], [ 34.7779, -0.6702 ], [ 34.782, -0.6727 ], [ 34.7844, -0.6739 ] ], [ [ 34.797435012285014, -0.68409398034398 ], [ 34.796020054446466, -0.684007350272232 ], [ 34.7965, -0.6843 ], [ 34.797435012285014, -0.68409398034398 ] ], [ [ 34.6346, -0.6621 ], [ 34.63752155142155, -0.671430115830111 ], [ 34.6376, -0.6712 ], [ 34.6346, -0.6621 ] ], [ [ 34.638915360744761, -0.680949185415052 ], [ 34.6398, -0.6953 ], [ 34.6391, -0.6813 ], [ 34.638915360744761, -0.680949185415052 ] ], [ [ 34.6236, -0.9188 ], [ 34.6218, -0.9324 ], [ 34.622446919431276, -0.936480568720372 ], [ 34.6236, -0.9188 ] ], [ [ 34.622690508940856, -0.938017056396157 ], [ 34.6231, -0.9406 ], [ 34.624338794435857, -0.942652859350844 ], [ 34.622690508940856, -0.938017056396157 ] ], [ [ 34.6314, -0.955 ], [ 34.6316, -0.9591 ], [ 34.631693027522935, -0.959102385321101 ], [ 34.6314, -0.955 ] ], [ [ 34.9505, -0.4103 ], [ 34.95063939393939, -0.410269696969697 ], [ 34.9453, -0.4076 ], [ 34.9505, -0.4103 ] ], [ [ 34.9867, -0.4083 ], [ 34.986709958506225, -0.408265145228215 ], [ 34.9837, -0.4071 ], [ 34.9867, -0.4083 ] ], [ [ 34.0421, 0.0043 ], [ 34.029362579741722, -0.013966843006065 ], [ 34.03, -0.0135 ], [ 34.0421, 0.0043 ] ], [ [ 34.110531448763254, 0.138916607773856 ], [ 34.1026, 0.1298 ], [ 34.1083, 0.1349 ], [ 34.110531448763254, 0.138916607773856 ] ], [ [ 34.115, 0.154 ], [ 34.111545358090183, 0.140741644562327 ], [ 34.1118, 0.1412 ], [ 34.115, 0.154 ] ], [ [ 34.385193175074185, 0.183556083086054 ], [ 34.385118495297803, 0.183805015673986 ], [ 34.385, 0.1835 ], [ 34.385193175074185, 0.183556083086054 ] ], [ [ 34.395466666666664, 0.187033333333333 ], [ 34.389763414634153, 0.18488292682927 ], [ 34.3943, 0.1862 ], [ 34.395466666666664, 0.187033333333333 ] ], [ [ 34.43061688311689, 0.157901298701302 ], [ 34.4314, 0.1581 ], [ 34.4351, 0.1614 ], [ 34.4413, 0.1698 ], [ 34.4315, 0.1582 ], [ 34.43061688311689, 0.157901298701302 ] ], [ [ 34.424961066969352, 0.155721225879684 ], [ 34.424870170170173, 0.155957557557557 ], [ 34.4247, 0.1559 ], [ 34.424961066969352, 0.155721225879684 ] ], [ [ 34.435228571428567, 0.149914285714285 ], [ 34.433690591805771, 0.149743399089529 ], [ 34.4339, 0.1496 ], [ 34.435228571428567, 0.149914285714285 ] ], [ [ 34.4413, 0.1523 ], [ 34.438687573964501, 0.150732544378699 ], [ 34.4432, 0.1518 ], [ 34.4413, 0.1523 ] ], [ [ 34.464233333333297, 0.159566666666639 ], [ 34.4626, 0.1584 ], [ 34.4529, 0.1578 ], [ 34.4627, 0.1584 ], [ 34.464233333333297, 0.159566666666639 ] ], [ [ 34.4675, 0.1619 ], [ 34.467466301969367, 0.161875929978118 ], [ 34.4749, 0.1608 ], [ 34.4675, 0.1619 ] ], [ [ 34.524586445012787, 0.1293726342711 ], [ 34.5129, 0.1322 ], [ 34.5211, 0.1293 ], [ 34.524586445012787, 0.1293726342711 ] ], [ [ 34.5297, 0.1321 ], [ 34.525593768545995, 0.129393620178042 ], [ 34.5259, 0.1294 ], [ 34.5297, 0.1321 ] ], [ [ 34.5452, 0.1429 ], [ 34.544977992277992, 0.142853667953668 ], [ 34.54524986522911, 0.142808355795148 ], [ 34.5452, 0.1429 ] ], [ [ 34.553833671252718, 0.09333041274439 ], [ 34.5569, 0.0961 ], [ 34.5538, 0.0934 ], [ 34.553833671252718, 0.09333041274439 ] ], [ [ 34.5585, 0.0959 ], [ 34.55383817000542, 0.093321115322146 ], [ 34.55383817000542, 0.093321115322144 ], [ 34.5585, 0.0959 ] ], [ [ 34.5847, 0.1121 ], [ 34.5862, 0.1084 ], [ 34.584734951456312, 0.112306796116505 ], [ 34.5847, 0.1121 ] ], [ [ 34.5859, 0.1192 ], [ 34.58487842565598, 0.113155685131206 ], [ 34.586327006845053, 0.119290852520223 ], [ 34.5859, 0.1192 ] ], [ [ 34.595090965948572, 0.121155524669909 ], [ 34.594056774193561, 0.120935483870971 ], [ 34.595, 0.1211 ], [ 34.595090965948572, 0.121155524669909 ] ], [ [ 34.6021, 0.1256 ], [ 34.597566666666708, 0.122666666666692 ], [ 34.602547072252023, 0.125706654491496 ], [ 34.6021, 0.1256 ] ], [ [ 34.6776, 0.1345 ], [ 34.677155729794933, 0.134423039806997 ], [ 34.6813, 0.1287 ], [ 34.6776, 0.1345 ] ], [ [ 34.6847, 0.1285 ], [ 34.686420975609757, 0.129053170731707 ], [ 34.6813, 0.1287 ], [ 34.6847, 0.1285 ] ], [ [ 34.6954, 0.1386 ], [ 34.687308259278623, 0.129338369053843 ], [ 34.6875, 0.1294 ], [ 34.6954, 0.1386 ] ], [ [ 34.760303335724529, 0.143111047345768 ], [ 34.759881481481479, 0.143159259259259 ], [ 34.7602, 0.143 ], [ 34.760303335724529, 0.143111047345768 ] ], [ [ 34.797, 0.1675 ], [ 34.796922914699401, 0.167393075228203 ], [ 34.8039, 0.167 ], [ 34.797, 0.1675 ] ], [ [ 34.8166356, 0.159623599999985 ], [ 34.816272709063597, 0.158271006509766 ], [ 34.8167, 0.1584 ], [ 34.8166356, 0.159623599999985 ] ], [ [ 34.8154, 0.1697 ], [ 34.816293333333334, 0.166126666666674 ], [ 34.8155, 0.1812 ], [ 34.8154, 0.1697 ] ], [ [ 34.8107, 0.1876 ], [ 34.8127, 0.1868 ], [ 34.810754054054051, 0.187675675675676 ], [ 34.8107, 0.1876 ] ], [ [ 34.8117, 0.189 ], [ 34.81110625, 0.188168750000012 ], [ 34.811855643203877, 0.189033434466018 ], [ 34.8117, 0.189 ] ], [ [ 34.914, 0.2037 ], [ 34.913797514836794, 0.203547181008902 ], [ 34.914765540540543, 0.202308108108105 ], [ 34.914, 0.2037 ] ], [ [ 34.9162, 0.1997 ], [ 34.915939309366131, 0.200173982970675 ], [ 34.9118, 0.1892 ], [ 34.9162, 0.1997 ] ], [ [ 34.544, 0.0145 ], [ 34.5336, 0.0091 ], [ 34.533658456821662, 0.009030914665304 ], [ 34.544, 0.0145 ] ], [ [ 34.383005009163099, 0.32237672571777 ], [ 34.3832, 0.3227 ], [ 34.3856, 0.3391 ], [ 34.383005009163099, 0.32237672571777 ] ], [ [ 34.3868, 0.4664 ], [ 34.3895, 0.4656 ], [ 34.389506576402319, 0.465626692456481 ], [ 34.3868, 0.4664 ] ], [ [ 34.390455371900856, 0.469477685950552 ], [ 34.391179562841529, 0.472417049180327 ], [ 34.3911, 0.4724 ], [ 34.390455371900856, 0.469477685950552 ] ], [ [ 34.4047, 0.4804 ], [ 34.418745069721112, 0.479625099601594 ], [ 34.4171, 0.4803 ], [ 34.4047, 0.4804 ] ], [ [ 34.41953898477157, 0.479299390862946 ], [ 34.4298, 0.4702 ], [ 34.421, 0.4787 ], [ 34.41953898477157, 0.479299390862946 ] ], [ [ 34.435811320754716, 0.467922984562607 ], [ 34.4364, 0.4677 ], [ 34.438284563758387, 0.467979194630873 ], [ 34.435811320754716, 0.467922984562607 ] ], [ [ 34.4822, 0.4893 ], [ 34.485430163934424, 0.487011967213115 ], [ 34.4842, 0.489 ], [ 34.4822, 0.4893 ] ], [ [ 34.488960687960684, 0.481306388206388 ], [ 34.4905, 0.4777 ], [ 34.492744573234987, 0.475191359325603 ], [ 34.488960687960684, 0.481306388206388 ] ], [ [ 34.577910924369746, 0.461468067226894 ], [ 34.5812, 0.4574 ], [ 34.5799, 0.4597 ], [ 34.577910924369746, 0.461468067226894 ] ], [ [ 34.8101, 0.5943 ], [ 34.799449121418398, 0.604254092132339 ], [ 34.7993, 0.6041 ], [ 34.8101, 0.5943 ] ], [ [ 34.369549103448279, 0.776923402298851 ], [ 34.3707, 0.7763 ], [ 34.3732, 0.7765 ], [ 34.373341436464088, 0.777207182320442 ], [ 34.369549103448279, 0.776923402298851 ] ], [ [ 34.3709, 0.6118 ], [ 34.370553333333334, 0.611193333333333 ], [ 34.371290199081159, 0.611792036753446 ], [ 34.3709, 0.6118 ] ], [ [ 34.3697, 0.6097 ], [ 34.3707, 0.593 ], [ 34.369741558441561, 0.609772727272727 ], [ 34.3697, 0.6097 ] ], [ [ 34.406304950495056, 0.516474257425741 ], [ 34.4061, 0.517 ], [ 34.401, 0.5215 ], [ 34.406304950495056, 0.516474257425741 ] ], [ [ 34.4084, 0.509772222222209 ], [ 34.4084, 0.5111 ], [ 34.40725240083507, 0.514043841336132 ], [ 34.4084, 0.509772222222209 ] ], [ [ 34.4084, 0.509314285714289 ], [ 34.403244502617802, 0.504895287958115 ], [ 34.4042, 0.505 ], [ 34.4084, 0.509 ], [ 34.4084, 0.509314285714289 ] ], [ [ 34.3887, 0.4756 ], [ 34.3893225, 0.47477 ], [ 34.3859, 0.4892 ], [ 34.3887, 0.4756 ] ] ] } }
]
}
