{
"type": "FeatureCollection",
"name": "west_arsi_boundary",
"crs": { "type": "name", "properties": { "name": "urn:ogc:def:crs:OGC:1.3:CRS84" } },
"features": [
{ "type": "Feature", "properties": { "GID_2": "ETH.8.10_1", "GID_0": "ETH", "COUNTRY": "Ethiopia", "GID_1": "ETH.8_1", "NAME_1": "Oromia", "NL_NAME_1": "NA", "NAME_2": "MirabArsi", "VARNAME_2": "WestArsi", "NL_NAME_2": "NA", "TYPE_2": "Zone", "ENGTYPE_2": "Zone", "CC_2": "0417", "HASC_2": "NA" }, "geometry": { "type": "MultiPolygon", "coordinates": [ [ [ [ 39.4863, 6.6229 ], [ 39.471, 6.6121 ], [ 39.4494, 6.6104 ], [ 39.4318, 6.5969 ], [ 39.4265, 6.5827 ], [ 39.4312, 6.564 ], [ 39.419, 6.554 ], [ 39.4004, 6.5573 ], [ 39.3794, 6.5576 ], [ 39.3517, 6.5407 ], [ 39.3222, 6.4748 ], [ 39.314, 6.4436 ], [ 39.3161, 6.4001 ], [ 39.2921, 6.3829 ], [ 39.2592, 6.3681 ], [ 39.2534, 6.3536 ], [ 39.2563, 6.341 ], [ 39.2399, 6.3272 ], [ 39.2247, 6.3054 ], [ 39.2176, 6.2908 ], [ 39.1987, 6.3003 ], [ 39.1566, 6.3305 ], [ 39.1269, 6.3361 ], [ 39.1274, 6.3444 ], [ 39.1212, 6.3806 ], [ 39.1075, 6.4377 ], [ 39.1, 6.4556 ], [ 39.0954, 6.4721 ], [ 39.0966, 6.5216 ], [ 39.0862, 6.5452 ], [ 39.0698, 6.5533 ], [ 39.0526, 6.557 ], [ 39.0484, 6.5698 ], [ 39.0529, 6.584 ], [ 39.0645, 6.5988 ], [ 39.0593, 6.6088 ], [ 39.0322, 6.6118 ], [ 38.9596, 6.6009 ], [ 38.9417, 6.6103 ], [ 38.9445, 6.6303 ], [ 38.9494, 6.6438 ], [ 38.9344, 6.6556 ], [ 38.9179, 6.6592 ], [ 38.9018, 6.6657 ], [ 38.8551, 6.6687 ], [ 38.8377, 6.6749 ], [ 38.8335, 6.6917 ], [ 38.8179, 6.7036 ], [ 38.8099, 6.7013 ], [ 38.7793, 6.7002 ], [ 38.7542, 6.697 ], [ 38.7423, 6.7009 ], [ 38.7274, 6.712 ], [ 38.7209, 6.7301 ], [ 38.7056, 6.742 ], [ 38.6885, 6.7444 ], [ 38.6784, 6.749 ], [ 38.672, 6.7623 ], [ 38.6582, 6.7696 ], [ 38.6435, 6.7687 ], [ 38.6357, 6.7717 ], [ 38.6364, 6.7997 ], [ 38.6399, 6.8127 ], [ 38.6676, 6.8323 ], [ 38.6983, 6.8486 ], [ 38.7141, 6.8606 ], [ 38.6998, 6.9033 ], [ 38.7046, 6.9306 ], [ 38.7012, 6.9451 ], [ 38.6948, 6.9575 ], [ 38.7005, 6.9686 ], [ 38.7112, 6.9738 ], [ 38.7144, 6.9914 ], [ 38.7105, 7.013 ], [ 38.6977, 7.0138 ], [ 38.6894, 7.0009 ], [ 38.6774, 7.0054 ], [ 38.6744, 7.0165 ], [ 38.6781, 7.0288 ], [ 38.6845, 7.034 ], [ 38.6809, 7.0484 ], [ 38.668, 7.0599 ], [ 38.6535, 7.0617 ], [ 38.637, 7.0661 ], [ 38.6462, 7.0955 ], [ 38.6303, 7.1108 ], [ 38.6115, 7.1242 ], [ 38.5836, 7.1263 ], [ 38.5664, 7.1123 ], [ 38.5461, 7.0909 ], [ 38.5281, 7.091 ], [ 38.5051, 7.0878 ], [ 38.48, 7.0904 ], [ 38.4639, 7.0998 ], [ 38.46, 7.1182 ], [ 38.4425, 7.1268 ], [ 38.4208, 7.1225 ], [ 38.4006, 7.1215 ], [ 38.3781, 7.1298 ], [ 38.3569, 7.1459 ], [ 38.3422, 7.1645 ], [ 38.3219, 7.1617 ], [ 38.3134, 7.1471 ], [ 38.3053, 7.1216 ], [ 38.2892, 7.1071 ], [ 38.2544, 7.0599 ], [ 38.2379, 7.0201 ], [ 38.2164, 7.0144 ], [ 38.1938, 7.0123 ], [ 38.1701, 7.0009 ], [ 38.1466, 6.9775 ], [ 38.1293, 6.9738 ], [ 38.1171, 6.9809 ], [ 38.1089, 6.9996 ], [ 38.1019, 7.0108 ], [ 38.0879, 7.0229 ], [ 38.0734, 7.0296 ], [ 38.0642, 7.0434 ], [ 38.0614, 7.0722 ], [ 38.0665, 7.0877 ], [ 38.0695, 7.1224 ], [ 38.0764, 7.1541 ], [ 38.078, 7.1803 ], [ 38.087, 7.1949 ], [ 38.1043, 7.2109 ], [ 38.144, 7.2322 ], [ 38.1811, 7.2579 ], [ 38.1986, 7.2615 ], [ 38.2058, 7.2655 ], [ 38.22, 7.2755 ], [ 38.2336, 7.2879 ], [ 38.2652, 7.3067 ], [ 38.2757, 7.3189 ], [ 38.2815, 7.3387 ], [ 38.2772, 7.3612 ], [ 38.2794, 7.3806 ], [ 38.2925, 7.3914 ], [ 38.3089, 7.4015 ], [ 38.3189, 7.4142 ], [ 38.3252, 7.4339 ], [ 38.3282, 7.4564 ], [ 38.3272, 7.4617 ], [ 38.3412, 7.4786 ], [ 38.3917, 7.5019 ], [ 38.4139, 7.5042 ], [ 38.4268, 7.5147 ], [ 38.4295, 7.5339 ], [ 38.4257, 7.5539 ], [ 38.4189, 7.5695 ], [ 38.4329, 7.5774 ], [ 38.4496, 7.5898 ], [ 38.4573, 7.6089 ], [ 38.4743, 7.6219 ], [ 38.4983, 7.6333 ], [ 38.5118, 7.6492 ], [ 38.5352, 7.6686 ], [ 38.565, 7.6687 ], [ 38.5857, 7.658 ], [ 38.6088, 7.66 ], [ 38.6676, 7.6781 ], [ 38.6962, 7.6824 ], [ 38.7234, 7.6742 ], [ 38.7541, 7.6676 ], [ 38.7856, 7.667 ], [ 38.7849, 7.6854 ], [ 38.8262, 7.6946 ], [ 38.8443, 7.7042 ], [ 38.8562, 7.7058 ], [ 38.8624, 7.6889 ], [ 38.8642, 7.678 ], [ 38.876, 7.6626 ], [ 38.886, 7.6617 ], [ 38.8969, 7.6653 ], [ 38.896, 7.6553 ], [ 38.886, 7.6408 ], [ 38.8778, 7.6162 ], [ 38.8833, 7.6044 ], [ 38.8887, 7.599 ], [ 38.8715, 7.579 ], [ 38.8751, 7.5744 ], [ 38.886, 7.5717 ], [ 38.866, 7.5044 ], [ 38.8605, 7.5044 ], [ 38.8469, 7.4735 ], [ 38.8542, 7.4654 ], [ 38.8624, 7.4654 ], [ 38.8687, 7.4526 ], [ 38.8824, 7.4481 ], [ 38.8824, 7.4308 ], [ 38.8887, 7.4163 ], [ 38.8896, 7.4008 ], [ 38.8933, 7.3836 ], [ 38.9014, 7.3863 ], [ 38.8978, 7.3726 ], [ 38.8987, 7.3636 ], [ 38.8924, 7.3608 ], [ 38.8896, 7.3536 ], [ 38.896, 7.3517 ], [ 38.9042, 7.3536 ], [ 38.9133, 7.3481 ], [ 38.9151, 7.3417 ], [ 38.9078, 7.3381 ], [ 38.9105, 7.3327 ], [ 38.918, 7.3251 ], [ 38.9706, 7.3175 ], [ 39.001, 7.3268 ], [ 39.041, 7.342 ], [ 39.0664, 7.3546 ], [ 39.1277, 7.3631 ], [ 39.1506, 7.3468 ], [ 39.1699, 7.3407 ], [ 39.1919, 7.33 ], [ 39.1966, 7.3032 ], [ 39.2057, 7.2853 ], [ 39.2377, 7.2846 ], [ 39.2681, 7.2782 ], [ 39.2924, 7.2652 ], [ 39.3165, 7.2483 ], [ 39.3346, 7.2268 ], [ 39.3676, 7.1921 ], [ 39.3941, 7.1532 ], [ 39.4024, 7.1618 ], [ 39.4396, 7.1798 ], [ 39.4383, 7.2028 ], [ 39.4525, 7.2277 ], [ 39.4689, 7.2631 ], [ 39.4821, 7.2804 ], [ 39.4908, 7.3091 ], [ 39.4989, 7.3521 ], [ 39.5123, 7.3854 ], [ 39.5219, 7.4016 ], [ 39.5413, 7.3865 ], [ 39.5417, 7.3773 ], [ 39.5469, 7.3529 ], [ 39.5613, 7.3372 ], [ 39.5896, 7.3331 ], [ 39.607, 7.319 ], [ 39.6325, 7.2818 ], [ 39.6431, 7.2445 ], [ 39.642, 7.1889 ], [ 39.6467, 7.1679 ], [ 39.6699, 7.1673 ], [ 39.6822, 7.1711 ], [ 39.6835, 7.165 ], [ 39.6689, 7.1487 ], [ 39.6266, 7.1281 ], [ 39.6111, 7.1109 ], [ 39.6192, 7.0932 ], [ 39.6444, 7.0753 ], [ 39.6551, 7.0564 ], [ 39.6845, 7.0124 ], [ 39.6964, 6.9971 ], [ 39.7299, 6.9765 ], [ 39.7311, 6.9526 ], [ 39.7459, 6.9288 ], [ 39.7582, 6.9147 ], [ 39.7707, 6.8848 ], [ 39.75, 6.8614 ], [ 39.7251, 6.8411 ], [ 39.6593, 6.8073 ], [ 39.6376, 6.7917 ], [ 39.6274, 6.7748 ], [ 39.6359, 6.7428 ], [ 39.6249, 6.7284 ], [ 39.5995, 6.717 ], [ 39.5778, 6.7022 ], [ 39.5324, 6.6585 ], [ 39.5164, 6.6689 ], [ 39.5101, 6.6874 ], [ 39.4939, 6.6774 ], [ 39.4922, 6.6672 ], [ 39.4985, 6.6396 ], [ 39.4863, 6.6229 ] ] ] ] } }
]
}
