{
"type": "FeatureCollection",
"name": "inland_pastoral_drylands_boundary",
"crs": { "type": "name", "properties": { "name": "urn:ogc:def:crs:OGC:1.3:CRS84" } },
"features": [
{ "type": "Feature", "properties": { "GID_1": "DJI.1_2", "GID_0": "DJI", "COUNTRY": "Djibouti", "NAME_1": "AliSabieh", "VARNAME_1": "`AliSabîh", "NL_NAME_1": "إقليمعلىصبيح", "TYPE_1": "NA", "ENGTYPE_1": "Region", "CC_1": "NA", "HASC_1": "DJ.AS", "ISO_1": "DJ-AS" }, "geometry": { "type": "Polygon", "coordinates": [ [ [ 43.0013, 11.0515 ], [ 42.9859, 11.0219 ], [ 42.9616, 10.9844 ], [ 42.939, 10.9665 ], [ 42.8203, 10.957 ], [ 42.7573, 10.9707 ], [ 42.7615, 11.0075 ], [ 42.7373, 11.0484 ], [ 42.7215, 11.0558 ], [ 42.6743, 11.0379 ], [ 42.6512, 11.0526 ], [ 42.6268, 11.0733 ], [ 42.5805, 11.0536 ], [ 42.4743, 11.0319 ], [ 42.4327, 10.9907 ], [ 42.3948, 10.9686 ], [ 42.3486, 10.9844 ], [ 42.3203, 10.9833 ], [ 42.2992, 10.9791 ], [ 42.2698, 10.9791 ], [ 42.2425, 10.9623 ], [ 42.1942, 10.9581 ], [ 42.1711, 10.9539 ], [ 42.1606, 10.9665 ], [ 42.1133, 10.9696 ], [ 42.066, 10.9507 ], [ 42.045, 10.9539 ], [ 42.0345, 10.9213 ], [ 41.9925, 10.9203 ], [ 41.9673, 10.914 ], [ 41.94, 10.9245 ], [ 41.9263, 10.9087 ], [ 41.9158, 10.9087 ], [ 41.9043, 10.914 ], [ 41.9053, 10.9371 ], [ 41.8601, 10.9444 ], [ 41.8076, 10.956 ], [ 41.7803, 10.9581 ], [ 41.774, 10.9686 ], [ 41.7551, 10.9728 ], [ 41.7517, 10.9865 ], [ 41.7548, 10.9952 ], [ 41.7612, 11.0039 ], [ 41.7638, 11.085 ], [ 41.7676, 11.1067 ], [ 41.7769, 11.2856 ], [ 41.7726, 11.3226 ], [ 41.7741, 11.3677 ], [ 41.7482, 11.4927 ], [ 41.7482, 11.5067 ], [ 41.7654, 11.5496 ], [ 41.7654, 11.5624 ], [ 41.7815, 11.6203 ], [ 41.7815, 11.6374 ], [ 41.8158, 11.7382 ], [ 41.8599, 11.7523 ], [ 41.8664, 11.7627 ], [ 41.8749, 11.7688 ], [ 41.8801, 11.7982 ], [ 41.9422, 11.8243 ], [ 41.9643, 11.8562 ], [ 41.9802, 11.8701 ], [ 41.9969, 11.8956 ], [ 42.0107, 11.9222 ], [ 42.1281, 11.8953 ], [ 42.299, 11.7473 ], [ 42.2966, 11.7265 ], [ 42.3508, 11.6556 ], [ 42.3104, 11.6054 ], [ 42.3151, 11.4028 ], [ 42.4668, 11.2512 ], [ 42.5754, 11.2474 ], [ 42.632, 11.2454 ], [ 42.8505, 11.3523 ], [ 42.8676, 11.4248 ], [ 42.892, 11.4596 ], [ 43.1017, 11.4727 ], [ 43.2134, 11.4023 ], [ 43.2139, 11.4032 ], [ 43.2195, 11.3984 ], [ 43.1613, 11.3053 ], [ 43.1583, 11.3026 ], [ 43.1562, 11.2967 ], [ 43.1417, 11.276 ], [ 43.1388, 11.2693 ], [ 43.0868, 11.1865 ], [ 43.0013, 11.0515 ] ] ] } }
]
}
